{"type": "FeatureCollection", "features": [{"type": "Feature", "geometry": {"type": "Polygon", "coordinates": [[[78.36539020662086, 30.523959980387893], [78.36541940795726, 30.52287826254756], [78.36416992874018, 30.522852976647062], [78.36419914230392, 30.521771259687256], [78.36294967847863, 30.521745962910757], [78.36297890426822, 30.520664246831927], [78.3642283542851, 30.520689542522387], [78.36419914230392, 30.521771259687256], [78.36544860771178, 30.5217965445022], [78.36541940795726, 30.52287826254756], [78.36791837113633, 30.52292879846215], [78.36788919742007, 30.524010518472085], [78.36539020662086, 30.523959980387893]]]}, "properties": {"hazard_class": 1, "hazard_name": "Low", "area_ha": 5.76}}, {"type": "Feature", "geometry": {"type": "Polygon", "coordinates": [[[78.36541940795726, 30.52287826254756], [78.36544860771178, 30.5217965445022], [78.36419914230392, 30.521771259687256], [78.36428677350007, 30.518526107577582], [78.36553619748476, 30.518551389136036], [78.36547780588448, 30.52071482625181], [78.3667272590656, 30.520740098020156], [78.36669807470145, 30.521821817355548], [78.36919701342323, 30.521872327177224], [78.36916785509682, 30.522954048476144], [78.36541940795726, 30.52287826254756]]]}, "properties": {"hazard_class": 3, "hazard_name": "Significant", "area_ha": 10.08}}, {"type": "Feature", "geometry": {"type": "Polygon", "coordinates": [[[78.36669807470145, 30.521821817355548], [78.3667272590656, 30.520740098020156], [78.36547780588448, 30.52071482625181], [78.36556539091245, 30.51746967027065], [78.36681480267242, 30.517494938784097], [78.36684398071304, 30.516413218628777], [78.36809338024814, 30.516438474098216], [78.36812254290318, 30.515356752653577], [78.36937193021328, 30.515381995080013], [78.36940107748423, 30.514300272346567], [78.37065045256917, 30.514325501730994], [78.3706795844575, 30.513243777709334], [78.37192894731716, 30.513268994052737], [78.37195806382438, 30.51218726874343], [78.3732074144586, 30.512212472046816], [78.37323651558621, 30.51113074545043], [78.37573519397934, 30.511181114022275], [78.37576426592723, 30.51009938505818], [78.3782629230174, 30.510149703641588], [78.37823387867289, 30.51123143476651], [78.37948322338048, 30.51125657720315], [78.37951225392317, 30.510174844998577], [78.38201092045236, 30.510225091842845], [78.3820979198414, 30.506979887527983], [78.38334721406173, 30.507004989780974], [78.3834051782015, 30.504841517058537], [78.3846544463947, 30.50486660520138], [78.38468341231165, 30.50378486745579], [78.38593266827661, 30.503809942567496], [78.38596161882721, 30.502728203540414], [78.3909586031774, 30.502828380146756], [78.39113194247547, 30.496337915875685], [78.39238110971064, 30.496362923698168], [78.39243884937133, 30.494199431824004], [78.39368799058732, 30.49422442554874], [78.3937168442806, 30.493142678231454], [78.39496597326938, 30.493167658933615], [78.39499481160921, 30.49208591033887], [78.39624392837061, 30.492110878019467], [78.39630157278464, 30.489947378071893], [78.39380339598009, 30.48989743505343], [78.39383224342006, 30.488815686918734], [78.39008503130205, 30.488740686007894], [78.39011391853947, 30.48765894089094], [78.39511014934315, 30.487758913916615], [78.39508131725333, 30.48884066332866], [78.40132670984082, 30.488965366173225], [78.40135547299452, 30.487883611403845], [78.40260454240358, 30.48790851506146], [78.4026620364626, 30.485745002770365], [78.4014129946262, 30.485720101252546], [78.40149926538547, 30.48247483449421], [78.40274826586851, 30.482499732802523], [78.40277700588874, 30.481417975738278], [78.40402599414624, 30.481442861033138], [78.40405471882674, 30.480361102695515], [78.40530369485855, 30.480385974977914], [78.40538981821813, 30.477140695534292], [78.40414088352894, 30.477115826457965], [78.40419831888167, 30.474952307945795], [78.40294941330673, 30.47492742906611], [78.40312176467305, 30.468436875046073], [78.40437058759225, 30.468461747511427], [78.40439929359826, 30.46737998672482], [78.40814573036735, 30.467454529291427], [78.40817439349937, 30.466372765096988], [78.41566722632373, 30.466521521530364], [78.41563864583011, 30.467603292118522], [78.4218827846544, 30.467726932859605], [78.42191129628074, 30.466645156957433], [78.42316011491083, 30.466669848231216], [78.42321710598274, 30.46450629369326], [78.42571469278504, 30.46455563618694], [78.42577162259485, 30.462392076592565], [78.42452285596433, 30.46236741343422], [78.42460828041689, 30.45912207569576], [78.42335955663765, 30.45909740378392], [78.42347348936923, 30.454770288190545], [78.42222482220033, 30.45474560858915], [78.42225331528851, 30.453663830242697], [78.42100466342876, 30.45363913977117], [78.42109017471675, 30.450393806694233], [78.41984156569143, 30.450369107477538], [78.41987008012578, 30.449287330439816], [78.42361587055075, 30.449361389117012], [78.42364434215669, 30.448279608691447], [78.42489292829164, 30.44830426999863], [78.42486447044676, 30.449386051484545], [78.42985888544952, 30.44948458166235], [78.42988728824938, 30.448402795940105], [78.43613027283106, 30.448525684966764], [78.43618693620756, 30.446362102344345], [78.43368979280443, 30.44631298674464], [78.433718149708, 30.445231197240265], [78.42997248741185, 30.445157437552407], [78.43000088405388, 30.444075651016206], [78.42750381106863, 30.44402642037112], [78.4275322336866, 30.44294463574837], [78.42503519437935, 30.44289535951534], [78.42506364297006, 30.441813576807988], [78.42631214809629, 30.441838219827872], [78.42634058138893, 30.440756435857274], [78.42758907430053, 30.440781065892338], [78.42770273704228, 30.436453923738288], [78.4264542991473, 30.436429297939725], [78.42648272473417, 30.435347512951566], [78.42523430213241, 30.435322876289483], [78.4252627399298, 30.434241092157382], [78.42651114878011, 30.434265727759914], [78.42656799224943, 30.43210215676613], [78.42781637513974, 30.43212677832858], [78.42784478081397, 30.431044991467495], [78.42909315149488, 30.431069600050385], [78.42912154188055, 30.429987811927408], [78.43036990035193, 30.43001240753175], [78.43039827545054, 30.428930618147447], [78.43414331884752, 30.429004330268597], [78.43428496507961, 30.42359536444405], [78.43553324722163, 30.42361990603261], [78.43556155811689, 30.42253811120206], [78.43805809951726, 30.422587156517306], [78.43808638139134, 30.42150535937363], [78.43933464064875, 30.421529863101775], [78.439362907247, 30.420448064700725], [78.44061115429443, 30.4204725554588], [78.44063940561833, 30.419390755800976], [78.44313587682383, 30.419439699463474], [78.44310765298381, 30.420521501226972], [78.4443559046243, 30.420545956236953], [78.44438411472228, 30.41946415342139], [78.44688059510682, 30.419513025590316], [78.44690877619252, 30.4184312204691], [78.44815700493562, 30.41845563762949], [78.44821333504258, 30.41629202467698], [78.44946153783191, 30.41631642782219], [78.44954598032403, 30.413071003721093], [78.44829781875053, 30.4130466037256], [78.44841044231941, 30.40871937294846], [78.44716233721645, 30.40869496524161], [78.44724683006429, 30.405449543178232], [78.4447507068403, 30.405400698338898], [78.44477889553215, 30.404318892680404], [78.44103476335687, 30.404245539261076], [78.44106299171271, 30.403163736556273], [78.44605511608097, 30.40326151309064], [78.44602694264856, 30.40434332000335], [78.44852304146379, 30.40439213892366], [78.44846674494438, 30.40655575634199], [78.44971482410632, 30.40658015003869], [78.4496585489489, 30.408743768744667], [78.45090665710418, 30.408768152630156], [78.45085040331426, 30.410931772622877], [78.45209854046539, 30.410956146695163], [78.45207042501922, 30.412037957435924], [78.45331857743136, 30.412062320644672], [78.453290474198, 30.413144132230823], [78.45453864187132, 30.413168484574967], [78.45459481934023, 30.41100485910417], [78.45584296106244, 30.411029197440776], [78.45598330941176, 30.40562012497746], [78.45723138398336, 30.405644446168612], [78.45731553353528, 30.402398997116833], [78.45856356843302, 30.402423303260214], [78.45859160151157, 30.401341485457973], [78.45983962419923, 30.401365778647826], [78.45989565833787, 30.399202140344098], [78.46114365508647, 30.39922641953642], [78.46122765371852, 30.395980957425564], [78.46247561080335, 30.396005221578058], [78.46250359358483, 30.39492339942468], [78.46375153846118, 30.394947650628215], [78.46380747202211, 30.39278400362581], [78.46505539096526, 30.39280824083809], [78.46508334174702, 30.391726415989655], [78.46757915673216, 30.391774852618166], [78.46760707855177, 30.390693025482143], [78.46885497459279, 30.39071722489983], [78.46891078624513, 30.388553567936736], [78.47015865635511, 30.388577753369287], [78.47018654619013, 30.387495923542808], [78.47268226350454, 30.387544256621663], [78.47271012438605, 30.386462424511976], [78.47395797158954, 30.38648657215975], [78.47401366138084, 30.384322905253942], [78.4752614826554, 30.384347038922666], [78.47531713897028, 30.382183369129226], [78.47656493431788, 30.382207488821013], [78.47670398011792, 30.3767983056039], [78.47545625334806, 30.37677419110416], [78.47548407169684, 30.375692354892074], [78.47298865011079, 30.375644092281735], [78.47296080433559, 30.376725926415595], [78.46921764214613, 30.376653440160744], [78.46924552906047, 30.375571609148057], [78.46550242162242, 30.375499018953843], [78.46553034816056, 30.37441719086441], [78.47176879956011, 30.37453810983648], [78.47182451098206, 30.372374442636495], [78.4730721783752, 30.372398588665856], [78.47321136194931, 30.366989411925324], [78.47570656417739, 30.367037657911503], [78.47573436894979, 30.36595581987852], [78.47698195861986, 30.36597992399582], [78.47700974817822, 30.364898084722405], [78.47825732564974, 30.364922175910777], [78.47828509999555, 30.363840335397533], [78.47953266526835, 30.363864413657968], [78.4796436927734, 30.359537045434507], [78.47714867336148, 30.35948888532148], [78.47717645387692, 30.35840704483453], [78.47842394912824, 30.35843112979773], [78.47845171443599, 30.357349288071095], [78.47969919749264, 30.357373360109566], [78.47972694759419, 30.356291517143806], [78.48097441845604, 30.35631557625853], [78.48100215335288, 30.3552337320542], [78.48224961201977, 30.355257778246184], [78.48230504990332, 30.353094087159402], [78.48105761863317, 30.353070043039097], [78.48108534901678, 30.35198819822833], [78.47983793294817, 30.35196414325902], [78.4798934165948, 30.349800455103637], [78.47864602942325, 30.349776390323136], [78.47870153443944, 30.34761270343264], [78.47745417616241, 30.34758862884299], [78.4774819401056, 30.34650678613173], [78.47498725545748, 30.346458603380583], [78.47501504527952, 30.34537676254308], [78.47626237315768, 30.34540085882146], [78.47629014778043, 30.344319016743555], [78.4787847806728, 30.344367171580714], [78.47881252640663, 30.34328532722578], [78.4800598314199, 30.34330938578603], [78.48011529099182, 30.341145694396484], [78.48136257012925, 30.341169739003846], [78.48139028396966, 30.340087891969834], [78.48263755092155, 30.34011192366193], [78.48280372027358, 30.33362083100142], [78.48405090660877, 30.333644844604436], [78.48410625700595, 30.33148114336489], [78.48285909803799, 30.33145713183165], [78.48288678466683, 30.33037528194374], [78.47540394452527, 30.330230969587664], [78.4754317117411, 30.32914912571744], [78.47792595840703, 30.329197275258746], [78.47795369675505, 30.328115429111147], [78.48418927134081, 30.328235589990623], [78.48429993610314, 30.323908182663928], [78.48305287289715, 30.323884178374183], [78.4830805490124, 30.322802327072292], [78.4805864544608, 30.32275428494904], [78.48061415642732, 30.32167243551605], [78.48310822362596, 30.32172047556843], [78.48313589673793, 30.320638623862596], [78.48438291891418, 30.32066262504833], [78.48443823328417, 30.318498918961545], [78.48319123845735, 30.318474919845045], [78.48327423977621, 30.31522936230407], [78.4845211935844, 30.31525335831688], [78.48454884401683, 30.314171504364833], [78.48579578565402, 30.31419548747609], [78.48585105467713, 30.312031776898312], [78.4870979704731, 30.31205574607556], [78.48715320616036, 30.30989203262343], [78.48590631770224, 30.309868065512994], [78.48593394696573, 30.308786209517546], [78.48468707367473, 30.308762231575976], [78.48471471510595, 30.30768037641253], [78.48845529847479, 30.307752271543528], [78.48848289740701, 30.306670413078184], [78.48972974785995, 30.306694353361372], [78.48984007395424, 30.302366913352923], [78.48859327815983, 30.302342977198787], [78.48864845955157, 30.300179258048345], [78.48615492710489, 30.30013135428729], [78.48618254287723, 30.299049496475263], [78.48493579256272, 30.299025527837767], [78.48496342049674, 30.297943670857595], [78.48371668534195, 30.297919691394398], [78.48377196403037, 30.295755978896864], [78.48501867186683, 30.29577995629176], [78.48499104693141, 30.29686181367559], [78.48748449441904, 30.296909734957044], [78.48751209203661, 30.295827875506472], [78.48875880436846, 30.295851817326188], [78.48878638683007, 30.294769956641254], [78.49003308700057, 30.29479388557041], [78.49006065430764, 30.29371202365167], [78.48881396779473, 30.293688095754565], [78.48884154726255, 30.29260623466613], [78.48510153767805, 30.29253438292936], [78.48512915661703, 30.29145252473829], [78.48138920149084, 30.291380569393947], [78.481416859896, 30.290298714104683], [78.48017022484349, 30.290274706313113], [78.4802255644582, 30.28811099720007], [78.47897895821494, 30.288086979624996], [78.47903431912738, 30.285923271776443], [78.47778774169089, 30.285899244419873], [78.47787081274353, 30.282653684242277], [78.47911734922906, 30.28267770848949], [78.47914502292535, 30.281595853656768], [78.48039154726406, 30.281619865016133], [78.4804192058102, 30.280538008945655], [78.48166571800192, 30.28056200741817], [78.48169336139934, 30.279480150110533], [78.48667937057283, 30.279576021353453], [78.48670695788212, 30.278494159707844], [78.48795345027384, 30.27851809685911], [78.48806372995702, 30.27419064412869], [78.48681729214633, 30.274166711108254], [78.48684487196948, 30.27308484845412], [78.48435202812671, 30.2730369489356], [78.48437963373797, 30.271955088146573], [78.48687245029559, 30.272002985598288], [78.4870930230199, 30.263348075491454], [78.4858467231064, 30.26332414095349], [78.48581914311733, 30.26440600438968], [78.48332652050935, 30.264358097717288], [78.48335412777158, 30.26327623634856], [78.48086153843127, 30.26322828437198], [78.48088917146627, 30.262146424871005], [78.47715033961504, 30.262074411193165], [78.4771780120544, 30.260992554598406], [78.47468549226618, 30.260944488343547], [78.4747131904711, 30.259862633621456], [78.47845193150535, 30.259934712130352], [78.47842427420215, 30.261016569963406], [78.47967053785136, 30.261040573486714], [78.47969818152049, 30.259958714617706], [78.48219068605196, 30.26000668406865], [78.48216306965114, 30.26108854500806], [78.48465560744783, 30.261136469162025], [78.48468319658006, 30.260054606154277], [78.485929454091, 30.26007854943496], [78.4859570280919, 30.258996685192145], [78.48720327346605, 30.25902061559847], [78.48717571309889, 30.26010248087416], [78.48842197360297, 30.260126400471822], [78.48844952033635, 30.259044534163777], [78.48969576870202, 30.259068440887994], [78.48972330030688, 30.2579865733465], [78.49096953653402, 30.258010467198275], [78.49099705301184, 30.25692859842391], [78.49348950268181, 30.256976348544352], [78.49351699040221, 30.255894477507425], [78.49600941877749, 30.25594217820785], [78.49603687774321, 30.25486030491048], [78.49479067644107, 30.254836461509377], [78.49490055191539, 30.25050897042215], [78.49614669869992, 30.250532809706616], [78.49611924569653, 30.251614683809724], [78.49736540759984, 30.251638512285503], [78.49733796673507, 30.25272038721584], [78.49858414375728, 30.252744204881893], [78.49850185311578, 30.255989831548884], [78.49974807251922, 30.256013640459496], [78.49969323191041, 30.25817739261922], [78.50093948006764, 30.25820119174426], [78.50091207116401, 30.259283068549284], [78.50340459920923, 30.259330633329025], [78.50337721608676, 30.260412511985656], [78.50462349597422, 30.26043627763875], [78.50484241027841, 30.25178123454346], [78.5060885825944, 30.25180498015318], [78.50614326905904, 30.249641215316455], [78.50738941560253, 30.249664947038937], [78.50744406887529, 30.24750117934825], [78.50869018964822, 30.24752489718556], [78.50871750043319, 30.24644301201447], [78.51120971917454, 30.246490410133916], [78.511237001226, 30.245408522715344], [78.5149752995691, 30.245479528059835], [78.5150025392649, 30.244397637374593], [78.52372519175306, 30.244562895131907], [78.52369804743333, 30.245644792952213], [78.52619027438432, 30.245691904971014], [78.52621739145313, 30.244610005116705], [78.52746349351196, 30.244633542355977], [78.5275176959839, 30.242469740012368], [78.52627162117399, 30.24244620480549], [78.52632584500626, 30.240282403690863], [78.52383375429507, 30.240235301841608], [78.52386089124668, 30.23915340301679], [78.52261486172262, 30.23912983535985], [78.52264201082174, 30.23804793735178], [78.52014998343847, 30.23800076857654], [78.52017715830367, 30.236918872404328], [78.52142315763784, 30.236942461689402], [78.52145031740824, 30.23586056429764], [78.52269630459779, 30.235884140732942], [78.52266915844677, 30.236966039142814], [78.52889918458703, 30.237083748933156], [78.5288721050636, 30.238165652225074], [78.53261017925938, 30.238236139159763], [78.53263721792105, 30.237154232824192], [78.53139120534061, 30.237130750025894], [78.53144530549874, 30.23496693878062], [78.5339372776494, 30.235013888490098], [78.5339642982884, 30.23393198053892], [78.53645624907081, 30.23397888089844], [78.5364832410069, 30.232896970721214], [78.54022113731729, 30.23296722949568], [78.54024808693583, 30.2318853160837], [78.54772383734331, 30.23202550815684], [78.54775070379732, 30.230943588489932], [78.55273451212176, 30.231036809243523], [78.55278813172455, 30.22887296125662], [78.55403406021475, 30.22889623486013], [78.55411443785763, 30.225650458361837], [78.5553603269594, 30.225673717122568], [78.55538710298428, 30.224591790217946], [78.55787885832318, 30.224638270249553], [78.5579056056693, 30.223556341137044], [78.55915147190548, 30.223579562409356], [78.5592316643963, 30.22033377086152], [78.56047749125105, 30.220356977299854], [78.56055762985146, 30.21711118094307], [78.55931184382321, 30.217087977511994], [78.55933856739608, 30.216006045995133], [78.5580927964265, 30.21598283174348], [78.55811953215463, 30.214900901029324], [78.55687377624355, 30.21487767595816], [78.55690052412551, 30.213795746047182], [78.55565478327279, 30.21377251015755], [78.55568154330707, 30.212690581050204], [78.5544358175126, 30.212667334343156], [78.55446258969775, 30.211585406039934], [78.55570830188806, 30.21160865174265], [78.55584207299596, 30.206199002201853], [78.55708771862949, 30.206222231065016], [78.55711445489234, 30.205140299552596], [78.5583600883782, 30.205163515594325], [78.55841352935018, 30.20299964996271], [78.55965913708975, 30.20302285218135], [78.55968584180118, 30.201940918062743], [78.55844024765932, 30.20191771684669], [78.55846696451731, 30.20083578353058], [78.55597580778151, 30.200789347656453], [78.55600255038067, 30.199707416146875], [78.55475698778727, 30.199684181490415], [78.55478374252924, 30.198602250784763], [78.56101150203662, 30.198718300899866], [78.56103818735197, 30.197636364978887], [78.56228373000994, 30.197659538556106], [78.56231040028172, 30.196577601433564], [78.56480146275445, 30.196623911143416], [78.56482810439059, 30.195541971819456], [78.56731914546457, 30.195588232274115], [78.56734575846781, 30.19450629075087], [78.57108229013967, 30.194575589836006], [78.57110886092036, 30.193493645117744], [78.5723543607728, 30.193516720189145], [78.57238091651851, 30.192434774273707], [78.57362640422167, 30.19245783653559], [78.57365294493387, 30.191375889423526], [78.57489842048761, 30.191398938876873], [78.57492494616778, 30.190316990568725], [78.57617040957197, 30.190340027214525], [78.57619692022159, 30.189258077710885], [78.57744237147608, 30.189281101550137], [78.57749536127793, 30.187117199953228], [78.57874078679423, 30.18714020999225], [78.57882021994267, 30.183894353115075], [78.58006560613651, 30.18391734836187], [78.58001267931576, 30.18608125513456], [78.58125809412041, 30.186104240560102], [78.58120518872543, 30.188268148521328], [78.5824506321434, 30.18829112412362], [78.58255638283595, 30.183963303430154], [78.58380177334007, 30.183986263251537], [78.5839338614746, 30.178576477930665], [78.58268853889157, 30.17855352307175], [78.58271496579536, 30.177471566401238], [78.58520558523232, 30.17751746232871], [78.58523198353785, 30.176435503474313], [78.58647728182653, 30.176458432738333], [78.58650366511732, 30.175376472693017], [78.58774895125862, 30.175399389161086], [78.58777531953612, 30.174317427925406], [78.58902059352992, 30.17434033159851], [78.5890469467956, 30.17325836917302], [78.59029220864177, 30.17328126005218], [78.59031854689714, 30.172199296437448], [78.59156379659554, 30.172222174523615], [78.59159011984204, 30.171140209720196], [78.59408059637236, 30.171185928505775], [78.59410689103412, 30.17010396152603], [78.59535211786512, 30.17012680222689], [78.59550977438928, 30.163634990236083], [78.59675492119854, 30.163657813211927], [78.59680743480929, 30.161493872313006], [78.59805255590115, 30.16151668151645], [78.59826244474054, 30.152860902058443], [78.59701743219561, 30.152838100746273], [78.59704367545109, 30.15175612840377], [78.59579867789716, 30.15173331628415], [78.59585118725808, 30.14956937297503], [78.59460621825846, 30.149546551036316], [78.59465874903779, 30.14738260890468], [78.59216886957023, 30.14733693360148], [78.5921951599414, 30.146254964212762], [78.59468501228667, 30.14630063753998], [78.59479005101174, 30.141972750088637], [78.59354517836252, 30.14194992327131], [78.59370277497995, 30.13545809204279], [78.59245798509187, 30.135435259364964], [78.59256307516642, 30.13110737184664], [78.59380781084684, 30.131130200572525], [78.59386032021844, 30.128966253642115], [78.59510503022624, 30.128989068609247], [78.59513126922313, 30.127907093857885], [78.59637596710827, 30.12792989605517], [78.59640219113115, 30.126847920117783], [78.59764687689349, 30.126870709546235], [78.59767308594385, 30.12578873242337], [78.59393907357499, 30.125720331752586], [78.59396532184053, 30.12463835739104], [78.59272066744956, 30.124615534592433], [78.5926944056376, 30.12569750796615], [78.58771574816882, 30.125606095007583], [78.58774206416572, 30.124524125590266], [78.58649741691846, 30.124501243888027], [78.58652374503049, 30.12341927526179], [78.58527911275945, 30.123396382769823], [78.58530545298512, 30.122314414935126], [78.58281621982755, 30.122268596594385], [78.58286895015765, 30.12010466429336], [78.58411353893366, 30.120127577369804], [78.58424527198069, 30.114717738170036], [78.58051171306205, 30.11464897848951], [78.58053809599107, 30.113567013028245], [78.57680459059358, 30.113498150347095], [78.57683101270122, 30.112416187667606], [78.57558652731083, 30.112393210885013], [78.57561296151904, 30.11131124900082], [78.58556877651698, 30.111494725626855], [78.58564774567093, 30.108248814948556], [78.58315886453506, 30.108203022385734], [78.58318521179318, 30.10712105374376], [78.57820752084929, 30.107029331316273], [78.57823392080817, 30.105947366446294], [78.57698951519106, 30.105924407403144], [78.57701592724729, 30.104842443327875], [78.57577153659814, 30.104819473507774], [78.57582438346603, 30.10265554674818], [78.57706874705286, 30.102678514579182], [78.57712156111633, 30.100514585033043], [78.57836589907917, 30.10053753910605], [78.57839229042915, 30.09945557303997], [78.57963661629795, 30.09947851435048], [78.5797157411588, 30.096232611976063], [78.5809600278795, 30.09625553853928], [78.58098638643986, 30.095173569689695], [78.58223066106758, 30.095196483493474], [78.5822570046699, 30.094114513452286], [78.58350126720451, 30.0941374144976], [78.58352759585027, 30.093055443265357], [78.58477184629163, 30.093078331553194], [78.58479815998228, 30.091996359130484], [78.58604239833028, 30.092019234661844], [78.58609499437463, 30.0898552872374], [78.58733920710661, 30.08987814902307], [78.5873654894626, 30.088796174021915], [78.5898538921687, 30.088841860321494], [78.58995889914502, 30.08451395041066], [78.58871475115818, 30.084491117099255], [78.58874101285264, 30.083409140112924], [78.58749687981177, 30.083386296029303], [78.58752315359591, 30.082304319833444], [78.58503491883499, 30.082258598363186], [78.58508751618304, 30.080094649335322], [78.58384342797929, 30.08007177294133], [78.58386973802367, 30.078989799119718], [78.58262566476537, 30.078966911957686], [78.58267830759073, 30.076802965700004], [78.58143426279118, 30.076780068762982], [78.58146059556998, 30.075698096327372], [78.58021656571484, 30.075675188624885], [78.58032193655703, 30.071347300860488], [78.58156591236899, 30.071370204593254], [78.58159223799, 30.070288231161836], [78.58408016688934, 30.070334001377923], [78.58410646406233, 30.06925202576416], [78.58783832760824, 30.069320589954874], [78.5878645828281, 30.068238611171136], [78.59035247198224, 30.068284259880556], [78.59037869876018, 30.067202278919765], [78.58913476697691, 30.067179461430882], [78.58916100583531, 30.066097481259835], [78.58791708898525, 30.06607465300654], [78.58799583751534, 30.06282871426701], [78.58675196260738, 30.062805877229746], [78.58683073880037, 30.05955993966808], [78.58807457320026, 30.05958277373642], [78.58820577080176, 30.054172868872364], [78.58571823842706, 30.054127198883815], [78.58569197476395, 30.05520917827504], [78.58444819722034, 30.055186324669105], [78.58442191863007, 30.05626830287076], [78.58317812901663, 30.056245436525913], [78.583125540549, 30.058409390349915], [78.5818817253656, 30.05838651027355], [78.58180279143457, 30.061632436541558], [78.58055893717692, 30.0616095417394], [78.58053260950187, 30.062691515771657], [78.57928874317275, 30.06266860822603], [78.5792624005623, 30.06375058106642], [78.57801852216187, 30.06372766077632], [78.57799216461454, 30.064809632424282], [78.57052884330888, 30.06467185792973], [78.57055528188144, 30.063589892252047], [78.56557981710282, 30.063497811540707], [78.56544733975599, 30.06890761798323], [78.56420340963484, 30.068884563432757], [78.56417689633587, 30.069966523124066], [78.56293295414896, 30.069943455820408], [78.56290642590031, 30.07102541431276], [78.55295483232973, 30.07084044472379], [78.55292819457074, 30.0719223950022], [78.54919633033413, 30.071852834445696], [78.54916965060019, 30.072934781510572], [78.54668172134332, 30.072888347021188], [78.5466550131399, 30.07397029187448], [78.54043514787624, 30.073853994900098], [78.54040837067102, 30.074935934515015], [78.53792040773183, 30.07488933141876], [78.53789360204983, 30.075971268814747], [78.5341616280423, 30.07590127297022], [78.5341347803699, 30.07698320713381], [78.5291587814217, 30.076889710705846], [78.52918568313716, 30.075807780592672], [78.52545373981265, 30.07573753787261], [78.52548068059497, 30.074655610602445], [78.52299275272048, 30.07460872537494], [78.5230197190559, 30.073526799935873], [78.52177577082632, 30.0735033407058], [78.52193761909054, 30.067011789965786], [78.5157183051408, 30.066894348032708], [78.51574534223593, 30.065812427297534], [78.52072073644621, 30.06590640027479], [78.52074771806052, 30.06482447526742], [78.52323539696538, 30.064871389217604], [78.52320844235686, 30.065953316257904], [78.52445229751099, 30.065976756622902], [78.52434451843929, 30.07030446684566], [78.52310060926584, 30.070281022417667], [78.52307364732852, 30.071362948457235], [78.52431757000863, 30.07138639390104], [78.52429062011275, 30.07246832075627], [78.52553455776558, 30.072491755461744], [78.52550761991259, 30.073573683132153], [78.53048343919565, 30.07366730846776], [78.53045655391442, 30.0747492399944], [78.5341884742551, 30.07481933860663], [78.53421531900833, 30.07373740404308], [78.53670324618214, 30.073784075651414], [78.53673006245833, 30.072702138865857], [78.53921796844647, 30.072748761433562], [78.53924475624838, 30.071666822428124], [78.54546447915259, 30.0717831680975], [78.54549119795973, 30.070701223851323], [78.54673513339395, 30.0707244567153], [78.54676183724128, 30.06964251126273], [78.55049361173096, 30.069712136313484], [78.55052027360681, 30.068630187644427], [78.56171555371796, 30.068838419070747], [78.56182170054251, 30.064510586308636], [78.56306557375812, 30.064533660366724], [78.56314512821868, 30.061287780701196], [78.56438896236756, 30.061310840009625], [78.56441546413586, 30.06022887872296], [78.570634588974, 30.06034399402321], [78.57060815471395, 30.061425960298788], [78.57807123295706, 30.061563716882862], [78.57809758620506, 30.060481744637386], [78.5793414240966, 30.06050466194781], [78.57947310134313, 30.05509479276732], [78.58071687316638, 30.055117693364387], [78.58074319082176, 30.05403571793834], [78.58198695057824, 30.054058605795635], [78.58201325330528, 30.052976629178467], [78.58325700099483, 30.05299950429697], [78.58328328879499, 30.051917526489245], [78.58577076146882, 30.05196323950435], [78.58579702084758, 30.050881259516125], [78.58952820007862, 30.050949737972473], [78.58950198118815, 30.052031720929058], [78.5907457239473, 30.05205452457765], [78.59071951712791, 30.053136508323753], [78.5919632748092, 30.05315930121371], [78.59177988166432, 30.060733188782706], [78.59302373527021, 30.0607559768382], [78.59299754405333, 30.06183796096855], [78.595485282543, 30.06188350380096], [78.59553760954182, 30.059719531394013], [78.59429376659067, 30.05969676782662], [78.59439845751915, 30.055368824572483], [78.59688603683972, 30.05541433206687], [78.59691217901644, 30.054332343783738], [78.59815595731075, 30.054355078923003], [78.59818208456781, 30.05327308945563], [78.59942585078485, 30.053295811862093], [78.5994519631237, 30.052213821211044], [78.60069571726332, 30.052236530885708], [78.60072181468543, 30.051154539051517], [78.6019655567475, 30.051177235995375], [78.60199163925435, 30.050095242978603], [78.60074791068834, 30.050072547018587], [78.60077400527214, 30.048990554786922], [78.60326143683179, 30.04903593299385], [78.60323536923873, 30.050117927192627], [78.60821030334564, 30.0502085465879], [78.60828833993402, 30.046962551611326], [78.61326313473559, 30.04705297130722], [78.6132112197158, 30.049216975996625], [78.61445494893681, 30.049239553515882], [78.61440305526277, 30.05140355936867], [78.61315929904904, 30.05138097989194], [78.6131333365979, 30.052462981541805], [78.61064580141208, 30.05241778538854], [78.61061981055283, 30.053499784880746], [78.60440092984624, 30.053386584013303], [78.60437487008055, 30.054468578400176], [78.60313108468928, 30.054445902000786], [78.60310501000725, 30.055527895206055], [78.60186121253484, 30.05550520607518], [78.60183512293503, 30.056587198098295], [78.6005913133816, 30.05656449623495], [78.60056520886252, 30.05764648707537], [78.59807756701419, 30.057601046132316], [78.59802529971134, 30.059765023277787], [78.59926914692822, 30.05978775159406], [78.59921690094646, 30.06195172991436], [78.60668017608917, 30.06208786484972], [78.60665413199288, 30.063169859611463], [78.6054102357533, 30.063147198852693], [78.60525386039042, 30.06963915735782], [78.60276591008054, 30.069593788789227], [78.60273981554079, 30.07067577921197], [78.60149582900439, 30.070653076311157], [78.60146971953569, 30.07173506555138], [78.59773772791736, 30.071666883360976], [78.59771157649693, 30.072748869448095], [78.59149155136193, 30.072634992410357], [78.5914653309638, 30.073716973364487], [78.58524527391529, 30.073602797472745], [78.58519269372266, 30.07576674889006], [78.58643672930017, 30.075789609562538], [78.58638417041611, 30.07795356216432], [78.58762823444904, 30.07797641305908], [78.58760196637814, 30.0790583900513], [78.5888460453537, 30.079081230176836], [78.58881978936982, 30.080163207959462], [78.59006388328817, 30.08018603731473], [78.59003763939276, 30.081268015887296], [78.591281748254, 30.081290834471254], [78.59125551644854, 30.082372813833285], [78.59374376548257, 30.08241841769558], [78.59369135166504, 30.084582379773654], [78.59493550535578, 30.084605166037417], [78.59485691450267, 30.08785111062317], [78.59361272025208, 30.087828321398202], [78.59356029218488, 30.089992281486143], [78.5923160723159, 30.089969478522395], [78.59228984262171, 30.09105145728015], [78.5910456106559, 30.09102864156375], [78.5910193660122, 30.092110619134264], [78.5897751219497, 30.09208779066421], [78.58974886235507, 30.093169767046916], [78.58850460619598, 30.093146925822232], [78.58847833164891, 30.094228901016585], [78.5872340633934, 30.09420604703627], [78.58720777389243, 30.09528802104169], [78.58596349354059, 30.095265154304766], [78.58591088319795, 30.097429099737464], [78.58466657722309, 30.09740621925208], [78.58461393410435, 30.099570161906254], [78.58336960250453, 30.09954726767035], [78.58334326526982, 30.100629237707192], [78.58209892157275, 30.100606330710637], [78.58207256937668, 30.101688299556262], [78.58082821358246, 30.10166537979806], [78.58080184642355, 30.10274734745195], [78.5882680838448, 30.102884695401986], [78.58824179643985, 30.103966668803935], [78.59073058074901, 30.10401235926929], [78.59067805578245, 30.106176309432485], [78.59192247714401, 30.106199138985524], [78.59173868953879, 30.113772965203115], [78.59298320707957, 30.113795789900312], [78.59300945319507, 30.112713814335724], [78.59425395862417, 30.1127366262696], [78.594227726047, 30.113818602821798], [78.60045034225773, 30.113932490791555], [78.60047650714235, 30.112850509309016], [78.6017210211154, 30.112873250590564], [78.60174717103989, 30.111791267924506], [78.60423617617334, 30.11183671319335], [78.60421005332498, 30.112918697826917], [78.60794361228713, 30.112986780363915], [78.6079175286357, 30.114068767746044], [78.60169486976947, 30.113955233057638], [78.60166871700207, 30.115037215325707], [78.6004241759509, 30.115014472075064], [78.6003718390703, 30.11717843404501], [78.59539358077272, 30.1170873353907], [78.59541980408717, 30.116005358448735], [78.5941752566149, 30.11598255532879], [78.59420149204392, 30.11490057917486], [78.59295695953745, 30.11487776526577], [78.59293071056865, 30.115959740432057], [78.59168616594917, 30.115936913758574], [78.59163363664958, 30.118100861517334], [78.59038906637606, 30.118078021089772], [78.59031022109158, 30.121323938267796], [78.5965332898689, 30.12143803744377], [78.59650707297136, 30.122520014376832], [78.60273024509317, 30.122633823992842], [78.60270409449697, 30.123715805652964], [78.60394874673352, 30.123738533219495], [78.60387032705744, 30.126984479956963], [78.60511502135553, 30.127007198692475], [78.60503662953991, 30.130253146588704], [78.60379189459424, 30.130230424903285], [78.60376574759795, 30.131312406153988], [78.60127625486918, 30.13126692546356], [78.60125007934926, 30.132348904546966], [78.5975158102734, 30.132280592173576], [78.59743715320438, 30.135526519360237], [78.59868194879682, 30.135549304893896], [78.59860331956718, 30.138795233246164], [78.5998481572483, 30.138818009950185], [78.59976955586971, 30.142063939466748], [78.60225931684508, 30.142109463420386], [78.60228549161272, 30.14102748514435], [78.6060201030681, 30.14109567970379], [78.60599396897453, 30.1421776609305], [78.61221841758498, 30.142291087656535], [78.61219234986623, 30.14337307359189], [78.61094744374896, 30.14335041084547], [78.61086919141093, 30.14659636451612], [78.61460403605793, 30.146664326205027], [78.61457798979671, 30.147746313304236], [78.61706792043057, 30.147791564095126], [78.61704189988004, 30.148873552953088], [78.61828688088136, 30.148896161637893], [78.61826087248072, 30.149978151275064], [78.61950586845924, 30.15000074914443], [78.61947987220996, 30.151082739560312], [78.62196989553358, 30.15112790187184], [78.62191795306055, 30.153291886014546], [78.62067291356095, 30.15326930880263], [78.62064692664049, 30.15435129959909], [78.6218919797071, 30.154373877787656], [78.62171012671104, 30.16194781463185], [78.6204649786547, 30.161925229606148], [78.62041298080385, 30.16408920781825], [78.62165815600676, 30.164111794797602], [78.6216321685367, 30.16519378458217], [78.622877358726, 30.165216360737542], [78.62279942857131, 30.168462331827065], [78.62404466089984, 30.1684848991092], [78.62401869493621, 30.169566890050547], [78.62277344903023, 30.16954432179249], [78.62253956963364, 30.17928222253094], [78.62378493776988, 30.179304799573238], [78.62375895769537, 30.180386788525723], [78.6274951113243, 30.180454451732338], [78.6274691705954, 30.181536443411304], [78.63120537766505, 30.181604003264763], [78.63117947628675, 30.182685997665743], [78.63491573678058, 30.18275345415564], [78.63486401132995, 30.184917448193914], [78.63610946148152, 30.184939912013768], [78.6360836102378, 30.186021909705925], [78.63732907538292, 30.186044362685806], [78.63730323632475, 30.187126361149875], [78.63854871646355, 30.187148803288746], [78.63852288959242, 30.18823080252424], [78.63976838472502, 30.188253233821055], [78.6397425700424, 30.189335233827514], [78.64098808016892, 30.18935765428121], [78.6409622776763, 30.190439655058174], [78.64220780279688, 30.190462064667713], [78.64218201249571, 30.19154406621468], [78.64342755261048, 30.19156646497901], [78.64340177450225, 30.192648467295534], [78.64589288612005, 30.192693231317197], [78.6458413800831, 30.19485723922415], [78.64708696518122, 30.194879605446587], [78.64703548074172, 30.197043614492596], [78.6482810944317, 30.197065970831876], [78.64822963159514, 30.199229981016046], [78.64698399070862, 30.199207622744222], [78.6468294870427, 30.205699642732373], [78.65056665871812, 30.205766699479803], [78.6505923720166, 30.20468469374733], [78.65308379957834, 30.20472933721218], [78.65310948427508, 30.203647329351945], [78.65684659527136, 30.203714203005838], [78.65687223776708, 30.202632192057187], [78.66185501751683, 30.202721187601774], [78.66182942942991, 30.203803202396482], [78.66432085485171, 30.20384763117043], [78.66429529258113, 30.204929647686747], [78.66554102097828, 30.204951845302457], [78.66548991948017, 30.207115879658605], [78.66673567647392, 30.207138067370906], [78.66668459663592, 30.209302102851332], [78.66793038222868, 30.209324280658223], [78.66787932405634, 30.211488317262], [78.67410840887973, 30.2115990385178], [78.67413387061936, 30.210517015531035], [78.67537967812781, 30.2105391233542], [78.67540512487709, 30.209457099213957], [78.67665092016023, 30.209479194258538], [78.67667635192065, 30.208397168965384], [78.68165949243212, 30.208485427095656], [78.68155797483007, 30.212813542334903], [78.68031213320037, 30.212791491725945], [78.68021053909612, 30.217119599984507], [78.68145643517005, 30.21714165440465], [78.681431046808, 30.218223681926812], [78.68392287031776, 30.21826775718979], [78.68389750780425, 30.219349786418032], [78.68514343523952, 30.21937180725927], [78.68501667008809, 30.22478195518613], [78.68626266698071, 30.22480396895349], [78.68621197851824, 30.226968028639572], [78.68496595438823, 30.22694601297031], [78.6849405944725, 30.228028041565242], [78.68369455809999, 30.2280060131126], [78.68366918318647, 30.229088040557922], [78.6811770873355, 30.22904394625112], [78.68105005586929, 30.234454070982245], [78.67980394190025, 30.234432001314136], [78.679829364577, 30.233349977717435], [78.67858326561252, 30.233327897167726], [78.67883755265808, 30.22250765983546], [78.67759159127283, 30.22248557699166], [78.6776170259984, 30.22140355312231], [78.6788629737679, 30.22142563501217], [78.6789646444018, 30.217097533737284], [78.67771875108785, 30.217075455663014], [78.67782045407981, 30.212747355032928], [78.67906629295005, 30.21276942929194], [78.6790917016367, 30.211687402685254], [78.67660005249519, 30.21164324425032], [78.67657461659043, 30.212725268948965], [78.67532878048262, 30.212703171040097], [78.67530332958657, 30.213785194585757], [78.66907410174946, 30.213674522887747], [78.66909962069303, 30.21259250412377], [78.66536214144547, 30.21252596207807], [78.66541325682357, 30.210361929705332], [78.66416746039921, 30.210339727293146], [78.66421859743802, 30.20817569604566], [78.66297282961547, 30.208153483729724], [78.66299840965716, 30.20707146876825], [78.66175265682936, 30.20704924559029], [78.66177824908625, 30.205967231390744], [78.65804103975982, 30.20590049381026], [78.6580154066896, 30.206982505125858], [78.65552391355683, 30.206937952374574], [78.65549825188424, 30.208019961566475], [78.65176098182592, 30.207953040886306], [78.65173527794262, 30.20903504698798], [78.6455064544169, 30.20892327125343], [78.64553222632692, 30.20784126998153], [78.64304073392059, 30.207796478867472], [78.6430665316396, 30.206714479332344], [78.64182080114223, 30.20669206701139], [78.64184661106363, 30.205610068246024], [78.64060089557165, 30.20558764507301], [78.64078162097664, 30.198013654933856], [78.64202724126484, 30.198036071324626], [78.64213042769022, 30.193708068712663], [78.64088486178792, 30.19368565619701], [78.64091066848586, 30.19260365601608], [78.63966511758004, 30.192581232654803], [78.63969093646996, 30.19149923324439], [78.63719986605423, 30.191454353018926], [78.63722571072766, 30.190372355349755], [78.63598019121831, 30.190349898487167], [78.63600604807999, 30.18926790158998], [78.63476054356738, 30.189245433885464], [78.63478641261585, 30.188163437760714], [78.63354092309986, 30.18814095921533], [78.63356680433364, 30.187058963863503], [78.63232132981415, 30.187036474478294], [78.63234722323175, 30.185954479899856], [78.63110176370863, 30.18593197967585], [78.63112766930858, 30.18484998587128], [78.62863678166283, 30.184804951937448], [78.62866271303177, 30.183722959880885], [78.62368100900292, 30.183632754189695], [78.62370699331197, 30.182550765833962], [78.62246158441904, 30.18252818586322], [78.6224875809028, 30.181446198284732], [78.61999679452701, 30.18140100487004], [78.62002281676946, 30.18031901904644], [78.61753206321922, 30.180273780353872], [78.61763624672106, 30.175945842892855], [78.61888156845514, 30.17596846423053], [78.61895965048251, 30.172722506111075], [78.61771436949108, 30.172699887707598], [78.61779247952903, 30.1694539307315], [78.61903771978446, 30.16947654620097], [78.6190897589169, 30.167312571932825], [78.61784454581515, 30.167289958419257], [78.61789660644385, 30.165125985311203], [78.61665142190702, 30.165103361952752], [78.61678161659458, 30.159693430592856], [78.61802673326784, 30.15971604905957], [78.61813080927644, 30.155388096477655], [78.6168857468808, 30.155365481923955], [78.61691177591624, 30.15428349425942], [78.61566672850246, 30.154260868888368], [78.61569276969036, 30.153178882003605], [78.61444773725832, 30.15315624581625], [78.61447379059717, 30.152074259711725], [78.6082487175164, 30.151960906755342], [78.60827483726474, 30.150878925355304], [78.60578484509226, 30.150833503578], [78.60581099054946, 30.149751523943824], [78.60456601015794, 30.149728796347986], [78.60464447869323, 30.146482859200482], [78.60090966811138, 30.146414614512715], [78.60088347266935, 30.14749659080847], [78.59963852509311, 30.14747381801124], [78.59958610281332, 30.149637768034832], [78.60083107751477, 30.1496605428025], [78.6007786766657, 30.151824493999854], [78.60202367991906, 30.15184725894414], [78.60199749092416, 30.15292923522885], [78.60324250916585, 30.152951989363455], [78.6031901540396, 30.155115943303986], [78.60443520083659, 30.155138687611686], [78.60430435597175, 30.160548573897117], [78.60305924132948, 30.16052582467007], [78.60290209912417, 30.167017675736485], [78.60165690446644, 30.166994908804377], [78.60160448519453, 30.169158855597086], [78.60035926480887, 30.169136074893718], [78.60030681268596, 30.171300018919197], [78.59906156657044, 30.171277224442473], [78.59903532479318, 30.17235919517065], [78.59779006652496, 30.172336387904718], [78.59776380974287, 30.173418357447378], [78.59651853932208, 30.173395537391233], [78.59649226753368, 30.17447750574785], [78.59275642409887, 30.17440897179262], [78.5927037947555, 30.176572901981064], [78.59145848930743, 30.176550031743005], [78.59143215890953, 30.17763199554926], [78.59018684131019, 30.177609112516553], [78.59010780078404, 30.18085499977043], [78.5888624438667, 30.180832101962274], [78.58873061309735, 30.18624190511236], [78.5874851896824, 30.186218990544493], [78.58737964492578, 30.19054682551066], [78.5861341685872, 30.19052389516866], [78.58610776522349, 30.191605852420125], [78.58486227672815, 30.191582909274732], [78.58480943851366, 30.193746821195468], [78.58107290008888, 30.19367791493005], [78.58104643804978, 30.194759867612735], [78.578555392433, 30.194713869049014], [78.57852890176922, 30.195795819543918], [78.57728336752525, 30.195772801547008], [78.57725686182822, 30.196854750847322], [78.57476577047179, 30.19680867742055], [78.57473923614518, 30.19789062452986], [78.57349367903362, 30.197867569098555], [78.57346712967016, 30.19894951501163], [78.56973042620444, 30.198880274836753], [78.56970383461042, 30.199962217557644], [78.56596710335567, 30.19989286804927], [78.565913834252, 30.202056746897266], [78.56466823286543, 30.20203360476329], [78.56464158254549, 30.203115542887243], [78.56339596900841, 30.20309238793617], [78.56331596856482, 30.20633819810606], [78.56207031567787, 30.206315028334657], [78.5620169476041, 30.208478898778644], [78.56077126896406, 30.208455715185412], [78.56066446101048, 30.21278344966527], [78.56191019406403, 30.21280663726551], [78.56188350205517, 30.213888571386974], [78.56312925016361, 30.21391174816699], [78.56310257031109, 30.21499368308963], [78.56434833347454, 30.215016849048375], [78.56432166577986, 30.216098784771773], [78.56556744399846, 30.216121939908195], [78.56538082484771, 30.223695491372208], [78.56413495136022, 30.223672329232976], [78.56410827207706, 30.224754263355575], [78.56535415917736, 30.2247774264953], [78.56530082349222, 30.226941296141174], [78.56779265649244, 30.22698759093777], [78.56776601370775, 30.228069527460104], [78.57025787972556, 30.228115776940665], [78.57023126272597, 30.229197715260504], [78.56898531537801, 30.22917459543617], [78.56893204980827, 30.23133846947862], [78.56768607667237, 30.231315335826675], [78.56773936947623, 30.22915146378238], [78.55901778871838, 30.228989210984977], [78.55896430527949, 30.23115306901367], [78.55771834374056, 30.23112984071962], [78.55766482725684, 30.23329369594095], [78.55641883993499, 30.23327045380945], [78.55639206589451, 30.234352380115975], [78.55514606640752, 30.2343291251492], [78.55511927729343, 30.235411050251148], [78.55387326564141, 30.23538778244812], [78.55381965580759, 30.237551630041402], [78.54883551479647, 30.237458432461683], [78.54886237492497, 30.236376512789622], [78.54761635693741, 30.236353184820057], [78.54758948318813, 30.237435103484728], [78.54509742434995, 30.23738841003275], [78.54507052189857, 30.23847032648062], [78.54382448104887, 30.238446960996757], [78.54379756351463, 30.239528876235163], [78.53881336025101, 30.239435291928572], [78.53873243539785, 30.242681024317235], [78.53748634737185, 30.24265759562236], [78.53743236289597, 30.244821414188415], [78.5361862490855, 30.24479797163443], [78.53610522049875, 30.248043694941934], [78.53485906727434, 30.248020237514076], [78.53475095410896, 30.252347861729753], [78.53599716185079, 30.252371323208628], [78.53597014352185, 30.253453229773495], [78.53223148380647, 30.25338280677888], [78.53217736095438, 30.25554661322627], [78.52843863266887, 30.25547607758439], [78.52841152813951, 30.25655797746213], [78.52093402952121, 30.256416580379078], [78.52096121584763, 30.25533468660463], [78.51971498487212, 30.255311079999846], [78.51976938036033, 30.253147293885903], [78.51852317812433, 30.253123677479778], [78.51857759496639, 30.250959892600633], [78.51982376994246, 30.25098350696788], [78.51985096251893, 30.249901613207353], [78.51486632599527, 30.249807088790064], [78.51483907890382, 30.250888978469902], [78.51359290984065, 30.25086531675016], [78.51356564764055, 30.251947205207433], [78.51231946642821, 30.25192353062771], [78.51215578035129, 30.258414851015306], [78.51090951882921, 30.25839115846173], [78.51088221899795, 30.25947304346628], [78.51212849415437, 30.259496737042497], [78.51207391731639, 30.26166050849331], [78.51082761488904, 30.26163681287174], [78.51074569760883, 30.264882465470823], [78.509499355752, 30.264858754936515], [78.50944470954161, 30.267022520283195], [78.50819834188991, 30.26699879585679], [78.50817100291967, 30.26808067720438], [78.50567824478908, 30.268033190766033], [78.50565087705318, 30.2691150698631], [78.50440448657524, 30.26909130784971], [78.5044318679518, 30.268009429778047], [78.49944637547341, 30.26791426736837], [78.49950124288269, 30.265750518834086], [78.49825490076289, 30.265726700673337], [78.49830978949103, 30.263562953389048], [78.49581716427241, 30.2635152856485], [78.49570727174957, 30.26784277118198], [78.49446090682365, 30.26781891542885], [78.49426844198666, 30.275392000147367], [78.4967613643232, 30.275439714218216], [78.4967338906668, 30.276521584716246], [78.49922684625926, 30.276569253447445], [78.49900722169566, 30.285224226631524], [78.49776063396351, 30.28520038996515], [78.49773316053489, 30.286282259678053], [78.49025358356992, 30.286138984572542], [78.49019846840272, 30.288302711032223], [78.49393833208242, 30.288374408113732], [78.49391081321731, 30.289456274133794], [78.49515745108614, 30.289480150480696], [78.49512994438233, 30.290562017329037], [78.49637659739899, 30.290585882849662], [78.49634910285796, 30.291667750525832], [78.5000891118258, 30.291739279035284], [78.5000616567623, 30.292821149595145], [78.50255503083922, 30.29286877803798], [78.5025276016006, 30.293950650450647], [78.50377430453001, 30.293974447912223], [78.50374688746103, 30.295056321149815], [78.51122721821041, 30.295198863045762], [78.51119988160937, 30.296280742229865], [78.51244662225741, 30.296304458729573], [78.51241929783302, 30.29738633873522], [78.51366605362435, 30.297410044397864], [78.51369336438836, 30.29632816336983], [78.5149401080015, 30.29635185615058], [78.51496740362363, 30.29526997389939], [78.51621413505845, 30.29529365379924], [78.51618685309609, 30.296375537071782], [78.51743359967136, 30.29639920613338], [78.51740632988889, 30.2974810902255], [78.51491281089794, 30.29743373820049], [78.51488551231284, 30.298515620049102], [78.51114520395625, 30.298444499993987], [78.51117254352468, 30.297362621212606], [78.50493879425375, 30.297243855701876], [78.50491138638111, 30.298325729361], [78.50366462732562, 30.298301939653673], [78.5036920488589, 30.29722006702055], [78.49870508216864, 30.29712479369961], [78.49865012832711, 30.299288530546157], [78.49615659928328, 30.299240818613807], [78.49612909280216, 30.300322684676996], [78.49488231685736, 30.3002988098907], [78.49479974746743, 30.30354440378145], [78.4960465644016, 30.303568281656727], [78.49596402256383, 30.3068138768215], [78.49471716463361, 30.30678999585708], [78.49460703327263, 30.311117449134148], [78.49585394587456, 30.311141334217748], [78.49577137267606, 30.314386925147137], [78.49452441906254, 30.314363036973926], [78.49444179140241, 30.317608622998094], [78.4919478066236, 30.31756080486518], [78.49186508346233, 30.320806382888954], [78.49311211612856, 30.32083030098296], [78.49305698722615, 30.32299402071862], [78.49180992720656, 30.322970100562443], [78.4916995967367, 30.32729753348755], [78.49294671147193, 30.327321457768313], [78.49286398894834, 30.330567033436523], [78.49161683316859, 30.330543106062066], [78.49156164997184, 30.33270682010246], [78.49031446832248, 30.332682878789416], [78.49020402922116, 30.337010300320337], [78.49145126561258, 30.337034245760822], [78.49134085729531, 30.341361668188977], [78.49009356615, 30.341337718620704], [78.49003832562435, 30.343501426559317], [78.48879100859615, 30.34347746304593], [78.48876337239382, 30.34455931567976], [78.48751604317322, 30.34453533925225], [78.48746073888489, 30.34669904184782], [78.48995545359674, 30.34674698695266], [78.48992782659015, 30.347828840013207], [78.48493834839188, 30.347732898139856], [78.48488298032238, 30.34989659538762], [78.4861303750109, 30.34992060074887], [78.4860750283265, 30.352084299256873], [78.48732245190905, 30.352108294801578], [78.48729479001246, 30.353190144786254], [78.4885422287932, 30.353214129479127], [78.48851457909431, 30.354295980295056], [78.48976203307336, 30.354319954135057], [78.48965147407874, 30.358647359509806], [78.48715645801869, 30.35859939167911], [78.48699041009318, 30.365090481282508], [78.48574282209114, 30.36506647333122], [78.485659736739, 30.368312012302624], [78.48441210911773, 30.36828798935648], [78.48438439728714, 30.36936983424142], [78.48313675746043, 30.36934579836751], [78.48310903041742, 30.37042764201517], [78.48186137838539, 30.370403593212497], [78.48183363612846, 30.37148543562228], [78.48058597189126, 30.371461373889865], [78.480530455441, 30.37362505603037], [78.4817781471002, 30.37364911983523], [78.48175040032876, 30.374730961638367], [78.48299810720505, 30.374755014583865], [78.4828594193437, 30.38016422574511], [78.48410719629662, 30.380188271971413], [78.48407946792757, 30.381270114632347], [78.48782284895694, 30.38134218502442], [78.48785053617546, 30.380260339260467], [78.50531963397802, 30.38059523734054], [78.50537461985346, 30.378431516367478], [78.50787017429334, 30.378479164463865], [78.50792509934296, 30.37631543858025], [78.51291611636722, 30.37641058379974], [78.51288870944802, 30.377492450939528], [78.51538425431288, 30.377539954210544], [78.51535687333944, 30.378621823194152], [78.51785245157714, 30.378669280916604], [78.51782509655266, 30.37975115174207], [78.52281632569489, 30.379845928483945], [78.5228436258504, 30.378764053577605], [78.52409142312226, 30.37878771699592], [78.52417327355721, 30.375542088011144], [78.52666879024382, 30.375589373042335], [78.52669604333349, 30.374507494274955], [78.52794379017988, 30.374531117927102], [78.52797102807746, 30.373449237940992], [78.5304664987738, 30.373496447521237], [78.5304937077675, 30.37241456530072], [78.53298915694056, 30.372461725263726], [78.53301633703313, 30.371379840810945], [78.53675948070988, 30.371450488491625], [78.53681375420202, 30.369286712897296], [78.5393091358337, 30.369333747820722], [78.53933624295037, 30.368251857696038], [78.54058392226133, 30.36827535630341], [78.54061101419752, 30.367193464965506], [78.5418586812679, 30.36721695066694], [78.54188575802509, 30.36613505811636], [78.54313341285474, 30.36615853091284], [78.54316047443444, 30.36507663715017], [78.54440811702324, 30.365100097042713], [78.54443516342691, 30.36401820206851], [78.55192096749425, 30.36415870561655], [78.55194793018528, 30.36307680438948], [78.55444318250112, 30.363123541750383], [78.55430849151236, 30.368533055942553], [78.55555618840954, 30.36855641181374], [78.55552925953944, 30.369638315055358], [78.55677697160907, 30.369661660036954], [78.55672313691223, 30.3718254679284], [78.56296185627626, 30.37194202444094], [78.56298870578757, 30.37086011557606], [78.56423644031902, 30.370883390185856], [78.56420960452135, 30.37196530005313], [78.56545735422213, 30.371988563768436], [78.56543053068322, 30.373070474436844], [78.569173829656, 30.37314019720355], [78.56920061205119, 30.372058283532528], [78.57044836756732, 30.37208149965979], [78.57047513479581, 30.370999584788272], [78.5767138655704, 30.371115481975114], [78.57668716691272, 30.37219740183807], [78.58043046390509, 30.37226680037687], [78.58040380494468, 30.37334872302808], [78.58414715609749, 30.373418017473302], [78.58412053683931, 30.374499942908287], [78.5866161389277, 30.37454608170119], [78.58658954565963, 30.375628008922718], [78.58783736258499, 30.375651061463714], [78.58778419915775, 30.37781491729111], [78.5890320449615, 30.377837959917237], [78.58900547480445, 30.378919888522663], [78.59025333576888, 30.378942920240117], [78.59022677789083, 30.380024849636953], [78.59147465401604, 30.380047870444695], [78.59144810841846, 30.38112980063248], [78.59269599970459, 30.381152810529443], [78.59258985780676, 30.385480533240596], [78.59134191162879, 30.385457519380285], [78.5912356917968, 30.389785234922492], [78.59248369287852, 30.389808252746484], [78.59245714804746, 30.390890182122103], [78.59370516429671, 30.390913189030346], [78.59357248719458, 30.39632283785565], [78.5985648411792, 30.396414766205297], [78.59853835637104, 30.39749669932653], [78.60228267814188, 30.397565523501434], [78.6022562330977, 30.398647459385018], [78.60350435695759, 30.398670377942857], [78.6033986173796, 30.40299812342119], [78.60464679761508, 30.4030210340125], [78.60462037287371, 30.404102970867648], [78.60711676511795, 30.404148758282354], [78.60709036641994, 30.40523069690803], [78.60209753271117, 30.405139070481702], [78.60207107762588, 30.40622100496364], [78.6008228590447, 30.406198067585333], [78.60076991709025, 30.408361933974028], [78.59952167246493, 30.40833898270604], [78.59960112446166, 30.405093185785706], [78.60084932786872, 30.405116134090562], [78.6009551888116, 30.400788398108855], [78.59970704035179, 30.400765453754524], [78.59973351573448, 30.399683520246036], [78.59598912017765, 30.39961461867931], [78.59601563532678, 30.398532687936306], [78.59102318298893, 30.398440656388857], [78.59118257323861, 30.391949091491412], [78.5899345461411, 30.39192605977827], [78.58996111986889, 30.390844132585503], [78.58871310794106, 30.390821089957246], [78.58873969395532, 30.38973916355609], [78.58749169719704, 30.38971611001376], [78.587651265355, 30.383224553352942], [78.5888991797633, 30.38324760094065], [78.58892575568568, 30.38216567313671], [78.58767785499977, 30.382142626541356], [78.58770444320236, 30.38106069952938], [78.58396079096524, 30.380991491309015], [78.58398741888804, 30.379909567076673], [78.57774809599204, 30.379793986984907], [78.57782817688044, 30.376548228015384], [78.5765803577987, 30.376525079284452], [78.57660706224983, 30.37544316022369], [78.57535925833389, 30.37542000059067], [78.57533254016549, 30.376501918654075], [78.57283690924764, 30.37645556169524], [78.57281016219413, 30.377537477561773], [78.56657104171238, 30.377421371928477], [78.5665978573543, 30.376339461061598], [78.56535005133607, 30.376316205237575], [78.56537687924025, 30.375234295171417], [78.56163351106967, 30.375164459313037], [78.5616066420157, 30.376246366371774], [78.55786324581233, 30.37617642041646], [78.55789015601552, 30.375094516369735], [78.5566423739157, 30.37507117825889], [78.55661544999623, 30.37615308130058], [78.55411986274605, 30.376106367372934], [78.55420071241598, 30.372860663679823], [78.55295296212932, 30.3728372918878], [78.55297992280964, 30.371755391261377], [78.55173218769922, 30.37173200857943], [78.5517591606302, 30.370650108759044], [78.55051144069584, 30.3706267151882], [78.55048445405191, 30.371708614001086], [78.54798899114962, 30.37166178915542], [78.54796197561461, 30.372743685750706], [78.5454664911468, 30.372696811301434], [78.54543944671795, 30.37377870567701], [78.54294394068958, 30.373731781620393], [78.54291686736414, 30.374813673774103], [78.54166910283755, 30.374790192889016], [78.54164201432812, 30.375872083830394], [78.54039423755539, 30.375848590036092], [78.5403671338605, 30.376930479764606], [78.5391193448418, 30.376906973060095], [78.53906510560714, 30.37907074988903], [78.5315782378061, 30.37892944762766], [78.53155103367392, 30.380011329655822], [78.5290553954339, 30.379964131675838], [78.52900092786723, 30.382127891063444], [78.5277530835248, 30.38210427219019], [78.52772583380582, 30.38318615056491], [78.52647797722145, 30.383162518773634], [78.52645071230391, 30.38424439592943], [78.52520284347773, 30.384220751219114], [78.52517556336014, 30.385302627155394], [78.51644042699847, 30.38513677380395], [78.51646780316302, 30.384054905008178], [78.5114763842024, 30.38395987391875], [78.51144895315538, 30.385041738622977], [78.51020108841219, 30.385017950073994], [78.5101736421562, 30.38609981355228], [78.50892576518041, 30.3860760120772], [78.50881591037803, 30.39040345987361], [78.50632005111216, 30.390355813013752], [78.50634754449496, 30.389273953418478], [78.50509963082217, 30.389250113159147], [78.50501710502651, 30.392495688260347], [78.50376915167179, 30.392471833017204], [78.50379667548752, 30.391389975878894], [78.50254873735076, 30.391366109758422], [78.50260380795262, 30.389202396930823], [78.50010799105605, 30.389154633089962], [78.50013555156289, 30.38807277842947], [78.49888765907914, 30.388048879683332], [78.49891523181337, 30.38696702584972], [78.49641947877676, 30.386919194709286], [78.49628146291647, 30.392328451560928], [78.49503352002634, 30.39230451298579], [78.49500589863747, 30.393386362719525], [78.49375794351977, 30.393362411209022], [78.49381321224985, 30.391198713601465], [78.4950611399173, 30.391222663049984], [78.4950887583104, 30.390140812912144], [78.49384084436696, 30.390116864494566], [78.49392373172748, 30.38687131596142], [78.49142799067144, 30.38682338960652], [78.49140033560631, 30.387905237256316], [78.49264821910644, 30.387929207416537], [78.49256528608097, 30.39117475224913], [78.49131736141145, 30.39115077899304], [78.49126203778127, 30.393314472473566], [78.48876613804363, 30.393266486119217], [78.48873844652627, 30.39434833049064], [78.48749048518373, 30.39432431842292], [78.48746277843794, 30.395406161558558], [78.48871075350712, 30.395430174659882], [78.48859996641148, 30.39975754931487], [78.48610390794799, 30.39970950293529], [78.48607617995832, 30.400791344025578], [78.48108402616003, 30.40069510423367], [78.48105624174327, 30.40177694097957], [78.47980819332776, 30.401752850224902], [78.47969698566268, 30.406080191037407], [78.48094508900837, 30.406104285939545], [78.48088950359926, 30.40826795720527], [78.47839324347666, 30.408219751341832], [78.47836542103973, 30.409301584596683], [78.47711727950524, 30.409277462759874], [78.47703376193036, 30.412522958195634], [78.47578558069378, 30.412498821331347], [78.4757298672844, 30.4146624818656], [78.4744816600803, 30.414638331009755], [78.47445378736977, 30.41572015993397], [78.47570200831396, 30.415744311828966], [78.47564628584125, 30.41790797114814], [78.47190154509671, 30.417835473480586], [78.47187364036759, 30.41891729971721], [78.47062538273558, 30.418893108955743], [78.47059746275059, 30.419974933948975], [78.46934919288957, 30.41995073023002], [78.4692933208902, 30.422114377525993], [78.46804502505616, 30.422090159806707], [78.46801707303948, 30.423171982108826], [78.46676876497602, 30.42314775142954], [78.46674079769821, 30.42422957248658], [78.4654924774055, 30.42420532884629], [78.46546449486505, 30.425287148657688], [78.46421616234322, 30.42526289205539], [78.46418816453863, 30.42634471062057], [78.46543651080741, 30.42636896826633], [78.46540852523255, 30.427450787672246], [78.46166344973801, 30.427377975844397], [78.46163542140071, 30.42845979191547], [78.45913868450442, 30.42841118900654], [78.45908256827366, 30.430574816358817], [78.45783417460837, 30.430550494931598], [78.45780610046083, 30.43163230725729], [78.45655769456727, 30.431607972862082], [78.45652960514668, 30.432689783938173], [78.45528118702498, 30.432665436574005], [78.45525308232985, 30.433747246399946], [78.4515077958548, 30.43367412962953], [78.4514514993775, 30.435837742382873], [78.4502030460983, 30.435813344182222], [78.45017488181696, 30.436895149205007], [78.448926416311, 30.436870738030937], [78.44889823674849, 30.4379525418008], [78.44764975901593, 30.43792811765232], [78.44767795233267, 30.436846314932854], [78.44518102896181, 30.436797432964795], [78.44515280813681, 30.43787923358197], [78.44390433499177, 30.437854773660202], [78.44381962207046, 30.441100171136824], [78.43882557974032, 30.441002199568047], [78.43876898674765, 30.44316578844339], [78.44001752254543, 30.443190301332336], [78.43998923750635, 30.444272096519146], [78.44123778859567, 30.444296598534944], [78.44115296555749, 30.44754198603654], [78.44240155945889, 30.4475664792844], [78.44226022588599, 30.452975459654077], [78.43476827260511, 30.45282828960058], [78.4347399187044, 30.45391007873732], [78.4309939215079, 30.453836329468885], [78.43096552477435, 30.454918115231518], [78.4284681734744, 30.454868887278653], [78.42829759553373, 30.461359584881716], [78.4295463530199, 30.461384211175165], [78.4294042312138, 30.46679312553918], [78.42815540486869, 30.466768493952564], [78.42809851781259, 30.468932056155705], [78.42684966546034, 30.46890741051309], [78.42682120584439, 30.469989190249983], [78.42432347821713, 30.469939861029225], [78.42429498950654, 30.471021638442362], [78.42179724050325, 30.470972259343768], [78.42176872269525, 30.47205403443101], [78.41927095232096, 30.47200460545086], [78.41929949768205, 30.47092283248786], [78.41430403060978, 30.470823835505797], [78.41427543014336, 30.47190560421414], [78.41552430836452, 30.471930372432734], [78.4154385389977, 30.475175680527876], [78.41668746010156, 30.47520043999879], [78.41663030033541, 30.477363979837563], [78.4178792505475, 30.477388729494326], [78.41779354062588, 30.480634040914186], [78.41654454906904, 30.480609288066713], [78.41657313437355, 30.47952751886087], [78.41532415814811, 30.479502755133776], [78.41538135167227, 30.4773392182386], [78.4141324045588, 30.477314444697505], [78.41421822456023, 30.474069141019175], [78.4129693203346, 30.474044358731096], [78.41302655347226, 30.471880824056015], [78.41052880478327, 30.471831227921413], [78.41050016143627, 30.472912993229436], [78.40925127564317, 30.472888176186554], [78.4092226169664, 30.473969940224094], [78.40797371894905, 30.473945110174338], [78.4078590135924, 30.478272160016154], [78.40910796672664, 30.478296994334297], [78.40899329163122, 30.482624045180398], [78.40774428336816, 30.4825992065935], [78.40771559692601, 30.483680967727707], [78.40521755749626, 30.483631252584747], [78.4051314061293, 30.486876528354653], [78.40638046642276, 30.48690139510352], [78.40620820439973, 30.493391947542495], [78.40495906137363, 30.49336707438309], [78.40493033179959, 30.49444883134], [78.40118287069085, 30.494374136956974], [78.40115409818405, 30.495455890501066], [78.39865577098853, 30.495406032355135], [78.39856936135345, 30.49865128533672], [78.40106777130877, 30.49870114990794], [78.40103899256515, 30.499782902635065], [78.39854055502022, 30.49973303592199], [78.39848293767108, 30.501896536479663], [78.39723369364796, 30.501871583051305], [78.39720486883496, 30.5029533319519], [78.39470635788118, 30.50290338709059], [78.39459093262057, 30.507230372068825], [78.39209231753186, 30.507180370804154], [78.39206342970702, 30.508262114390355], [78.39081411070967, 30.508237094750235], [78.3907852075186, 30.509318837057506], [78.38953587628623, 30.509293804386402], [78.38950695772743, 30.51037554541418], [78.38825761426017, 30.510350499711095], [78.38822868033216, 30.51143223945882], [78.38697932463015, 30.51140718072275], [78.38695037533142, 30.512488919189853], [78.38445164102743, 30.51243876369191], [78.38442266255285, 30.5135204998007], [78.38317328395183, 30.51349540303738], [78.38314429010288, 30.51457713786389], [78.38189489926836, 30.51455202806415], [78.38186589004356, 30.51563376160778], [78.38061648697568, 30.515608638770626], [78.38055843619887, 30.517772103086386], [78.37805957955733, 30.51772181721653], [78.37803052419598, 30.51880354690823], [78.37678108442896, 30.518778384952824], [78.37675201368576, 30.519860113359407], [78.37550256168598, 30.5198349383626], [78.37547347555946, 30.52091666548351], [78.37047562809195, 30.520815841558097], [78.37044648515386, 30.52189756414544], [78.36669807470145, 30.521821817355548]]]}, "properties": {"hazard_class": 4, "hazard_name": "Extreme", "area_ha": 7953.12}}]}