{"type": "FeatureCollection", "features": [{"type": "Feature", "geometry": {"type": "Polygon", "coordinates": [[[76.39554991019476, 31.424400279330076], [76.39546975859145, 31.418988310801886], [76.39673192751496, 31.418974559375457], [76.39681215155606, 31.42438652499915], [76.39554991019476, 31.424400279330076]]]}, "properties": {"hazard_class": 3, "hazard_name": "Significant", "area_ha": 7.2}}, {"type": "Feature", "geometry": {"type": "Polygon", "coordinates": [[[76.385261011257, 31.41152107860322], [76.38522920042605, 31.40935627794003], [76.38649124589642, 31.409342631099292], [76.38647532728825, 31.408260231058904], [76.38773735742214, 31.408246572375322], [76.38775329050878, 31.409328971838644], [76.3902773771565, 31.409301616057732], [76.39030930382445, 31.411466412102097], [76.38904723197125, 31.411480097358755], [76.38903128268703, 31.410397698853572], [76.3877692244542, 31.410411371111714], [76.3877851592584, 31.411493770194507], [76.385261011257, 31.41152107860322]]]}, "properties": {"hazard_class": 3, "hazard_name": "Significant", "area_ha": 11.52}}, {"type": "Feature", "geometry": {"type": "Polygon", "coordinates": [[[76.37768854670306, 31.411602705724764], [76.37767272774029, 31.410520302039888], [76.37514859502063, 31.410547410566156], [76.37513280586964, 31.409465005545865], [76.37387075271259, 31.409478540606127], [76.37383920592045, 31.407313728851545], [76.37510123012049, 31.407300194934923], [76.37513280586964, 31.409465005545865], [76.37639485817573, 31.409451458065423], [76.37637905539687, 31.408369053427357], [76.3789031284955, 31.408341922352363], [76.37893479282168, 31.410506729145784], [76.38019685704973, 31.410493143831065], [76.38021270497308, 31.41157554636858], [76.37768854670306, 31.411602705724764]]]}, "properties": {"hazard_class": 3, "hazard_name": "Significant", "area_ha": 12.96}}, {"type": "Feature", "geometry": {"type": "Polygon", "coordinates": [[[76.37437592660494, 31.35750934105887], [76.37432868664732, 31.35426209749396], [76.37559000152604, 31.35424857918694], [76.37555848358808, 31.352083750337428], [76.37681976873974, 31.352070220781435], [76.37680399660766, 31.35098780664398], [76.37302018191733, 31.351028356419857], [76.37303591073673, 31.352110772272322], [76.3717746230386, 31.35212426465115], [76.37175890865684, 31.351041848228068], [76.37049763454914, 31.351055327644364], [76.3704819354515, 31.349972910461315], [76.36922067493427, 31.34998637691611], [76.3692049911192, 31.348903958973644], [76.37046623720025, 31.348890493088398], [76.3704819354515, 31.349972910461315], [76.3717431951223, 31.349959431615098], [76.37175890865684, 31.351041848228068], [76.37302018191733, 31.351028356419857], [76.37298872682248, 31.348863524145237], [76.37424997036211, 31.348850021087387], [76.3742184897892, 31.34668518919541], [76.37547970361047, 31.34667167488999], [76.37546395016331, 31.345589259230778], [76.37672514870152, 31.345575733107758], [76.37670938167088, 31.34449331783074], [76.37797056492614, 31.34447977989117], [76.37798634638962, 31.345562194595537], [76.3792475432268, 31.34554864369418], [76.37926333997473, 31.346631057635445], [76.378002128704, 31.346644609109976], [76.37808105304102, 31.352056678833122], [76.37681976873974, 31.352070220781435], [76.37685131555507, 31.354235048486526], [76.37559000152604, 31.35424857918694], [76.37563728480566, 31.357495821036707], [76.37437592660494, 31.35750934105887]], [[76.3742657119216, 31.349932436748528], [76.37678822532591, 31.349905392316582], [76.37674091658232, 31.346658148194834], [76.37547970361047, 31.34667167488999], [76.37551121305303, 31.34883650563872], [76.37424997036211, 31.348850021087387], [76.3742657119216, 31.349932436748528]]]}, "properties": {"hazard_class": 3, "hazard_name": "Significant", "area_ha": 33.12}}, {"type": "Feature", "geometry": {"type": "Polygon", "coordinates": [[[76.3704819354515, 31.349972910461315], [76.37046623720025, 31.348890493088398], [76.3692049911192, 31.348903958973644], [76.36918930814971, 31.347821540841313], [76.37045053979539, 31.34780807552561], [76.37041914752459, 31.345643239830466], [76.37168034945557, 31.345629763264466], [76.37166464015657, 31.34454734570214], [76.37292582680755, 31.344533857317376], [76.37295727511933, 31.346698691111072], [76.37169605960162, 31.346712180636928], [76.3717431951223, 31.349959431615098], [76.3704819354515, 31.349972910461315]]]}, "properties": {"hazard_class": 1, "hazard_name": "Low", "area_ha": 10.08}}, {"type": "Feature", "geometry": {"type": "Polygon", "coordinates": [[[76.3742184897892, 31.34668518919541], [76.37417127529442, 31.343437939933274], [76.37291010392333, 31.34345144013572], [76.37289438188682, 31.342369022764196], [76.37415553882651, 31.342355523132788], [76.37417127529442, 31.343437939933274], [76.375432445817, 31.343424427342626], [76.37538519566701, 31.34017717808622], [76.3779074475806, 31.3401501191745], [76.37793900455179, 31.342314949912666], [76.3766778501598, 31.342328486706997], [76.37670938167088, 31.34449331783074], [76.37544819756548, 31.34450684338166], [76.37547970361047, 31.34667167488999], [76.3742184897892, 31.34668518919541]]]}, "properties": {"hazard_class": 1, "hazard_name": "Low", "area_ha": 14.4}}, {"type": "Feature", "geometry": {"type": "Polygon", "coordinates": [[[76.39559801152456, 31.42764745816236], [76.39558197688388, 31.426565065408656], [76.39305743360862, 31.42659253910998], [76.39289742446472, 31.415768589499756], [76.39415955166153, 31.415754864661587], [76.39409551421859, 31.41142528180705], [76.3928334449489, 31.411439004326223], [76.39281745222496, 31.41035660755705], [76.3902933400603, 31.41038401417506], [76.3902773771565, 31.409301616057732], [76.38775329050878, 31.409328971838644], [76.38773735742214, 31.408246572375322], [76.38647532728825, 31.408260231058904], [76.38649124589642, 31.409342631099292], [76.38270510691456, 31.409383534361695], [76.38268923174206, 31.40830113259324], [76.38142719818109, 31.408314741599128], [76.38144305887494, 31.40939714394254], [76.38018100998048, 31.40941074110337], [76.38019685704973, 31.410493143831065], [76.37893479282168, 31.410506729145784], [76.3789031284955, 31.408341922352363], [76.37637905539687, 31.408369053427357], [76.37639485817573, 31.409451458065423], [76.37513280586964, 31.409465005545865], [76.37510123012049, 31.407300194934923], [76.3713151549708, 31.407340759427335], [76.37129941180466, 31.406258352122858], [76.3700373995341, 31.40627184821172], [76.37002167169311, 31.405189440146977], [76.36875967305154, 31.405202923247447], [76.36874396053416, 31.404120514422953], [76.36748197552166, 31.40413398453606], [76.36745058197702, 31.401969165178684], [76.36618862506812, 31.401982621736845], [76.36611022837133, 31.396570567175353], [76.36484834297795, 31.39658400847662], [76.3648326806436, 31.39550159642635], [76.36609455156719, 31.395488155693076], [76.36603185279995, 31.391158507864176], [76.36477003974781, 31.39117194632558], [76.36453525664288, 31.37493573138124], [76.36579685278816, 31.37492230143754], [76.36573421820408, 31.370592639173378], [76.36699575569307, 31.370579199099073], [76.36698008470623, 31.36949678362652], [76.36824160689935, 31.369483331719486], [76.36821023856025, 31.367318501342115], [76.36947173100818, 31.367305038172667], [76.36939325272037, 31.361892961751973], [76.37065467208673, 31.361879489031327], [76.37063896452281, 31.360797073747158], [76.37190036859764, 31.360783589199524], [76.37185320765721, 31.357536343918166], [76.37311456755519, 31.35752284868603], [76.37309883449518, 31.356440433783128], [76.37183748903873, 31.35645392844457], [76.37179033826764, 31.35320668088435], [76.3705290352838, 31.35322016144086], [76.37051333449321, 31.35213774463755], [76.36925204510133, 31.352151212231476], [76.36923635959496, 31.351068794668713], [76.36797508379514, 31.3510822493011], [76.36792807565848, 31.347834993766607], [76.3666668423225, 31.347848434301483], [76.36663553665724, 31.3456835951924], [76.36915794474736, 31.345656704007148], [76.36914226431439, 31.344574285305303], [76.37040345265858, 31.344560821698128], [76.37037206546513, 31.34239598486389], [76.37163322409943, 31.342382510007912], [76.37161751734124, 31.34130009187601], [76.37287866069799, 31.3412866052028], [76.37286294035681, 31.34020418745156], [76.37538519566701, 31.34017717808622], [76.37536944731539, 31.339094761287633], [76.37789167037108, 31.339067703520545], [76.37787589401225, 31.337985287676688], [76.37913698983638, 31.33797174078721], [76.37912119990084, 31.33688932532652], [76.38164336013958, 31.336862195538924], [76.38165917892964, 31.337944609851885], [76.37913698983638, 31.33797174078721], [76.37915278062331, 31.33905415605797], [76.37789167037108, 31.339067703520545], [76.3779074475806, 31.3401501191745], [76.37538519566701, 31.34017717808622], [76.37540094486779, 31.3412595946949], [76.37287866069799, 31.3412866052028], [76.37292582680755, 31.344533857317376], [76.37166464015657, 31.34454734570214], [76.37168034945557, 31.345629763264466], [76.37041914752459, 31.345643239830466], [76.37043484323685, 31.346725657772968], [76.36917362602577, 31.346739122519153], [76.36922067493427, 31.34998637691611], [76.3704819354515, 31.349972910461315], [76.37049763454914, 31.351055327644364], [76.37175890865684, 31.351041848228068], [76.3717746230386, 31.35212426465115], [76.37303591073673, 31.352110772272322], [76.37305164040417, 31.353193187934874], [76.37431294169264, 31.35317968259247], [76.37440742415507, 31.35967416915248], [76.37314603622, 31.359687677922114], [76.37319324557976, 31.36293492035175], [76.37193181346245, 31.362948418437494], [76.37196326171794, 31.36511324691577], [76.37070179985972, 31.36512673374432], [76.37074893525542, 31.36837397674801], [76.36948742920438, 31.368387452887067], [76.3695659328809, 31.37379952361015], [76.36830435372471, 31.373812990195237], [76.3683828062857, 31.379225059016488], [76.36712115400526, 31.37923851604266], [76.36719955541656, 31.38465058295959], [76.36593782999279, 31.38466403042188], [76.36598483759524, 31.387911269997826], [76.36724660640729, 31.387897820830307], [76.3673721129197, 31.396557113459995], [76.36863399662228, 31.396543647330592], [76.36869682806302, 31.400873286809258], [76.37500652329283, 31.400805758539406], [76.37499074179901, 31.39972335180814], [76.37877650531782, 31.399682687572625], [76.37876068125924, 31.39860028236954], [76.38128449039837, 31.398573111950473], [76.38126863825087, 31.397490707705387], [76.38379241503056, 31.397463488777415], [76.38380829611971, 31.3985458918723], [76.38507019769675, 31.39853226321112], [76.38508609411345, 31.399614665539914], [76.3863480093052, 31.399601023887605], [76.38639574711563, 31.40284822800349], [76.39144357297423, 31.402793530309523], [76.39147551826906, 31.404958327479992], [76.39273750153315, 31.404944620856597], [76.3927534899479, 31.406027018577284], [76.3940154868262, 31.406013298956577], [76.39403149057945, 31.407095695907305], [76.39529350107189, 31.407081963288256], [76.39532554012183, 31.409246755458344], [76.39658757870653, 31.409233009259182], [76.39661965016893, 31.411397799506425], [76.39788171684806, 31.411384039725007], [76.39791382072944, 31.41354882804822], [76.39917591550515, 31.413535054682452], [76.39920805181198, 31.41569984108045], [76.39794592807145, 31.415713615609935], [76.3979619830403, 31.416796009105216], [76.39669984395093, 31.41680977179328], [76.39673192751496, 31.418974559375457], [76.39546975859145, 31.418988310801886], [76.39554991019476, 31.424400279330076], [76.39681215155606, 31.42438652499915], [76.39684424722574, 31.426551309915855], [76.40063105305902, 31.42650996886915], [76.40061496131996, 31.42542757825201], [76.40187721370715, 31.425413773630172], [76.40186110834554, 31.42433138340562], [76.40312334537508, 31.424317566939916], [76.40310722639248, 31.423235177108452], [76.40436944806446, 31.42322134879997], [76.40435331546243, 31.4221389593621], [76.40561552177692, 31.422125119211888], [76.40559937555702, 31.421042730168136], [76.40686156651411, 31.421028878177257], [76.40682924771255, 31.418864100688445], [76.4080914088267, 31.418850237443564], [76.40807523624734, 31.417767848999016], [76.40933738200509, 31.417753973916124], [76.40932119581328, 31.416671585867164], [76.41058332621469, 31.416657698947315], [76.41056712641198, 31.415575311294464], [76.41182924145717, 31.415561412538732], [76.41181302804512, 31.41447902528248], [76.41307512773413, 31.41446511469193], [76.41305890071432, 31.413382727832783], [76.41558306850489, 31.41335487056283], [76.41556681339816, 31.412272484689943], [76.41682888149906, 31.41225853801216], [76.4168126127885, 31.411176152537912], [76.41807466553276, 31.41116219402906], [76.41805838321993, 31.41007980895393], [76.4193204206076, 31.410065838615072], [76.41930412469408, 31.408983453939562], [76.42182816787744, 31.408955477184886], [76.42181184388738, 31.407873093500744], [76.42812186404916, 31.407802937244885], [76.4281382604254, 31.408885317965012], [76.42435220754152, 31.408927450753932], [76.42436856136756, 31.410009833063423], [76.4218444927473, 31.410037860678447], [76.42186081849702, 31.411120243981372], [76.42059876838779, 31.41113423975076], [76.4206150805377, 31.412216623454352], [76.41935301506962, 31.41223060739433], [76.41936931361816, 31.41331299149808], [76.41810723279112, 31.413326963607595], [76.41812351773675, 31.414409348111], [76.41686142155066, 31.41442330838898], [76.41687769289182, 31.415505693291532], [76.41561558134661, 31.415519641736914], [76.41563183908171, 31.416602027038103], [76.4131075843975, 31.416629887838617], [76.41312381404113, 31.417712274126153], [76.41186167090277, 31.417726186479655], [76.41187788693641, 31.418808573164316], [76.41061572843942, 31.418822473681477], [76.41063193086153, 31.41990486076277], [76.4093697570058, 31.41991874944251], [76.40938594581479, 31.421001136919926], [76.4081237566003, 31.421015013761178], [76.40815610786066, 31.42317978931675], [76.40689388879933, 31.423193654904086], [76.40691005124842, 31.424276042981766], [76.4056478168273, 31.424289896727963], [76.40566396565784, 31.42537228520026], [76.40440171587687, 31.425386127104264], [76.40441785108733, 31.426468515970694], [76.40315558594641, 31.42648234603144], [76.40317170753522, 31.427564735291487], [76.39559801152456, 31.42764745816236]]]}, "properties": {"hazard_class": 4, "hazard_name": "Extreme", "area_ha": 531.36}}, {"type": "Feature", "geometry": {"type": "Polygon", "coordinates": [[[76.37161751734124, 31.34130009187601], [76.37160181142993, 31.340217673554267], [76.37286294035681, 31.34020418745156], [76.37284722086322, 31.33912176951044], [76.37410833451347, 31.339108271592092], [76.37409260143919, 31.33802585403211], [76.37535369981288, 31.338012344299184], [76.37533795315944, 31.33692992712085], [76.3740768692132, 31.33694343628228], [76.37406113783547, 31.3358610183426], [76.37532220735504, 31.335847509752647], [76.37530646239964, 31.334765092194584], [76.37782857003936, 31.33473803900575], [76.37781279708281, 31.333655622402315], [76.37907383520229, 31.33364207780504], [76.37908962258385, 31.334724493835445], [76.38035067427705, 31.334710936281258], [76.38036647693562, 31.335793351548176], [76.37910541081668, 31.335806909675938], [76.37908962258385, 31.334724493835445], [76.37782857003936, 31.33473803900575], [76.37786011850403, 31.336902871642945], [76.37912119990084, 31.33688932532652], [76.37913698983638, 31.33797174078721], [76.37787589401225, 31.337985287676688], [76.37786011850403, 31.336902871642945], [76.37659903625665, 31.33691640557439], [76.3766147973375, 31.337998822180694], [76.37535369981288, 31.338012344299184], [76.37536944731539, 31.339094761287633], [76.37410833451347, 31.339108271592092], [76.3741240684361, 31.340190688962192], [76.37286294035681, 31.34020418745156], [76.37287866069799, 31.3412866052028], [76.37161751734124, 31.34130009187601]], [[76.37533795315944, 31.33692992712085], [76.37659903625665, 31.33691640557439], [76.37658327602561, 31.33583398877821], [76.37532220735504, 31.335847509752647], [76.37533795315944, 31.33692992712085]]]}, "properties": {"hazard_class": 2, "hazard_name": "Moderate", "area_ha": 15.84}}, {"type": "Feature", "geometry": {"type": "Polygon", "coordinates": [[[76.36401940162331, 31.339215908125755], [76.36395693608739, 31.33488621853427], [76.36521799794473, 31.33487280958863], [76.36520236924032, 31.33379038728366], [76.36646341582953, 31.333776966521622], [76.36651034774954, 31.33702423116383], [76.36524925788181, 31.337037653629302], [76.36528052119014, 31.339202496910897], [76.36401940162331, 31.339215908125755]]]}, "properties": {"hazard_class": 2, "hazard_name": "Moderate", "area_ha": 10.08}}, {"type": "Feature", "geometry": {"type": "Polygon", "coordinates": [[[76.36272707561871, 31.337064461404463], [76.3626958733881, 31.334899615095676], [76.36143480984764, 31.334912999272806], [76.361403639832, 31.332748151072636], [76.36266467452224, 31.33273476802794], [76.3625866920761, 31.32732264703845], [76.36510861470903, 31.327295849469053], [76.36515548818308, 31.330543119230207], [76.36389448402282, 31.330556525906825], [76.36394132180841, 31.33380379566202], [76.36520236924032, 31.33379038728366], [76.36521799794473, 31.33487280958863], [76.36395693608739, 31.33488621853427], [76.36398816717127, 31.337051063709517], [76.36272707561871, 31.337064461404463]]]}, "properties": {"hazard_class": 1, "hazard_name": "Low", "area_ha": 21.6}}, {"type": "Feature", "geometry": {"type": "Polygon", "coordinates": [[[76.37160181142993, 31.340217673554267], [76.37153899625244, 31.33588799836889], [76.37027792419055, 31.33590146980516], [76.37029361228804, 31.336983889456175], [76.36777143677367, 31.337010796313127], [76.36766183979671, 31.32943384680272], [76.36640085174461, 31.32944727767526], [76.36638521283177, 31.328364854989264], [76.36764618646238, 31.328351424684985], [76.36761488232587, 31.32618657988025], [76.37013676937322, 31.32615968440481], [76.37016813119071, 31.32832452693344], [76.36890715924896, 31.328337981999706], [76.3689384956053, 31.330502824907814], [76.37146049633022, 31.330475900116053], [76.37150759374384, 31.33372315963721], [76.36898550647675, 31.333750087846607], [76.36900117845722, 31.334832508446613], [76.37152329457483, 31.33480557909795], [76.37153899625244, 31.33588799836889], [76.37280006746768, 31.335874514548017], [76.37281578441869, 31.33695693305867], [76.3740768692132, 31.33694343628228], [76.37410833451347, 31.339108271592092], [76.37284722086322, 31.33912176951044], [76.37286294035681, 31.34020418745156], [76.37160181142993, 31.340217673554267]]]}, "properties": {"hazard_class": 1, "hazard_name": "Low", "area_ha": 40.32}}, {"type": "Feature", "geometry": {"type": "Polygon", "coordinates": [[[76.3613257294979, 31.327336027252276], [76.3613101499516, 31.3262536019191], [76.36383204542702, 31.326226830243673], [76.36380083117909, 31.324061981273776], [76.36506174881708, 31.324048578000312], [76.36509299190264, 31.32621342583587], [76.36383204542702, 31.326226830243673], [76.36384765381341, 31.327309254444042], [76.3613257294979, 31.327336027252276]]]}, "properties": {"hazard_class": 2, "hazard_name": "Moderate", "area_ha": 5.76}}, {"type": "Feature", "geometry": {"type": "Polygon", "coordinates": [[[76.3766936154903, 31.34341090236382], [76.3766778501598, 31.342328486706997], [76.379200158093, 31.342301400730747], [76.3791685722617, 31.34013657113882], [76.38042969609134, 31.34012301071665], [76.3804138900241, 31.33904059620942], [76.37915278062331, 31.33905415605797], [76.37913698983638, 31.33797174078721], [76.38165917892964, 31.337944609851885], [76.38164336013958, 31.336862195538924], [76.38038228044628, 31.336875766625177], [76.38028747216302, 31.33038127331447], [76.38154846530917, 31.330367705672668], [76.3815010294057, 31.3271204581757], [76.38276197843622, 31.327106879875796], [76.38274615375413, 31.326024464238184], [76.38400708751192, 31.32601087413319], [76.3840229266134, 31.327093289195762], [76.38528387393644, 31.327079686135615], [76.38525216774967, 31.324914856971663], [76.38399124926453, 31.324928458880695], [76.38395957533179, 31.322763627805976], [76.38522046498211, 31.322750027048002], [76.38525216774967, 31.324914856971663], [76.38651308537999, 31.32490124268362], [76.38654482040462, 31.32706607069541], [76.38528387393644, 31.327079686135615], [76.38529972831216, 31.328162100432696], [76.38656068920042, 31.328148484416374], [76.38657655885193, 31.329230897947404], [76.3853155835428, 31.329244514539823], [76.38529972831216, 31.328162100432696], [76.38403876656898, 31.32817570406841], [76.38405460737872, 31.329258118751127], [76.38279363036042, 31.329271710581274], [76.3828252856983, 31.331436540527083], [76.3815642789823, 31.331450121125172], [76.38162754220244, 31.335779781036027], [76.38288860661638, 31.335766198139527], [76.38295194119301, 31.340095852712885], [76.3816908190687, 31.340109437907994], [76.38170664041776, 31.34119185165112], [76.38044550301083, 31.341205425033923], [76.38046131078264, 31.342287839161294], [76.379200158093, 31.342301400730747], [76.37921595228597, 31.343383815241825], [76.3766936154903, 31.34341090236382]], [[76.38277780397163, 31.328189295323497], [76.38403876656898, 31.32817570406841], [76.3840229266134, 31.327093289195762], [76.38276197843622, 31.327106879875796], [76.38277780397163, 31.328189295323497]]]}, "properties": {"hazard_class": 3, "hazard_name": "Significant", "area_ha": 43.2}}, {"type": "Feature", "geometry": {"type": "Polygon", "coordinates": [[[76.36663553665724, 31.3456835951924], [76.3666198850905, 31.34460117535313], [76.36535869421236, 31.344614601793715], [76.36524925788181, 31.337037653629302], [76.36651034774954, 31.33702423116383], [76.36646341582953, 31.333776966521622], [76.36394132180841, 31.33380379566202], [76.36392570837135, 31.332721372600027], [76.3651867413786, 31.332707964788924], [76.36517111435954, 31.331625542104444], [76.36643213210027, 31.33161212247796], [76.36641649150077, 31.330529700171482], [76.36515548818308, 31.330543119230207], [76.36510861470903, 31.327295849469053], [76.36384765381341, 31.327309254444042], [76.36383204542702, 31.326226830243673], [76.3613101499516, 31.3262536019191], [76.36129457124542, 31.32517117639623], [76.36381643788226, 31.325144405853575], [76.36383204542702, 31.326226830243673], [76.36509299190264, 31.32621342583587], [76.36506174881708, 31.324048578000312], [76.36380083117909, 31.324061981273776], [76.3637852253175, 31.322979556504276], [76.36630703091583, 31.322952738713184], [76.36633830115271, 31.325117585792835], [76.36759923152358, 31.325104157193245], [76.36758358156524, 31.3240217343165], [76.36884449667387, 31.324008293906218], [76.36882883314186, 31.32292587140844], [76.36756793245078, 31.322939311250007], [76.36755228418016, 31.321856887993764], [76.3688131704545, 31.321843448720895], [76.36882883314186, 31.32292587140844], [76.37261153014427, 31.3228854776137], [76.37259582420684, 31.32180305663542], [76.37133494046861, 31.3218165330417], [76.37131924979397, 31.32073411130337], [76.37258011911634, 31.320720635467346], [76.37259582420684, 31.32180305663542], [76.37511758914178, 31.32177606668964], [76.37513332391237, 31.3228584865258], [76.37387242745218, 31.322871988258868], [76.37388814865396, 31.323954408476542], [76.37262723692865, 31.32396789840218], [76.37267436236398, 31.32721515962883], [76.37141340653474, 31.32722863888663], [76.37144479888532, 31.329393479896048], [76.37270578355638, 31.32937999949757], [76.37272149542336, 31.330462419147203], [76.37398249366927, 31.330448925796418], [76.3740768692132, 31.33694343628228], [76.37533795315944, 31.33692992712085], [76.37532220735504, 31.335847509752647], [76.37658327602561, 31.33583398877821], [76.37659903625665, 31.33691640557439], [76.37533795315944, 31.33692992712085], [76.37535369981288, 31.338012344299184], [76.37409260143919, 31.33802585403211], [76.3740768692132, 31.33694343628228], [76.37281578441869, 31.33695693305867], [76.37280006746768, 31.335874514548017], [76.37153899625244, 31.33588799836889], [76.37163322409943, 31.342382510007912], [76.37037206546513, 31.34239598486389], [76.37040345265858, 31.344560821698128], [76.36914226431439, 31.344574285305303], [76.36915794474736, 31.345656704007148], [76.36663553665724, 31.3456835951924]], [[76.36788107512477, 31.344587736523643], [76.36914226431439, 31.344574285305303], [76.36904819946922, 31.338079769107843], [76.37030930123143, 31.338066308917373], [76.37027792419055, 31.33590146980516], [76.37153899625244, 31.33588799836889], [76.37146049633022, 31.330475900116053], [76.3701994963906, 31.330489368702935], [76.37012108973279, 31.325077262855814], [76.36759923152358, 31.325104157193245], [76.36764618646238, 31.328351424684985], [76.36638521283177, 31.328364854989264], [76.36640085174461, 31.32944727767526], [76.36766183979671, 31.32943384680272], [76.36780275779438, 31.339175637322313], [76.36654163991412, 31.339189073309733], [76.36655728726188, 31.34027149409802], [76.3678184195714, 31.3402580575422], [76.36788107512477, 31.344587736523643]], [[76.37012108973279, 31.325077262855814], [76.37138201756954, 31.325063797118013], [76.37136632435636, 31.32398137594902], [76.37010541093784, 31.323994841117052], [76.37012108973279, 31.325077262855814]]]}, "properties": {"hazard_class": 3, "hazard_name": "Significant", "area_ha": 119.52}}, {"type": "Feature", "geometry": {"type": "Polygon", "coordinates": [[[76.37008973298833, 31.322912419188512], [76.37007405588423, 31.321829997070207], [76.37259582420684, 31.32180305663542], [76.37258011911634, 31.320720635467346], [76.37131924979397, 31.32073411130337], [76.37128787098295, 31.3185692672574], [76.37380955112206, 31.31854230549017], [76.37382526893315, 31.319624726467033], [76.37634697451038, 31.319597714052108], [76.37637847033693, 31.32176255315021], [76.37259582420684, 31.32180305663542], [76.37261153014427, 31.3228854776137], [76.37008973298833, 31.322912419188512]], [[76.37258011911634, 31.320720635467346], [76.37384098759182, 31.32070714725411], [76.37382526893315, 31.319624726467033], [76.3725644148727, 31.3196382141095], [76.37258011911634, 31.320720635467346]]]}, "properties": {"hazard_class": 2, "hazard_name": "Moderate", "area_ha": 14.4}}, {"type": "Feature", "geometry": {"type": "Polygon", "coordinates": [[[76.38162754220244, 31.335779781036027], [76.3815642789823, 31.331450121125172], [76.3828252856983, 31.331436540527083], [76.38279363036042, 31.329271710581274], [76.38405460737872, 31.329258118751127], [76.38403876656898, 31.32817570406841], [76.38277780397163, 31.328189295323497], [76.38276197843622, 31.327106879875796], [76.3840229266134, 31.327093289195762], [76.38399124926453, 31.324928458880695], [76.38525216774967, 31.324914856971663], [76.3852363159385, 31.323832442104802], [76.38649721915108, 31.32381882839282], [76.3864813537777, 31.32273641391207], [76.38774224171779, 31.322722788398178], [76.38771048470599, 31.320557960019986], [76.38897134295833, 31.320544323282327], [76.38893956054298, 31.318379495298487], [76.39020038911008, 31.318365847339138], [76.39018448477478, 31.317283433639847], [76.39144529807128, 31.31726977388281], [76.39142938018146, 31.31618736057164], [76.39269017820743, 31.31617368901797], [76.39267424676466, 31.315091276095412], [76.39393502952016, 31.315077592746178], [76.39395097537424, 31.316160005089635], [76.39269017820743, 31.31617368901797], [76.39270611050935, 31.31725610175055], [76.39144529807128, 31.31726977388281], [76.39147713642615, 31.319434599935256], [76.39021629430303, 31.319448260848464], [76.3902322003537, 31.320530674167827], [76.38897134295833, 31.320544323282327], [76.38903491807311, 31.324873976970554], [76.38777400215473, 31.324887616016575], [76.38780576601712, 31.32705244287516], [76.38654482040462, 31.32706607069541], [76.38656068920042, 31.328148484416374], [76.38529972831216, 31.328162100432696], [76.38533143962842, 31.330326928457], [76.38407044904265, 31.33034053324391], [76.38410213493326, 31.332505361659674], [76.38284111464748, 31.332518955215104], [76.38288860661638, 31.335766198139527], [76.38162754220244, 31.335779781036027]], [[76.38403876656898, 31.32817570406841], [76.38529972831216, 31.328162100432696], [76.38528387393644, 31.327079686135615], [76.3840229266134, 31.327093289195762], [76.38403876656898, 31.32817570406841]], [[76.38528387393644, 31.327079686135615], [76.38654482040462, 31.32706607069541], [76.38651308537999, 31.32490124268362], [76.38525216774967, 31.324914856971663], [76.38528387393644, 31.327079686135615]]]}, "properties": {"hazard_class": 4, "hazard_name": "Extreme", "area_ha": 40.32}}, {"type": "Feature", "geometry": {"type": "Polygon", "coordinates": [[[76.36501489050615, 31.320801304824084], [76.36498365584336, 31.318636455091376], [76.36624450055865, 31.318623042277167], [76.36622887007674, 31.317540617693876], [76.36748969953543, 31.317527193071466], [76.36750534443104, 31.31860961708664], [76.36876618745973, 31.318596179519812], [76.36875052815047, 31.317513756073303], [76.37001135592108, 31.31750030669939], [76.3699956830434, 31.316417883632308], [76.37125649555601, 31.31640442245237], [76.37124080911147, 31.315321999765217], [76.37376240277416, 31.31529504142082], [76.37379383415859, 31.317459884323505], [76.37631548208053, 31.317432874194743], [76.37634697451038, 31.319597714052108], [76.37382526893315, 31.319624726467033], [76.37380955112206, 31.31854230549017], [76.36876618745973, 31.318596179519812], [76.36878184761346, 31.319678602776584], [76.36626013188346, 31.31970546667075], [76.36627576405125, 31.320787890874612], [76.36501489050615, 31.320801304824084]]]}, "properties": {"hazard_class": 3, "hazard_name": "Significant", "area_ha": 25.92}}, {"type": "Feature", "geometry": {"type": "Polygon", "coordinates": [[[76.38641790083888, 31.318406754089764], [76.38637032011603, 31.31515950722889], [76.38510953221753, 31.315173116332854], [76.38507784483255, 31.31300828299086], [76.3863386039103, 31.31299467503878], [76.38637032011603, 31.31515950722889], [76.38763110715931, 31.31514588575065], [76.38764698095648, 31.316228300984378], [76.38890778155522, 31.316214666554878], [76.38892367062067, 31.31729708102165], [76.39018448477478, 31.317283433639847], [76.39020038911008, 31.318365847339138], [76.38893956054298, 31.318379495298487], [76.38892367062067, 31.31729708102165], [76.3876628556097, 31.31731071602817], [76.38767873111898, 31.318393130882043], [76.38641790083888, 31.318406754089764]]]}, "properties": {"hazard_class": 3, "hazard_name": "Significant", "area_ha": 10.08}}, {"type": "Feature", "geometry": {"type": "Polygon", "coordinates": [[[76.3600803320451, 31.328431820794574], [76.35998694884137, 31.321937263694792], [76.35872605667669, 31.321950616322003], [76.35871051016291, 31.320868188909834], [76.35997138791133, 31.320854836847662], [76.35998694884137, 31.321937263694792], [76.36124784016691, 31.321923898689548], [76.36120111664773, 31.318676619275774], [76.36372281028592, 31.318649855529237], [76.36370720863151, 31.317567429811252], [76.36496803977518, 31.31755402994047], [76.36493681016508, 31.315389179069577], [76.36367600784664, 31.315402577806214], [76.36369160781844, 31.31648500390357], [76.36243079024649, 31.316498390831946], [76.36239961996789, 31.3143335373145], [76.36492119662307, 31.314306753349587], [76.36493681016508, 31.315389179069577], [76.3661976116415, 31.315375767958145], [76.3661819836881, 31.314293342805726], [76.36744276991035, 31.31427991988765], [76.36742712838911, 31.31319749511362], [76.36868789935728, 31.31318406038993], [76.36870355528907, 31.314266484595365], [76.36996433982351, 31.314253036928907], [76.36994866948119, 31.313170613292616], [76.37120943876006, 31.31315715382167], [76.37122512351284, 31.314239576888312], [76.37248590635632, 31.314226104473605], [76.37250160636616, 31.315308526780324], [76.37124080911147, 31.315321999765217], [76.37125649555601, 31.31640442245237], [76.3699956830434, 31.316417883632308], [76.37001135592108, 31.31750030669939], [76.36875052815047, 31.317513756073303], [76.36876618745973, 31.318596179519812], [76.37128787098295, 31.3185692672574], [76.37133494046861, 31.3218165330417], [76.37007405588423, 31.321829997070207], [76.37008973298833, 31.322912419188512], [76.36882883314186, 31.32292587140844], [76.3687975086117, 31.32076102584362], [76.36753663675337, 31.32077446454778], [76.36752099017033, 31.31969204091208], [76.36878184761346, 31.319678602776584], [76.36876618745973, 31.318596179519812], [76.36750534443104, 31.31860961708664], [76.36748969953543, 31.317527193071466], [76.36622887007674, 31.317540617693876], [76.36624450055865, 31.318623042277167], [76.36498365584336, 31.318636455091376], [76.36501489050615, 31.320801304824084], [76.36627576405125, 31.320787890874612], [76.36629139706203, 31.32187031488877], [76.36503050910085, 31.321883729405876], [76.36504612853781, 31.322966153797957], [76.3637852253175, 31.322979556504276], [76.36380083117909, 31.324061981273776], [76.36253991269956, 31.32407537216824], [76.36255550498424, 31.32515779731468], [76.36129457124542, 31.32517117639623], [76.36134130988432, 31.328418452395745], [76.3600803320451, 31.328431820794574]]]}, "properties": {"hazard_class": 1, "hazard_name": "Low", "area_ha": 76.32}}, {"type": "Feature", "geometry": {"type": "Polygon", "coordinates": [[[76.39142938018146, 31.31618736057164], [76.39141346315004, 31.315104947070505], [76.39267424676466, 31.315091276095412], [76.392658316181, 31.31400886298288], [76.39391908452599, 31.313995180212736], [76.39390314039164, 31.31291276748932], [76.3951638934671, 31.312899072925187], [76.3951958114158, 31.315063897022842], [76.39267424676466, 31.315091276095412], [76.39269017820743, 31.31617368901797], [76.39142938018146, 31.31618736057164]]]}, "properties": {"hazard_class": 3, "hazard_name": "Significant", "area_ha": 5.76}}, {"type": "Feature", "geometry": {"type": "Polygon", "coordinates": [[[76.39139754697693, 31.314022533379408], [76.39136571720556, 31.311857705427368], [76.39388719711711, 31.311830354575918], [76.39391908452599, 31.313995180212736], [76.39139754697693, 31.314022533379408]]]}, "properties": {"hazard_class": 1, "hazard_name": "Low", "area_ha": 5.76}}, {"type": "Feature", "geometry": {"type": "Polygon", "coordinates": [[[76.38001901521199, 31.311980171811946], [76.37994010411106, 31.306568072693196], [76.38120078015703, 31.306554517677124], [76.38127976329316, 31.31196661392693], [76.38001901521199, 31.311980171811946]]]}, "properties": {"hazard_class": 2, "hazard_name": "Moderate", "area_ha": 7.2}}, {"type": "Feature", "geometry": {"type": "Polygon", "coordinates": [[[76.3951160229983, 31.309651835353787], [76.39508411365476, 31.30748700935631], [76.39634479383297, 31.307473305319554], [76.39632882604678, 31.30639089261591], [76.39758949095888, 31.30637717678933], [76.3976214562031, 31.308542000845502], [76.3963607624803, 31.308555717833226], [76.39637673198884, 31.309638130156916], [76.3951160229983, 31.309651835353787]]]}, "properties": {"hazard_class": 4, "hazard_name": "Extreme", "area_ha": 5.76}}, {"type": "Feature", "geometry": {"type": "Polygon", "coordinates": [[[76.37248590635632, 31.314226104473605], [76.37245450887652, 31.312061259290896], [76.37119375485312, 31.312074730565268], [76.37113102768272, 31.30774503564232], [76.37239172407527, 31.307731566648464], [76.37240741900588, 31.308813990093682], [76.37366812895854, 31.308800508158257], [76.37363671113148, 31.306635662219342], [76.37237602999106, 31.306649143013505], [76.3723603367532, 31.30556671918881], [76.37488166937705, 31.30553974637181], [76.37492883806398, 31.30878701385139], [76.37366812895854, 31.308800508158257], [76.37368383914288, 31.309882930843102], [76.37494456265557, 31.309869435965062], [76.37500746950258, 31.314199122521977], [76.37248590635632, 31.314226104473605]], [[76.37245450887652, 31.312061259290896], [76.37371526205335, 31.312047775643492], [76.37368383914288, 31.309882930843102], [76.37242311478293, 31.309896413349176], [76.37245450887652, 31.312061259290896]]]}, "properties": {"hazard_class": 3, "hazard_name": "Significant", "area_ha": 21.6}}, {"type": "Feature", "geometry": {"type": "Polygon", "coordinates": [[[76.38507784483255, 31.31300828299086], [76.38499864132079, 31.307596196312936], [76.38373795342716, 31.307609789014897], [76.38372212969283, 31.306527370534365], [76.38498280318109, 31.30651377840774], [76.3849669658955, 31.30543136031267], [76.38622762412508, 31.305417756391762], [76.3863386039103, 31.31299467503878], [76.38507784483255, 31.31300828299086]]]}, "properties": {"hazard_class": 2, "hazard_name": "Moderate", "area_ha": 11.52}}, {"type": "Feature", "geometry": {"type": "Polygon", "coordinates": [[[76.36741148771135, 31.312115070149872], [76.36734893343444, 31.307785368397937], [76.36608823366406, 31.307798787907736], [76.3660726116091, 31.306716361427526], [76.36733329697356, 31.306702942485728], [76.3673176613559, 31.305620516383836], [76.36857833147198, 31.305607085640023], [76.36859398149474, 31.306689511173403], [76.37111534800427, 31.306662611437268], [76.3710996691714, 31.305580187042484], [76.3723603367532, 31.30556671918881], [76.37239172407527, 31.307731566648464], [76.36860963236153, 31.30777193651708], [76.3686252840724, 31.308854361671067], [76.37114670820678, 31.308827459657646], [76.37119375485312, 31.312074730565268], [76.36993299998394, 31.312088189466575], [76.36991733133169, 31.311005765450812], [76.36865659002646, 31.31101921140993], [76.36867224426976, 31.312101635994793], [76.36741148771135, 31.312115070149872]]]}, "properties": {"hazard_class": 1, "hazard_name": "Low", "area_ha": 23.04}}, {"type": "Feature", "geometry": {"type": "Polygon", "coordinates": [[[76.39015267867708, 31.315118605671426], [76.3901208760096, 31.31295377694322], [76.3888601194996, 31.312967422014932], [76.38881246515425, 31.30972017576567], [76.3875517510126, 31.309733806733345], [76.38753588235082, 31.308651390360158], [76.38879658208566, 31.308637759969418], [76.38873305837623, 31.30430809488539], [76.38999369963527, 31.30429445443324], [76.39010497596209, 31.311871362294216], [76.39136571720556, 31.311857705427368], [76.39141346315004, 31.315104947070505], [76.39015267867708, 31.315118605671426]]]}, "properties": {"hazard_class": 2, "hazard_name": "Moderate", "area_ha": 17.28}}, {"type": "Feature", "geometry": {"type": "Polygon", "coordinates": [[[76.39005728096396, 31.30862411720759], [76.38997780644605, 31.303212038264874], [76.3912384324451, 31.30319838602168], [76.39127024848712, 31.305363217012665], [76.39253090243466, 31.305349551244177], [76.39254682614693, 31.30643196587633], [76.39128615779504, 31.30644563222328], [76.39131797898496, 31.308610462074725], [76.39005728096396, 31.30862411720759]]]}, "properties": {"hazard_class": 1, "hazard_name": "Low", "area_ha": 8.64}}, {"type": "Feature", "geometry": {"type": "Polygon", "coordinates": [[[76.37406113783547, 31.3358610183426], [76.37398249366927, 31.330448925796418], [76.37272149542336, 31.330462419147203], [76.37264294456004, 31.325050319000866], [76.3739038707035, 31.325036828504402], [76.37387242745218, 31.322871988258868], [76.37513332391237, 31.3228584865258], [76.37511758914178, 31.32177606668964], [76.37637847033693, 31.32176255315021], [76.37644147218131, 31.326092229068436], [76.37770241019781, 31.326078700861768], [76.37773394505626, 31.328243536536984], [76.37899491106245, 31.328229994804694], [76.37894756679141, 31.324982742725926], [76.38020848868801, 31.324969190333306], [76.38019269454828, 31.323886773167427], [76.38145360117527, 31.32387320896963], [76.38143779347007, 31.322790792187835], [76.37891600819874, 31.32281790705742], [76.37885290122321, 31.318488233442153], [76.377592064972, 31.31850177001828], [76.37760782602564, 31.31958418927972], [76.37634697451038, 31.319597714052108], [76.37631548208053, 31.317432874194743], [76.37505465854372, 31.31744638544692], [76.37492883806398, 31.30878701385139], [76.37745025373012, 31.308759988123466], [76.37749751649675, 31.312007250463346], [76.37875826627958, 31.31199371732409], [76.37871096028927, 31.308746456702465], [76.3799716659981, 31.30873291291015], [76.38003479998567, 31.313062591066224], [76.38129556247621, 31.313049032607385], [76.38120078015703, 31.306554517677124], [76.37994010411106, 31.306568072693196], [76.37989276766302, 31.303320810944207], [76.38115340049718, 31.30330725764934], [76.38113760898064, 31.30222483726045], [76.3823982265608, 31.30221127217117], [76.38242983925102, 31.304376111610658], [76.38116919286541, 31.304389677848416], [76.38118498608534, 31.305472097857674], [76.38370630681183, 31.30544495186398], [76.38365884328853, 31.302197694713804], [76.3849194591631, 31.30218410488838], [76.3849669658955, 31.30543136031267], [76.38370630681183, 31.30544495186398], [76.38372212969283, 31.306527370534365], [76.38246145535122, 31.306540950290835], [76.38252469778274, 31.310870625373134], [76.38378542975065, 31.310857043317352], [76.38373795342716, 31.307609789014897], [76.38499864132079, 31.307596196312936], [76.38510953221753, 31.315173116332854], [76.38637032011603, 31.31515950722889], [76.38643376279047, 31.319489169330232], [76.38769460748442, 31.31947554554598], [76.38772636278377, 31.321640374304057], [76.38646548925983, 31.321653999241384], [76.38643376279047, 31.319489169330232], [76.38517291724116, 31.319502780738105], [76.38518876563347, 31.320585196364657], [76.38392790481485, 31.320598795971602], [76.38391207083721, 31.319516379769563], [76.38517291724116, 31.319502780738105], [76.38514122302028, 31.31733794891528], [76.3838804054434, 31.31735154679581], [76.38389623771342, 31.318433963377625], [76.3826354048696, 31.318447549457712], [76.38268286355837, 31.3216947997887], [76.38394373964637, 31.321681211983734], [76.38400708751192, 31.32601087413319], [76.38274615375413, 31.326024464238184], [76.38276197843622, 31.327106879875796], [76.3815010294057, 31.3271204581757], [76.38154846530917, 31.330367705672668], [76.38028747216302, 31.33038127331447], [76.38035067427705, 31.334710936281258], [76.37908962258385, 31.334724493835445], [76.37907383520229, 31.33364207780504], [76.37781279708281, 31.333655622402315], [76.37782857003936, 31.33473803900575], [76.37530646239964, 31.334765092194584], [76.37532220735504, 31.335847509752647], [76.37406113783547, 31.3358610183426]], [[76.37779702497672, 31.332573205609012], [76.379058048672, 31.33255966158475], [76.37902647816497, 31.330394828574498], [76.37776548331578, 31.330408371452734], [76.37779702497672, 31.332573205609012]], [[76.37398249366927, 31.330448925796418], [76.37524349106717, 31.330435420063726], [76.37519627148029, 31.3271881639722], [76.37393531734608, 31.32720166799068], [76.37398249366927, 31.330448925796418]], [[76.38016110882376, 31.32172193826605], [76.38142198661726, 31.321708375216144], [76.38139037546864, 31.319543540703147], [76.38012952650556, 31.319557102605213], [76.38016110882376, 31.32172193826605]], [[76.37885290122321, 31.318488233442153], [76.38011373662373, 31.31847468449], [76.38009794759336, 31.31739226618493], [76.37883712660613, 31.317405814563728], [76.37885290122321, 31.318488233442153]], [[76.38009794759336, 31.31739226618493], [76.38135876772915, 31.317378705430666], [76.38132716339845, 31.315213869398725], [76.37880557992386, 31.315240976237348], [76.3788213528397, 31.316323395495456], [76.3800821594144, 31.316309847690018], [76.38009794759336, 31.31739226618493]], [[76.38258795385796, 31.315200297417796], [76.38384874346457, 31.315186713062495], [76.38381708490043, 31.313021878569682], [76.38129556247621, 31.313049032607385], [76.38131136251128, 31.31413145109797], [76.38257213855992, 31.314117879691427], [76.38258795385796, 31.315200297417796]]]}, "properties": {"hazard_class": 1, "hazard_name": "Low", "area_ha": 208.8}}, {"type": "Feature", "geometry": {"type": "Polygon", "coordinates": [[[76.39629689305771, 31.304226066638662], [76.39628092785473, 31.303143653365087], [76.3975415495566, 31.30312993928013], [76.39750959293065, 31.300965113324104], [76.4000307761427, 31.300937650374607], [76.40007879878505, 31.30418488553589], [76.39881816440491, 31.304198624938923], [76.39880217039672, 31.303116212826918], [76.3975415495566, 31.30312993928013], [76.39755752916221, 31.304212351973177], [76.39629689305771, 31.304226066638662]]]}, "properties": {"hazard_class": 2, "hazard_name": "Moderate", "area_ha": 8.64}}, {"type": "Feature", "geometry": {"type": "Polygon", "coordinates": [[[76.37483450832093, 31.30229247718443], [76.37480307185567, 31.300127630110808], [76.37606366488346, 31.300114128005614], [76.37604793352213, 31.299031704755762], [76.37730851130131, 31.29901819085549], [76.37734000367351, 31.30118303602122], [76.37607939709324, 31.301196551065704], [76.37609513015148, 31.30227897393606], [76.37483450832093, 31.30229247718443]]]}, "properties": {"hazard_class": 3, "hazard_name": "Significant", "area_ha": 5.76}}, {"type": "Feature", "geometry": {"type": "Polygon", "coordinates": [[[76.38241403247969, 31.303293691985832], [76.38231920975164, 31.29679917025068], [76.38357975447953, 31.296785595666904], [76.38367466360972, 31.303280113953708], [76.38241403247969, 31.303293691985832]]]}, "properties": {"hazard_class": 3, "hazard_name": "Significant", "area_ha": 8.64}}, {"type": "Feature", "geometry": {"type": "Polygon", "coordinates": [[[76.39115890735235, 31.29778630522079], [76.391143004907, 31.296703888490924], [76.38862192485344, 31.29673117367765], [76.38860605206058, 31.29564875560276], [76.39238762766263, 31.29560781100822], [76.39241946049118, 31.297772643501165], [76.39115890735235, 31.29778630522079]]]}, "properties": {"hazard_class": 2, "hazard_name": "Moderate", "area_ha": 5.76}}, {"type": "Feature", "geometry": {"type": "Polygon", "coordinates": [[[76.38231920975164, 31.29679917025068], [76.38230340894658, 31.295716749297164], [76.38104287776419, 31.295730310941302], [76.38099552365027, 31.29248304521961], [76.38225601164429, 31.29246948529786], [76.3822876089937, 31.294634328153855], [76.38354812492707, 31.294620754719425], [76.38357975447953, 31.296785595666904], [76.38231920975164, 31.29679917025068]]]}, "properties": {"hazard_class": 2, "hazard_name": "Moderate", "area_ha": 7.2}}, {"type": "Feature", "geometry": {"type": "Polygon", "coordinates": [[[76.38105866417156, 31.29681273246898], [76.38104287776419, 31.295730310941302], [76.378521812846, 31.295757397134633], [76.37850605608396, 31.29467497427045], [76.37976657457138, 31.2946614379294], [76.37973503480501, 31.29249659277795], [76.38099552365027, 31.29248304521961], [76.38097974064823, 31.291400622932844], [76.38350068699506, 31.291373491874687], [76.38354812492707, 31.294620754719425], [76.38480864000753, 31.2946071689206], [76.38482446875412, 31.29568958891405], [76.38356393927683, 31.295703175288065], [76.38354812492707, 31.294620754719425], [76.3822876089937, 31.294634328153855], [76.38225601164429, 31.29246948529786], [76.38099552365027, 31.29248304521961], [76.38104287776419, 31.295730310941302], [76.38230340894658, 31.295716749297164], [76.38231920975164, 31.29679917025068], [76.38105866417156, 31.29681273246898]]]}, "properties": {"hazard_class": 1, "hazard_name": "Low", "area_ha": 14.4}}, {"type": "Feature", "geometry": {"type": "Polygon", "coordinates": [[[76.3948767867938, 31.293415621852134], [76.39486084459378, 31.2923332060992], [76.39360036515515, 31.292346889653455], [76.39358443820912, 31.291264473131278], [76.39106350554401, 31.291291801993285], [76.39104760824388, 31.290209384124125], [76.39356851212207, 31.290182056419205], [76.39358443820912, 31.291264473131278], [76.39484490325357, 31.291250790156365], [76.39486084459378, 31.2923332060992], [76.39612132317261, 31.29231951018187], [76.39613727976753, 31.29340192535493], [76.3948767867938, 31.293415621852134]]]}, "properties": {"hazard_class": 2, "hazard_name": "Moderate", "area_ha": 5.76}}, {"type": "Feature", "geometry": {"type": "Polygon", "coordinates": [[[76.38986657811834, 31.295635119769344], [76.38985069178486, 31.29455270208189], [76.39237171253593, 31.2945253944769], [76.39232397230568, 31.291278143743583], [76.39358443820912, 31.291264473131278], [76.39356851212207, 31.290182056419205], [76.39482896277313, 31.290168374023615], [76.39479708439136, 31.288003541188413], [76.39731792554483, 31.28797614163151], [76.39733389308944, 31.289058556983896], [76.39607345855116, 31.28907226352318], [76.39608941256445, 31.290154679265992], [76.39734986149529, 31.290140972146368], [76.39736583076241, 31.291223387118894], [76.39358443820912, 31.291264473131278], [76.39360036515515, 31.292346889653455], [76.39486084459378, 31.2923332060992], [76.3948767867938, 31.293415621852134], [76.3936162929602, 31.29342930598573], [76.3936481511476, 31.29559413808057], [76.38986657811834, 31.295635119769344]]]}, "properties": {"hazard_class": 3, "hazard_name": "Significant", "area_ha": 18.72}}, {"type": "Feature", "geometry": {"type": "Polygon", "coordinates": [[[76.39738180089086, 31.292305801901477], [76.39734986149529, 31.290140972146368], [76.39608941256445, 31.290154679265992], [76.39607345855116, 31.28907226352318], [76.39733389308944, 31.289058556983896], [76.39731792554483, 31.28797614163151], [76.39605750539829, 31.287989847590445], [76.39604155310586, 31.286907431467803], [76.3973019588614, 31.286893726089207], [76.39731792554483, 31.28797614163151], [76.39983876325351, 31.287948692630867], [76.39987075677236, 31.290113520821173], [76.40113120311703, 31.29009977661567], [76.40114721556387, 31.29118218984394], [76.399886754826, 31.291195934631386], [76.39990275374251, 31.292278348251635], [76.39738180089086, 31.292305801901477]], [[76.39862629322525, 31.291209667056375], [76.399886754826, 31.291195934631386], [76.39987075677236, 31.290113520821173], [76.39861030956484, 31.290127252664746], [76.39862629322525, 31.291209667056375]]]}, "properties": {"hazard_class": 1, "hazard_name": "Low", "area_ha": 14.4}}, {"type": "Feature", "geometry": {"type": "Polygon", "coordinates": [[[76.39758949095888, 31.30637717678933], [76.39757350962962, 31.30529476447625], [76.39883415927571, 31.305281036860922], [76.39881816440491, 31.304198624938923], [76.40007879878505, 31.30418488553589], [76.4000307761427, 31.300937650374607], [76.39750959293065, 31.300965113324104], [76.39749361591021, 31.299882700061133], [76.40001477032177, 31.29985523827419], [76.39998276126948, 31.297690413503354], [76.39872221329303, 31.297704149417132], [76.39870622445946, 31.29662173616525], [76.3974456900186, 31.29663545913243], [76.39742971644448, 31.295553045109614], [76.39995075566964, 31.2955255879726], [76.39991875352192, 31.293360761681928], [76.39865826313238, 31.293374495269795], [76.39864227774774, 31.292292081258054], [76.40116322887434, 31.292264602882245], [76.40109918081413, 31.28793494958922], [76.40362001334401, 31.28790742642341], [76.40360397470626, 31.286825013790615], [76.40486437528322, 31.286811234249974], [76.40484832312053, 31.285728822010658], [76.40610870844178, 31.28571503069378], [76.40614084241362, 31.287879853814445], [76.40488042831174, 31.2878936462993], [76.40491253696635, 31.290058469827958], [76.4036520932148, 31.29007225111904], [76.40366813444791, 31.291154663181853], [76.4024076754381, 31.291168432694096], [76.4024237031425, 31.292250845149912], [76.40116322887434, 31.292264602882245], [76.40130738753938, 31.302006311677477], [76.40256799138784, 31.301992548702266], [76.40258402773871, 31.303074959258], [76.40132340948855, 31.303088722815822], [76.4013394323018, 31.304171133764147], [76.40007879878505, 31.30418488553589], [76.40011081819665, 31.306349708026715], [76.39758949095888, 31.30637717678933]]]}, "properties": {"hazard_class": 3, "hazard_name": "Significant", "area_ha": 47.52}}, {"type": "Feature", "geometry": {"type": "Polygon", "coordinates": [[[76.3723603367532, 31.30556671918881], [76.37234464436165, 31.304484295174387], [76.37360529669294, 31.304470815521416], [76.37358959074429, 31.303388391887854], [76.37232895281639, 31.303401870970237], [76.37229757226454, 31.301237021992783], [76.37355818138795, 31.301223544051517], [76.37352677541936, 31.299058695456285], [76.37478735489456, 31.299045206289367], [76.3747716387811, 31.29796278227822], [76.37603220300923, 31.297949281316168], [76.37600074452845, 31.295784433867787], [76.37726127911175, 31.29577092168374], [76.37722979523078, 31.29360607462051], [76.37849030017172, 31.293592551216538], [76.37845879089647, 31.291427704539444], [76.37971926619758, 31.291414169917598], [76.3797034984406, 31.290331746867487], [76.38096395849742, 31.290318200456294], [76.3809481771978, 31.289235777789983], [76.38220862201038, 31.289222219590517], [76.38217703318078, 31.287057374836753], [76.38343744835781, 31.287043805424627], [76.38340583415504, 31.284878961060926], [76.38466621969897, 31.284865380438234], [76.38469786268219, 31.287030223651776], [76.38343744835781, 31.287043805424627], [76.38348487605668, 31.290291070546857], [76.38222441770303, 31.29030464168274], [76.38224021424766, 31.291387063585198], [76.38097974064823, 31.291400622932844], [76.38099552365027, 31.29248304521961], [76.37973503480501, 31.29249659277795], [76.37976657457138, 31.2946614379294], [76.37850605608396, 31.29467497427045], [76.37853757045788, 31.296839819809044], [76.37727702232583, 31.29685334493074], [76.37730851130131, 31.29901819085549], [76.37604793352213, 31.299031704755762], [76.37606366488346, 31.300114128005614], [76.37480307185567, 31.300127630110808], [76.37488166937705, 31.30553974637181], [76.3723603367532, 31.30556671918881]]]}, "properties": {"hazard_class": 4, "hazard_name": "Extreme", "area_ha": 41.76}}, {"type": "Feature", "geometry": {"type": "Polygon", "coordinates": [[[76.39479708439136, 31.288003541188413], [76.39476520944817, 31.28583870759363], [76.39602560167381, 31.28582501515526], [76.3960096511021, 31.284742598652816], [76.39853040419278, 31.284715177857503], [76.39854638354333, 31.28579759319881], [76.39728599303913, 31.285811310356987], [76.3973019588614, 31.286893726089207], [76.39604155310586, 31.286907431467803], [76.39605750539829, 31.287989847590445], [76.39479708439136, 31.288003541188413]]]}, "properties": {"hazard_class": 2, "hazard_name": "Moderate", "area_ha": 7.2}}, {"type": "Feature", "geometry": {"type": "Polygon", "coordinates": [[[76.39018448477478, 31.317283433639847], [76.39016858129713, 31.31620101975061], [76.38890778155522, 31.316214666554878], [76.3888918933466, 31.31513225189815], [76.38763110715931, 31.31514588575065], [76.38761523421812, 31.314063470327007], [76.38635446158557, 31.314077091228786], [76.38627518176023, 31.308665008379784], [76.38753588235082, 31.308651390360158], [76.38752001454479, 31.307568973797093], [76.38625932836025, 31.30758259124033], [76.38619592330937, 31.303252920783724], [76.38745655187742, 31.303239305645924], [76.38740896386034, 31.299992052538865], [76.38866954836874, 31.29997842676309], [76.3886377985024, 31.297813591562658], [76.38737724279285, 31.29782721618482], [76.38732966760665, 31.29457996022986], [76.38985069178486, 31.29455270208189], [76.38983480630816, 31.29347028420457], [76.38857430904294, 31.293483918883418], [76.38854256944916, 31.291319081404673], [76.38602162993078, 31.291346311365228], [76.38600579020499, 31.290263891188193], [76.38978715501831, 31.29022302943341], [76.38977127296833, 31.28914061079665], [76.39103171180115, 31.2891269660651], [76.39101581621578, 31.288044547816227], [76.38975539177493, 31.288058191970038], [76.38973951143807, 31.286975772953586], [76.39352073901445, 31.286934805143655], [76.39350481636295, 31.285852387672033], [76.39224442241894, 31.285866055390468], [76.3922126084706, 31.283701218720154], [76.39347297363626, 31.283687552159183], [76.39348889457024, 31.284769970010544], [76.39474927326593, 31.28475629051139], [76.39482896277313, 31.290168374023615], [76.39104760824388, 31.290209384124125], [76.39106350554401, 31.291291801993285], [76.39232397230568, 31.291278143743583], [76.39237171253593, 31.2945253944769], [76.38985069178486, 31.29455270208189], [76.38986657811834, 31.295635119769344], [76.38860605206058, 31.29564875560276], [76.38862192485344, 31.29673117367765], [76.391143004907, 31.296703888490924], [76.39115890735235, 31.29778630522079], [76.39241946049118, 31.297772643501165], [76.39238762766263, 31.29560781100822], [76.3936481511476, 31.29559413808057], [76.3936162929602, 31.29342930598573], [76.3948767867938, 31.293415621852134], [76.39490867377341, 31.295580452788226], [76.39742971644448, 31.295553045109614], [76.3974456900186, 31.29663545913243], [76.39870622445946, 31.29662173616525], [76.3987541935472, 31.29986897535099], [76.39623303741158, 31.29989641240457], [76.39624900003172, 31.300978826248038], [76.39750959293065, 31.300965113324104], [76.3975415495566, 31.30312993928013], [76.39880217039672, 31.303116212826918], [76.39883415927571, 31.305281036860922], [76.39505220775273, 31.30532218259894], [76.39500435535179, 31.302074941038207], [76.39248313645011, 31.302102306208127], [76.39246721617255, 31.30101989081626], [76.3886854245862, 31.30106084407849], [76.38879658208566, 31.308637759969418], [76.38753588235082, 31.308651390360158], [76.3875517510126, 31.309733806733345], [76.38881246515425, 31.30972017576567], [76.38884423386118, 31.311885006788426], [76.38758349090361, 31.311898638909994], [76.38761523421812, 31.314063470327007], [76.38887600599472, 31.314049837051503], [76.3888601194996, 31.312967422014932], [76.3901208760096, 31.31295377694322], [76.39015267867708, 31.315118605671426], [76.39141346315004, 31.315104947070505], [76.39144529807128, 31.31726977388281], [76.39018448477478, 31.317283433639847]], [[76.39629689305771, 31.304226066638662], [76.39755752916221, 31.304212351973177], [76.3975415495566, 31.30312993928013], [76.39628092785473, 31.303143653365087], [76.39629689305771, 31.304226066638662]], [[76.39371187783247, 31.29992379999128], [76.39623303741158, 31.29989641240457], [76.3962170756523, 31.29881399837116], [76.39369594487239, 31.298841384798475], [76.39371187783247, 31.29992379999128]], [[76.39229214977664, 31.289113308971956], [76.39355258689397, 31.28909963951724], [76.39353666252478, 31.28801722242539], [76.39227623979933, 31.288030891301332], [76.39229214977664, 31.289113308971956]]]}, "properties": {"hazard_class": 1, "hazard_name": "Low", "area_ha": 142.56}}, {"type": "Feature", "geometry": {"type": "Polygon", "coordinates": [[[76.37845879089647, 31.291427704539444], [76.37842728501995, 31.289262857103378], [76.37968773153406, 31.289249323627622], [76.37967196547785, 31.288166900198014], [76.37841153335609, 31.288180433100752], [76.37839578254179, 31.287098008908398], [76.37965620027201, 31.287084476578663], [76.37967196547785, 31.288166900198014], [76.3809323967493, 31.28815335493392], [76.38088506051035, 31.284906085227217], [76.38214544775857, 31.284892529323933], [76.38212965632513, 31.283810106282885], [76.3833900283325, 31.283796538594423], [76.38337422336244, 31.282714115938145], [76.38463458012902, 31.282700536465565], [76.38465039948736, 31.28378295854679], [76.38591076978894, 31.28376936614002], [76.38594243984433, 31.285934208581946], [76.3846820407639, 31.285947802139898], [76.38466621969897, 31.284865380438234], [76.38340583415504, 31.284878961060926], [76.38343744835781, 31.287043805424627], [76.38469786268219, 31.287030223651776], [76.38471368545387, 31.28811264497386], [76.38345325673808, 31.288126227321815], [76.38343744835781, 31.287043805424627], [76.38217703318078, 31.287057374836753], [76.38220862201038, 31.289222219590517], [76.3809481771978, 31.289235777789983], [76.38096395849742, 31.290318200456294], [76.3797034984406, 31.290331746867487], [76.37971926619758, 31.291414169917598], [76.37845879089647, 31.291427704539444]]]}, "properties": {"hazard_class": 3, "hazard_name": "Significant", "area_ha": 24.48}}, {"type": "Feature", "geometry": {"type": "Polygon", "coordinates": [[[76.40358793693352, 31.28574260096784], [76.40355586398299, 31.28357777475234], [76.40481622139238, 31.28356399696205], [76.40480017182685, 31.282481584152762], [76.40732085527264, 31.282453992664614], [76.40735301282126, 31.28461881575636], [76.40861338201957, 31.28460500030516], [76.40859728842335, 31.283522589439293], [76.41111799543856, 31.2834949226312], [76.41113411781126, 31.284577332325487], [76.40987375034983, 31.284591172494864], [76.40988985920313, 31.285673582585154], [76.40736909289647, 31.28570122701721], [76.40735301282126, 31.28461881575636], [76.40609264275567, 31.284632618848434], [76.40610870844178, 31.28571503069378], [76.40358793693352, 31.28574260096784]]]}, "properties": {"hazard_class": 1, "hazard_name": "Low", "area_ha": 15.84}}, {"type": "Feature", "geometry": {"type": "Polygon", "coordinates": [[[76.39854638354333, 31.28579759319881], [76.39853040419278, 31.284715177857503], [76.39727002807797, 31.28472889443484], [76.39722213836079, 31.281481645528963], [76.39848247131205, 31.28146793069404], [76.39851442570408, 31.283632762326274], [76.39977478656846, 31.283619033970936], [76.39980677318566, 31.28578386368078], [76.39854638354333, 31.28579759319881]]]}, "properties": {"hazard_class": 1, "hazard_name": "Low", "area_ha": 7.2}}, {"type": "Feature", "geometry": {"type": "Polygon", "coordinates": [[[76.38209807601338, 31.28164525963153], [76.38206649910819, 31.279480412221222], [76.38458712717322, 31.279453269083273], [76.3846187616239, 31.281618114194565], [76.38209807601338, 31.28164525963153]]]}, "properties": {"hazard_class": 3, "hazard_name": "Significant", "area_ha": 5.76}}, {"type": "Feature", "geometry": {"type": "Polygon", "coordinates": [[[76.38589493604233, 31.28268694463437], [76.38583160959564, 31.278357256713953], [76.38709190710988, 31.278343654828426], [76.38715529110166, 31.282673340444585], [76.38589493604233, 31.28268694463437]]]}, "properties": {"hazard_class": 3, "hazard_name": "Significant", "area_ha": 5.76}}, {"type": "Feature", "geometry": {"type": "Polygon", "coordinates": [[[76.38465039948736, 31.28378295854679], [76.38455549613498, 31.27728842321293], [76.38581578011869, 31.277274834259416], [76.38579995149554, 31.2761924116151], [76.38706022024186, 31.276178810881625], [76.38704437808971, 31.275096388623567], [76.38830463159876, 31.2750827761112], [76.38828877591912, 31.274000354239877], [76.3908092516068, 31.273973093305184], [76.39082513605025, 31.275055514021904], [76.38956488425254, 31.27506915124396], [76.38958075517014, 31.27615157234844], [76.38832048813366, 31.276165197792732], [76.38833634552388, 31.277247619284484], [76.38707606324859, 31.27726123294991], [76.38709190710988, 31.278343654828426], [76.38583160959564, 31.278357256713953], [76.38591076978894, 31.28376936614002], [76.38465039948736, 31.28378295854679]]]}, "properties": {"hazard_class": 4, "hazard_name": "Extreme", "area_ha": 18.72}}]}