{"type": "FeatureCollection", "features": [{"type": "Feature", "geometry": {"type": "Polygon", "coordinates": [[[79.01751018640749, 16.249861318791716], [79.01754279559417, 16.24660880508356], [79.01866509142647, 16.2466193014086], [79.01867595336287, 16.245535129198927], [79.02092053521461, 16.245556102569566], [79.020931384042, 16.24447192876734], [79.02205367006091, 16.244482405814153], [79.022064511923, 16.24339823115742], [79.01084175026136, 16.243293201043794], [79.01085265271375, 16.24220903365548], [79.00748585875557, 16.242177411141284], [79.00749677880253, 16.2410932458591], [79.00637452194779, 16.24108269389712], [79.00638544730603, 16.23999852923925], [79.00526319742087, 16.23998797208725], [79.00528505792819, 16.237819643903112], [79.00416282115182, 16.237809082304903], [79.00419562410414, 16.234556591373845], [79.00307340657291, 16.234546026074437], [79.00308434536724, 16.23346186293846], [79.00196213480402, 16.2334512924528], [79.00198402217399, 16.231282967314915], [79.0008618247151, 16.231272392388018], [79.00087277328936, 16.230188230386513], [78.9997505827979, 16.230177650275454], [78.99977248972226, 16.22800932740817], [78.99865031233311, 16.22799874285879], [78.99866127068184, 16.22691458199341], [78.99753910025957, 16.22690399226197], [78.99755006390987, 16.22581983202417], [78.9964279004544, 16.225809237111534], [78.99644983752303, 16.223640917774087], [78.99532768716738, 16.223630318427283], [78.99533866058434, 16.222546159328054], [78.99421651719491, 16.22253555480215], [78.99422749591021, 16.22145139633171], [78.993105359487, 16.22144078662755], [78.99311634349972, 16.220356628786334], [78.99199421404266, 16.220346013904756], [78.99200520335187, 16.219261856693148], [78.99088308086093, 16.21925123663501], [78.99090506923498, 16.217082923354056], [78.98978295984021, 16.217072298868427], [78.98979395890368, 16.215988142799482], [78.98754975488163, 16.215966877556625], [78.98757177501648, 16.21379856806073], [78.98644968651823, 16.213787928054245], [78.98646070145864, 16.21270377387906], [78.98309445937372, 16.212671820579743], [78.98310549185989, 16.211587668537604], [78.9797392757055, 16.211555664200958], [78.9797282248365, 16.212639813988496], [78.97523992388282, 16.212597055635857], [78.97522884766181, 16.213681202293532], [78.97298468997862, 16.2136597860815], [78.9729957784555, 16.212575640932332], [78.9662633624162, 16.21251125471487], [78.96627448681453, 16.21142711398329], [78.96178625087025, 16.211384074449484], [78.96179739893019, 16.210299936631934], [78.95843124924886, 16.210267597094294], [78.95844241484016, 16.209183461437114], [78.95507629117694, 16.209151070901065], [78.95508747429662, 16.208066937407963], [78.95284340835609, 16.2080453156428], [78.95285460287602, 16.206961183555148], [78.9506105525903, 16.206939539638622], [78.95062175850855, 16.20585540895805], [78.94837772388026, 16.20583374289364], [78.94838894119488, 16.2047496136218], [78.94614492222665, 16.20472792541297], [78.9461561509357, 16.20364379755152], [78.9394241512798, 16.203578595494925], [78.93941288582916, 16.204662718761185], [78.93829088275842, 16.204651830274077], [78.9383134250497, 16.202483585158113], [78.93494745772145, 16.202450888800154], [78.93495874594913, 16.201366768369482], [78.93159280471444, 16.201334021069297], [78.93160411044971, 16.200249902828684], [78.92936016616889, 16.200228043254878], [78.92937148328735, 16.199143926436985], [78.92600559168716, 16.19911109502239], [78.92601692630781, 16.198026980400737], [78.9248949702856, 16.198016025537537], [78.92490631016464, 16.19693191157003], [78.92266241294925, 16.196909985644865], [78.92267376420567, 16.195825873105008], [78.92155182301286, 16.19581490204434], [78.92156317952531, 16.19473079015985], [78.91931931197077, 16.194708831844896], [78.91933067985728, 16.193624721390524], [78.91708682799985, 16.19360274097146], [78.91709820725848, 16.192518631948843], [78.91261053840962, 16.192474603259097], [78.91262194127425, 16.191390497223104], [78.91037812428908, 16.191368448957732], [78.91038953852095, 16.190284344358435], [78.9092676374482, 16.190273312135663], [78.90927905692853, 16.189189208196208], [78.9047914857987, 16.189145023305166], [78.90483725288209, 16.184808618830697], [78.90371538673786, 16.18479756095048], [78.90374972125032, 16.181545258693717], [78.90262787431912, 16.181534197245554], [78.90269655649718, 16.175029594223865], [78.9038183667571, 16.17504065098919], [78.90385267775264, 16.171788345541817], [78.90497447055407, 16.171799394061363], [78.90499732797944, 16.16963118827913], [78.90611910943393, 16.169642229335025], [78.90613053073311, 16.16855812548718], [78.9072523069495, 16.168569159860244], [78.90726372127129, 16.16748505511517], [78.90838549224954, 16.167496082806224], [78.90840830607128, 16.16532787140441], [78.90953006570469, 16.16533889163599], [78.90955286383907, 16.163170678205404], [78.91067461212896, 16.16318169097918], [78.91069739457981, 16.161013475520786], [78.91181913152748, 16.16102448083843], [78.91188742143315, 16.154519826966915], [78.91300912262888, 16.154530821722215], [78.9130204951427, 16.153446711553784], [78.91189880004858, 16.153435717575437], [78.91191017779677, 16.15235160806602], [78.91303186678978, 16.15236260126742], [78.9130659765306, 16.149110269700753], [78.9141876480897, 16.14912125467548], [78.91423309121636, 16.14478480782994], [78.91198979775353, 16.144762838198154], [78.91200116856469, 16.143678727745407], [78.9131228087654, 16.143689714731526], [78.91313417261256, 16.142605603384027], [78.91537744341925, 16.142627558122356], [78.91536609176603, 16.14371167102235], [78.91648773456507, 16.14372264032701], [78.91649908012126, 16.142638526651393], [78.91762071768841, 16.142649489286992], [78.91763205628288, 16.14156537471833], [78.91875368861814, 16.141576330685677], [78.91876502025181, 16.140492215224413], [78.91988664735511, 16.140503164524343], [78.91989797202893, 16.139419048170918], [78.92101959390024, 16.139429990804242], [78.92103091161513, 16.13834587355909], [78.92215252825441, 16.138356809526638], [78.92217514890547, 16.13618857313601], [78.9232967542183, 16.13619950166552], [78.92334196079548, 16.13186302437899], [78.92222037985545, 16.131852098941703], [78.9222655970037, 16.127515622863715], [78.92114404129153, 16.127504694630804], [78.92117796336525, 16.124252338656653], [78.92005642678504, 16.12424140685753], [78.92010166848812, 16.11990493367292], [78.91898015712336, 16.11989399908424], [78.91907064777466, 16.11122105326078], [78.92019211045756, 16.111231981656125], [78.9202599056831, 16.10472726270371], [78.91913847949206, 16.104716338953033], [78.9191610831567, 16.102548099909782], [78.91803966998931, 16.102537171829187], [78.91805097660591, 16.101453052905697], [78.91692957038178, 16.101442119721952], [78.91694088221345, 16.100358001455792], [78.91133389446104, 16.100303251253976], [78.91134523582036, 16.09921913675091], [78.9068596855278, 16.09917523391366], [78.90687105033183, 16.09809112240499], [78.9057496710064, 16.098080132783174], [78.9057610410193, 16.096996021935922], [78.90463966864007, 16.096985027217393], [78.90465104386091, 16.095900917031955], [78.90352967842782, 16.09588991721756], [78.9035524384138, 16.093721698053518], [78.90243108600262, 16.093710693924358], [78.90244247076639, 16.092626584946153], [78.90132112530075, 16.092615575723222], [78.90133251526925, 16.091531467408057], [78.90021117674912, 16.0915204530922], [78.9002225719214, 16.090436345440487], [78.8979799096436, 16.090414300751505], [78.89799131609266, 16.089330194545525], [78.89686999233538, 16.08931916417368], [78.89688140398589, 16.088235058632367], [78.89576008717442, 16.088224023170568], [78.89577150402545, 16.087139918294344], [78.89689281476399, 16.087150952973438], [78.89690422466971, 16.08606684719689], [78.90026814390025, 16.086099913657506], [78.90024535965286, 16.088268129784204], [78.90136667995114, 16.08827914175689], [78.90135529259442, 16.089363250424885], [78.90247661983676, 16.089374257305874], [78.90246523768344, 16.090458366636902], [78.90358657186988, 16.09046936842535], [78.90357519492088, 16.091553478419005], [78.90469653605145, 16.09156447511406], [78.90468516430771, 16.09264858576994], [78.91029191336463, 16.09270348503307], [78.91031459523516, 16.090535255818015], [78.91143593549948, 16.090546216493607], [78.91141326577863, 16.092714447263297], [78.91253461905909, 16.092725403619347], [78.91251195802398, 16.09489363547268], [78.91475469148571, 16.09491553366734], [78.91474337182215, 16.095999650970285], [78.91698612089745, 16.096021527215605], [78.91697481252281, 16.097105645951967], [78.91809619443406, 16.097116576036203], [78.91808489127271, 16.09820069542989], [78.91920628012527, 16.098211620412606], [78.91919498217815, 16.099295740463212], [78.92031637797206, 16.09930666034357], [78.9203050852401, 16.100390781050688], [78.9214264879754, 16.100401695827838], [78.92141520045953, 16.101485817191058], [78.923658020675, 16.101507630659526], [78.92363546737472, 16.103675876125475], [78.92475689093447, 16.103686775587924], [78.92470052301277, 16.10910739105795], [78.92357906904617, 16.10909648773334], [78.92356778679552, 16.110180609702226], [78.92468924684488, 16.110191513799293], [78.92467796981573, 16.111275636423066], [78.9257994368096, 16.111286535411093], [78.92578816500291, 16.11237065868935], [78.93139554329373, 16.112425069260265], [78.93138430104747, 16.113509196275015], [78.92914133498384, 16.11348744815225], [78.92913007970957, 16.11457157350906], [78.92464413356068, 16.1145280035889], [78.92463285308637, 16.11561212574232], [78.92351136261621, 16.115601217782856], [78.92346620776028, 16.119937702130343], [78.92458772257544, 16.119948613179886], [78.92455386564723, 16.123200977522906], [78.9256753995875, 16.123211885003993], [78.92561898459228, 16.12863249374994], [78.92674054984246, 16.128643399203643], [78.92662771619585, 16.13948461558634], [78.92550609001307, 16.13947370241459], [78.92548350076153, 16.141641942734672], [78.92436186324805, 16.141631022126024], [78.92435056123347, 16.14271514133713], [78.92322891848517, 16.14270421406262], [78.9232176095115, 16.14378833238323], [78.92209596152843, 16.143777398442026], [78.92208464559477, 16.144861515871707], [78.92096299237696, 16.144850575262993], [78.92095166948236, 16.145934691801298], [78.91983001102986, 16.14592374452426], [78.91981868117342, 16.14700786017075], [78.91869701748627, 16.146996906224558], [78.91868568066705, 16.14808102097879], [78.9175640117453, 16.148070060362624], [78.91754132331461, 16.150238287967838], [78.91641964305846, 16.15022731990562], [78.91638558562384, 16.153479658103453], [78.91526388793082, 16.153468681817817], [78.91521844149325, 16.15780512799455], [78.91409672025671, 16.157794142706788], [78.91405123554756, 16.162130583891614], [78.91292949076072, 16.16211958959828], [78.91289534981351, 16.16537191691821], [78.91177358757628, 16.165360914392906], [78.9117508103959, 16.16752913046201], [78.91062903681231, 16.167518120479667], [78.91061764081324, 16.16860222755968], [78.90949586199004, 16.16859121089652], [78.90947305517128, 16.17075942314656], [78.90835126500001, 16.170748399023427], [78.90831702992965, 16.174000714177836], [78.90719522229912, 16.17398968181429], [78.9071838027606, 16.17507378585077], [78.90606198988928, 16.175062746802663], [78.90603913598156, 16.17723095296284], [78.90491731175825, 16.17721990644973], [78.90488300603484, 16.180472212464938], [78.9060048485946, 16.18048326131698], [78.90598198598613, 16.182651466295574], [78.9071038416427, 16.182662510798266], [78.90709241514726, 16.18374661388955], [78.90821427778758, 16.18375765326239], [78.90820285653696, 16.184841757014336], [78.90932472616106, 16.18485279125648], [78.9093133101562, 16.185936895668686], [78.91043518676415, 16.185947924779274], [78.91042377600596, 16.18703202985134], [78.91154565959779, 16.187043053829534], [78.91153425408719, 16.18812715956104], [78.91377803610621, 16.188149191340067], [78.91376664196063, 16.189233298507418], [78.91713233984021, 16.189266304172005], [78.91712096317862, 16.1903504135491], [78.9193647783281, 16.190372389318473], [78.91935341303592, 16.191456500127302], [78.92159724387943, 16.19147845379752], [78.92158588995858, 16.192562566036436], [78.92270781279439, 16.192573534776596], [78.92269646412822, 16.19365764767087], [78.92381839394594, 16.193668611271374], [78.9238070505354, 16.1947527248206], [78.92605092499733, 16.19477463582699], [78.92603959296287, 16.195858750803037], [78.92828348311203, 16.19588063969818], [78.9282721624556, 16.196964756099387], [78.93051606828936, 16.1969866228798], [78.93050475901288, 16.19807074070453], [78.93274868052865, 16.19809258536673], [78.93273738263402, 16.19917670461335], [78.93722526045791, 16.199220326032517], [78.93721398619029, 16.200304448236047], [78.94170190222022, 16.20034797807552], [78.94169065158367, 16.201432103229344], [78.9473005964802, 16.201486386244635], [78.9472893756015, 16.202570515106526], [78.95065537115129, 16.20260301620833], [78.95064416778901, 16.203687147242903], [78.9528881813293, 16.203708786584205], [78.9528769893626, 16.20479291902584], [78.95399900353331, 16.204803730582224], [78.95398781683984, 16.205887863667794], [78.95623185998119, 16.205909470549457], [78.95622068468664, 16.206993605039624], [78.95958677414457, 16.207025973255238], [78.95957561637618, 16.208110109908205], [78.96294173184492, 16.208142427131442], [78.96293059160566, 16.209226565943503], [78.96966288215312, 16.209291045111186], [78.9696517778252, 16.210375188348195], [78.97189589368554, 16.21039663555657], [78.9719069857605, 16.209312490808596], [78.97639520309023, 16.209355311164746], [78.9764062698177, 16.208271163282006], [78.97752832012858, 16.20828185281802], [78.97751725952725, 16.209366001453944], [78.97976137492348, 16.209387364272395], [78.97977242327252, 16.208303214131362], [78.98089447610464, 16.208313885908645], [78.9808834338818, 16.209398036801602], [78.98649374125652, 16.209451310646728], [78.98648272882777, 16.210535465175287], [78.98872686989472, 16.210556734770986], [78.98871586888329, 16.211640890680236], [78.9909600255499, 16.211662138090368], [78.99093804553014, 16.21383045254917], [78.99206013737276, 16.21384106886825], [78.99204915223854, 16.21492522666879], [78.99317125104486, 16.214935837813346], [78.99316027120489, 16.2160199962435], [78.99428237697492, 16.21603060221269], [78.99426042705132, 16.21819892021365], [78.9953825459153, 16.218209521753195], [78.99537157583305, 16.219293681323585], [78.99649370166135, 16.219304277685666], [78.99648273687659, 16.22038843788444], [78.99760486966922, 16.220399029068204], [78.99758294986381, 16.222567350603953], [78.99870509575295, 16.222577937353904], [78.99869414073369, 16.223662098690465], [78.99981629358774, 16.223672680260005], [78.99980534386923, 16.224756842223723], [79.00092750368823, 16.224767418612007], [79.0009056140231, 16.22693574367518], [79.00314996069018, 16.226956881648704], [79.00313902687948, 16.22804104549147], [79.00426120759361, 16.22805160633089], [79.00422841958455, 16.231304099382438], [79.00535061953529, 16.23131465652303], [79.00532876898522, 16.233482986120944], [79.00645098203903, 16.233493538817726], [79.0064400616568, 16.234577704182513], [79.00756228167728, 16.23458825169173], [79.00754045070119, 16.236756583552097], [79.00866268382674, 16.236767126614602], [79.00865177323426, 16.237851293109788], [79.01089625424783, 16.237872362924076], [79.01088535510559, 16.23895653078363], [79.0120076029932, 16.238967057534126], [79.01199670916327, 16.24005122601635], [79.01760799169696, 16.24010377448682], [79.01761885482743, 16.2390196023085], [79.01874110767027, 16.239030093467612], [79.01873025067975, 16.240114266383898], [79.02321929484887, 16.240156174648202], [79.02323012727935, 16.239071998784226], [79.02435238423872, 16.239082460283317], [79.02436320970723, 16.237998283565748], [79.02548546134891, 16.238008738397323], [79.02546382186969, 16.240177093185668], [79.02658608661253, 16.240187543555663], [79.0265752717813, 16.241271721508333], [79.02881981601071, 16.241292605919604], [79.02883061856073, 16.240208426498075], [79.03331969229427, 16.24025012119205], [79.03333046946342, 16.239165938720163], [79.03557499896077, 16.239186749007587], [79.03558576303216, 16.238102564954236], [79.04344159901254, 16.238175208982884], [79.04345231929074, 16.237091019701747], [79.04457457869374, 16.237101372964023], [79.04456386455504, 16.23818556297352], [79.04905293485547, 16.238226919615933], [79.04906362443593, 16.23714272669719], [79.05355268316399, 16.2371839855239], [79.05356334737613, 16.23609978958509], [79.05580786932205, 16.236120381959378], [79.0558185204469, 16.235036184454334], [79.0569407764945, 16.23504647102071], [79.05695142067225, 16.233962272674457], [79.06031817524793, 16.233993094619063], [79.06032880020364, 16.232908893986668], [79.06257329501341, 16.23292941085308], [79.06258390688723, 16.231845208659575], [79.06370614936374, 16.231855457476247], [79.06371675429457, 16.230771254444125], [79.06483899143946, 16.230781496610177], [79.06484958942825, 16.229697292739893], [79.06597182124145, 16.22970752825616], [79.06598241228912, 16.228623323548135], [79.06710463877062, 16.228633552415427], [79.06711522287807, 16.227549346870116], [79.06823744402782, 16.227559569089262], [79.06824802119604, 16.2264753627071], [79.06937023701398, 16.22648557827893], [79.06938080724387, 16.225401371060347], [79.07050301772999, 16.225411579985668], [79.07051358102248, 16.22432737193112], [79.07275799213299, 16.22434777056339], [79.07276854235505, 16.22326356095548], [79.0750129444039, 16.223283934445153], [79.07500240644984, 16.22436814548746], [79.07388019889085, 16.22435796098896], [79.07385910831132, 16.22652638128779], [79.07610354876883, 16.22654674722489], [79.07609301454816, 16.227630958631995], [79.07833747047749, 16.227651302289296], [79.07832694772843, 16.22873551501109], [79.07944918302825, 16.22874567866251], [79.07943866561628, 16.2298298919824], [79.07719418354314, 16.22980955731961], [79.07720471322794, 16.228725345430856], [79.0704713230372, 16.228664203445508], [79.07045018922905, 16.230832618498823], [79.06708346814364, 16.230801963154025], [79.06707288162411, 16.231886168347295], [79.06595063673264, 16.231875937320126], [79.06594004327147, 16.23296014167606], [79.06369554362745, 16.232939660390983], [79.06368493708565, 16.234023863188323], [79.06256268233363, 16.234013612929196], [79.06255206884789, 16.235097814887897], [79.06030754948532, 16.235077295134033], [79.06029692291581, 16.23616149553158], [79.05917465830579, 16.236151226035616], [79.05916402479002, 16.23723542559322], [79.05691948571406, 16.237214867360837], [79.05690883911133, 16.2382990653547], [79.05466429098935, 16.238278481947216], [79.05465363129785, 16.239362678375645], [79.0524090741328, 16.239342069789863], [79.05239840135074, 16.24042626465115], [79.05127611784279, 16.24041595073398], [79.05128679676545, 16.239331756598144], [79.04904224446337, 16.239311112417152], [79.04903155325961, 16.24039530510083], [79.0456647124736, 16.240364292154368], [79.04565400203526, 16.241448482539123], [79.03892030558369, 16.241386292085814], [79.0389095574842, 16.242470477978934], [79.0332981355013, 16.242418485782867], [79.03328735587745, 16.243502667901783], [79.02879820845035, 16.243460964409593], [79.02878740344, 16.24454514347804], [79.02654282236139, 16.24452425466011], [79.02653200424595, 16.245608432141932], [79.02316512036009, 16.24557705220217], [79.02315428299491, 16.24666122735973], [79.01978738808316, 16.24662979179876], [79.01977653146561, 16.247713964628254], [79.01865422866568, 16.247703473500486], [79.01863250067085, 16.249871817330845], [79.01751018640749, 16.249861318791716]]]}, "properties": {"hazard_class": 4, "hazard_name": "Extreme", "area_ha": 1304.64}}]}