{"type": "FeatureCollection", "features": [{"type": "Feature", "geometry": {"type": "Polygon", "coordinates": [[[76.39684424722574, 31.426551309915855], [76.39682819895849, 31.425468917552703], [76.39556594310729, 31.425482672464565], [76.39546975859145, 31.418988310801886], [76.39673192751496, 31.418974559375457], [76.39682819895849, 31.425468917552703], [76.39809045394486, 31.425455150213306], [76.39810651670274, 31.42653754199498], [76.39684424722574, 31.426551309915855]]]}, "properties": {"hazard_class": 3, "hazard_name": "Significant", "area_ha": 10.08}}, {"type": "Feature", "geometry": {"type": "Polygon", "coordinates": [[[76.3928334449489, 31.411439004326223], [76.39281745222496, 31.41035660755705], [76.38903128268703, 31.410397698853572], [76.38901533426241, 31.409315300158113], [76.38775329050878, 31.409328971838644], [76.3877692244542, 31.410411371111714], [76.38650716536257, 31.410425030949444], [76.38649124589642, 31.409342631099292], [76.38522920042605, 31.40935627794003], [76.38519739302393, 31.407191476515955], [76.38645940953802, 31.407177830828278], [76.38647532728825, 31.408260231058904], [76.39152344266842, 31.408205521808576], [76.39153941919025, 31.40928791953754], [76.39280146036292, 31.409274210597555], [76.39281745222496, 31.41035660755705], [76.3940795070148, 31.410342885617606], [76.39409551421859, 31.41142528180705], [76.3928334449489, 31.411439004326223]]]}, "properties": {"hazard_class": 3, "hazard_name": "Significant", "area_ha": 15.84}}, {"type": "Feature", "geometry": {"type": "Polygon", "coordinates": [[[76.37895062626475, 31.41158913225723], [76.37893479282168, 31.410506729145784], [76.37767272774029, 31.410520302039888], [76.3776569096301, 31.409437898164846], [76.37513280586964, 31.409465005545865], [76.37511701756961, 31.408382600335447], [76.37385497889144, 31.408396134823896], [76.37383920592045, 31.407313728851545], [76.3713151549708, 31.407340759427335], [76.37129941180466, 31.406258352122858], [76.3700373995341, 31.40627184821172], [76.37002167169311, 31.405189440146977], [76.37128366948701, 31.405175944628315], [76.37129941180466, 31.406258352122858], [76.38013347389705, 31.406163531779246], [76.38014931840418, 31.407245935077455], [76.38141133834206, 31.407232339065516], [76.38142719818109, 31.408314741599128], [76.38395126444743, 31.408287511167895], [76.38396715409851, 31.40936991236084], [76.38018100998048, 31.40941074110337], [76.38021270497308, 31.41157554636858], [76.37895062626475, 31.41158913225723]]]}, "properties": {"hazard_class": 3, "hazard_name": "Significant", "area_ha": 34.56}}, {"type": "Feature", "geometry": {"type": "Polygon", "coordinates": [[[76.37877650531782, 31.399682687572625], [76.37876068125924, 31.39860028236954], [76.38002258625565, 31.39858670336741], [76.38000674857902, 31.397504298547997], [76.38379241503056, 31.397463488777415], [76.38380829611971, 31.3985458918723], [76.38128449039837, 31.398573111950473], [76.38130034340033, 31.399655516005428], [76.37877650531782, 31.399682687572625]]]}, "properties": {"hazard_class": 3, "hazard_name": "Significant", "area_ha": 7.2}}, {"type": "Feature", "geometry": {"type": "Polygon", "coordinates": [[[76.39559801152456, 31.42764745816236], [76.39558197688388, 31.426565065408656], [76.39305743360862, 31.42659253910998], [76.39289742446472, 31.415768589499756], [76.39415955166153, 31.415754864661587], [76.3940795070148, 31.410342885617606], [76.39281745222496, 31.41035660755705], [76.39280146036292, 31.409274210597555], [76.39153941919025, 31.40928791953754], [76.39152344266842, 31.408205521808576], [76.38647532728825, 31.408260231058904], [76.38645940953802, 31.407177830828278], [76.38519739302393, 31.407191476515955], [76.38522920042605, 31.40935627794003], [76.38396715409851, 31.40936991236084], [76.38395126444743, 31.408287511167895], [76.38142719818109, 31.408314741599128], [76.38141133834206, 31.407232339065516], [76.38014931840418, 31.407245935077455], [76.38013347389705, 31.406163531779246], [76.37129941180466, 31.406258352122858], [76.37128366948701, 31.405175944628315], [76.36875967305154, 31.405202923247447], [76.36872824886365, 31.40303810540842], [76.36746627832632, 31.40305157495238], [76.36743488647373, 31.400886755214977], [76.36617294403848, 31.40090021120455], [76.3660005084854, 31.388993682809907], [76.36473872436432, 31.389007120135453], [76.36466045067405, 31.38359505133614], [76.36592216248117, 31.383581616850012], [76.36598483759524, 31.387911269997826], [76.36724660640729, 31.387897820830307], [76.36740349800496, 31.39872193471751], [76.36866541064934, 31.398708467449964], [76.36869682806302, 31.400873286809258], [76.36995876880557, 31.400859805987395], [76.3699744932561, 31.40194221481237], [76.37249840114491, 31.401915214779585], [76.37248264774735, 31.40083280709547], [76.37753039543577, 31.400778660319446], [76.37751458499677, 31.399696254733193], [76.38130034340033, 31.399655516005428], [76.38128449039837, 31.398573111950473], [76.38507019769675, 31.39853226321112], [76.38508609411345, 31.399614665539914], [76.3863480093052, 31.399601023887605], [76.38639574711563, 31.40284822800349], [76.38891966176351, 31.402820903989916], [76.38893560503153, 31.4039033038269], [76.39145954519121, 31.403875928989894], [76.39147551826906, 31.404958327479992], [76.39273750153315, 31.404944620856597], [76.3927534899479, 31.406027018577284], [76.3940154868262, 31.406013298956577], [76.39403149057945, 31.407095695907305], [76.39529350107189, 31.407081963288256], [76.39532554012183, 31.409246755458344], [76.39658757870653, 31.409233009259182], [76.39661965016893, 31.411397799506425], [76.39788171684806, 31.411384039725007], [76.39791382072944, 31.41354882804822], [76.39917591550515, 31.413535054682452], [76.39920805181198, 31.41569984108045], [76.39794592807145, 31.415713615609935], [76.3979619830403, 31.416796009105216], [76.39669984395093, 31.41680977179328], [76.39673192751496, 31.418974559375457], [76.39546975859145, 31.418988310801886], [76.39556594310729, 31.425482672464565], [76.39682819895849, 31.425468917552703], [76.39684424722574, 31.426551309915855], [76.40063105305902, 31.42650996886915], [76.40061496131996, 31.42542757825201], [76.40187721370715, 31.425413773630172], [76.40186110834554, 31.42433138340562], [76.40312334537508, 31.424317566939916], [76.40310722639248, 31.423235177108452], [76.40436944806446, 31.42322134879997], [76.40435331546243, 31.4221389593621], [76.40561552177692, 31.422125119211888], [76.40559937555702, 31.421042730168136], [76.40686156651411, 31.421028878177257], [76.40682924771255, 31.418864100688445], [76.4080914088267, 31.418850237443564], [76.40807523624734, 31.417767848999016], [76.40933738200509, 31.417753973916124], [76.40932119581328, 31.416671585867164], [76.41058332621469, 31.416657698947315], [76.41056712641198, 31.415575311294464], [76.41182924145717, 31.415561412538732], [76.41181302804512, 31.41447902528248], [76.41307512773413, 31.41446511469193], [76.41305890071432, 31.413382727832783], [76.41558306850489, 31.41335487056283], [76.41556681339816, 31.412272484689943], [76.41682888149906, 31.41225853801216], [76.4168126127885, 31.411176152537912], [76.41807466553276, 31.41116219402906], [76.41805838321993, 31.41007980895393], [76.4193204206076, 31.410065838615072], [76.41930412469408, 31.408983453939562], [76.42182816787744, 31.408955477184886], [76.42181184388738, 31.407873093500744], [76.42812186404916, 31.407802937244885], [76.4281382604254, 31.408885317965012], [76.42435220754152, 31.408927450753932], [76.42436856136756, 31.410009833063423], [76.4218444927473, 31.410037860678447], [76.42186081849702, 31.411120243981372], [76.42059876838779, 31.41113423975076], [76.4206150805377, 31.412216623454352], [76.41935301506962, 31.41223060739433], [76.41936931361816, 31.41331299149808], [76.41810723279112, 31.413326963607595], [76.41812351773675, 31.414409348111], [76.41686142155066, 31.41442330838898], [76.41687769289182, 31.415505693291532], [76.41561558134661, 31.415519641736914], [76.41563183908171, 31.416602027038103], [76.4131075843975, 31.416629887838617], [76.41312381404113, 31.417712274126153], [76.41186167090277, 31.417726186479655], [76.41187788693641, 31.418808573164316], [76.41061572843942, 31.418822473681477], [76.41063193086153, 31.41990486076277], [76.4093697570058, 31.41991874944251], [76.40938594581479, 31.421001136919926], [76.4081237566003, 31.421015013761178], [76.40815610786066, 31.42317978931675], [76.40689388879933, 31.423193654904086], [76.40691005124842, 31.424276042981766], [76.4056478168273, 31.424289896727963], [76.40566396565784, 31.42537228520026], [76.40440171587687, 31.425386127104264], [76.40441785108733, 31.426468515970694], [76.40315558594641, 31.42648234603144], [76.40317170753522, 31.427564735291487], [76.39559801152456, 31.42764745816236]]]}, "properties": {"hazard_class": 4, "hazard_name": "Extreme", "area_ha": 342.72}}, {"type": "Feature", "geometry": {"type": "Polygon", "coordinates": [[[76.36466045067405, 31.38359505133614], [76.36461349658529, 31.380347807777387], [76.36713683259705, 31.380320929805933], [76.36718387344375, 31.3835681699561], [76.36466045067405, 31.38359505133614]]]}, "properties": {"hazard_class": 3, "hazard_name": "Significant", "area_ha": 8.64}}, {"type": "Feature", "geometry": {"type": "Polygon", "coordinates": [[[76.36461349658529, 31.380347807777387], [76.36458219807768, 31.37818297778865], [76.36710547625862, 31.378156102089456], [76.36713683259705, 31.380320929805933], [76.36461349658529, 31.380347807777387]]]}, "properties": {"hazard_class": 4, "hazard_name": "Extreme", "area_ha": 5.76}}, {"type": "Feature", "geometry": {"type": "Polygon", "coordinates": [[[76.36712115400526, 31.37923851604266], [76.36710547625862, 31.378156102089456], [76.36458219807768, 31.37818297778865], [76.36456655008925, 31.377100562509412], [76.36582817514532, 31.377087131430173], [76.36576553380785, 31.37275747068526], [76.36702710020133, 31.37274402947448], [76.36704277372279, 31.373826444377308], [76.36830435372471, 31.373812990195237], [76.36832004254528, 31.374895404339362], [76.36705844808922, 31.374908859090237], [76.36708979935709, 31.377073687946297], [76.36835142272379, 31.377060232057808], [76.3683828062857, 31.379225059016488], [76.36712115400526, 31.37923851604266]]]}, "properties": {"hazard_class": 3, "hazard_name": "Significant", "area_ha": 12.96}}]}