{"type": "FeatureCollection", "features": [{"type": "Feature", "geometry": {"type": "Polygon", "coordinates": [[[76.39395148043819, 31.401683709250648], [76.39393548099721, 31.40060131134843], [76.39519740464131, 31.400587582210342], [76.39518139159067, 31.399505184697947], [76.39644329989969, 31.399491443724983], [76.39642727324095, 31.398409046602918], [76.39895105832444, 31.398381528575005], [76.39893500358885, 31.397299132425427], [76.40019688036266, 31.397285355372098], [76.40022901964056, 31.399450146316532], [76.39644329989969, 31.399491443724983], [76.39645932742229, 31.400573840656747], [76.39519740464131, 31.400587582210342], [76.39521341855504, 31.401669979532432], [76.39395148043819, 31.401683709250648]]]}, "properties": {"hazard_class": 3, "hazard_name": "Significant", "area_ha": 8.64}}, {"type": "Feature", "geometry": {"type": "Polygon", "coordinates": [[[76.36732504163518, 31.393309880148763], [76.36726229176176, 31.388980233073955], [76.36852407419259, 31.388966770927624], [76.36858688193091, 31.39329641572646], [76.36732504163518, 31.393309880148763]]]}, "properties": {"hazard_class": 3, "hazard_name": "Significant", "area_ha": 5.76}}, {"type": "Feature", "geometry": {"type": "Polygon", "coordinates": [[[76.37929493602581, 31.348795884948125], [76.37926333997473, 31.346631057635445], [76.38052455039373, 31.34661749377126], [76.38050873921229, 31.345535080403693], [76.38176993434531, 31.345521504724115], [76.38175410958365, 31.344439091740796], [76.37923174733056, 31.344466229562975], [76.37921595228597, 31.343383815241825], [76.38047711940679, 31.3433702530987], [76.38046131078264, 31.342287839161294], [76.3829836136041, 31.34226067885982], [76.38296777697161, 31.34117826588133], [76.38170664041776, 31.34119185165112], [76.3816908190687, 31.340109437907994], [76.3842130624635, 31.34008225513137], [76.3842289126716, 31.341164667724602], [76.38549004751695, 31.34115105718096], [76.38553764656231, 31.344398292093555], [76.38427646842393, 31.344411904364456], [76.38426061565178, 31.343329492341155], [76.38299945109047, 31.343343091648336], [76.38303112862509, 31.345507916655457], [76.38176993434531, 31.345521504724115], [76.38178575996021, 31.346603917517438], [76.38052455039373, 31.34661749377126], [76.38055617531417, 31.3487823199365], [76.37929493602581, 31.348795884948125]]]}, "properties": {"hazard_class": 3, "hazard_name": "Significant", "area_ha": 23.04}}, {"type": "Feature", "geometry": {"type": "Polygon", "coordinates": [[[76.36546817185457, 31.352191540658115], [76.3654525296616, 31.351109121389793], [76.36419125132942, 31.351122538846056], [76.36417562441687, 31.35004011882044], [76.36291435967931, 31.350053523317676], [76.36286752730337, 31.34680626040128], [76.36160630503093, 31.346819650807735], [76.36159071035631, 31.34573722888969], [76.36032950167711, 31.34575060634025], [76.36031392227663, 31.344668183666588], [76.3615751165225, 31.344654806781865], [76.36159071035631, 31.34573722888969], [76.36285191819468, 31.345723839049587], [76.36282070250202, 31.34355899577687], [76.36155952352944, 31.343572384484272], [76.36152834006546, 31.341407539319853], [76.36026718911492, 31.34142091450718], [76.36023603787316, 31.33925606745223], [76.35897491494252, 31.33926942912159], [76.35895935501004, 31.338187004744285], [76.35769824566913, 31.338200353462508], [76.35768270100358, 31.3371179283308], [76.36146598322487, 31.337077846714084], [76.36149715996403, 31.33924269339645], [76.36275828121434, 31.339229306954284], [76.36274267799588, 31.338146884274245], [76.36400378397626, 31.338133486012513], [76.36401940162331, 31.339215908125755], [76.36275828121434, 31.339229306954284], [76.36277388527415, 31.34031172944456], [76.36403502011248, 31.34029833004923], [76.3641131251915, 31.34571043681999], [76.36537433134593, 31.34569702220092], [76.36540560814251, 31.347861862445885], [76.3666668423225, 31.347848434301483], [76.36672946378123, 31.35217811024178], [76.36546817185457, 31.352191540658115]], [[76.36286752730337, 31.34680626040128], [76.3641287487342, 31.346792857604793], [76.3641131251915, 31.34571043681999], [76.36285191819468, 31.345723839049587], [76.36286752730337, 31.34680626040128]]]}, "properties": {"hazard_class": 3, "hazard_name": "Significant", "area_ha": 44.64}}, {"type": "Feature", "geometry": {"type": "Polygon", "coordinates": [[[76.3842289126716, 31.341164667724602], [76.3842130624635, 31.34008225513137], [76.38295194119301, 31.340095852712885], [76.3829361062682, 31.339013439354478], [76.3854583190972, 31.338986232955964], [76.38544245617035, 31.337903820558484], [76.38292027219721, 31.337931025806114], [76.38290443897995, 31.336848612067797], [76.3841655169666, 31.336835016211815], [76.38414967017667, 31.335752602858708], [76.3854107328825, 31.33573899519361], [76.38539487252142, 31.3346565822262], [76.3866559199465, 31.33464296275302], [76.38667179473312, 31.335725375144232], [76.3854107328825, 31.33573899519361], [76.38544245617035, 31.337903820558484], [76.38670354687437, 31.337890199356686], [76.38675118150688, 31.341137434250445], [76.3842289126716, 31.341164667724602]]]}, "properties": {"hazard_class": 2, "hazard_name": "Moderate", "area_ha": 14.4}}, {"type": "Feature", "geometry": {"type": "Polygon", "coordinates": [[[76.38544245617035, 31.337903820558484], [76.3854107328825, 31.33573899519361], [76.38414967017667, 31.335752602858708], [76.3841655169666, 31.336835016211815], [76.38290443897995, 31.336848612067797], [76.38288860661638, 31.335766198139527], [76.38414967017667, 31.335752602858708], [76.38411797916002, 31.333587775582636], [76.38664004601586, 31.333560550171836], [76.3866559199465, 31.33464296275302], [76.38539487252142, 31.3346565822262], [76.3854107328825, 31.33573899519361], [76.38667179473312, 31.335725375144232], [76.38670354687437, 31.337890199356686], [76.38544245617035, 31.337903820558484]]]}, "properties": {"hazard_class": 3, "hazard_name": "Significant", "area_ha": 8.64}}, {"type": "Feature", "geometry": {"type": "Polygon", "coordinates": [[[76.35894379591653, 31.337104580177286], [76.35892823766196, 31.336022155420576], [76.3576671571762, 31.336035503009416], [76.3576205307225, 31.332788225907137], [76.35888156793136, 31.332774880012263], [76.35892823766196, 31.336022155420576], [76.36018931730882, 31.336008795446865], [76.36014260430146, 31.33276152173408], [76.361403639832, 31.332748151072636], [76.36145039611603, 31.335995423088306], [76.3627114740828, 31.335982038344934], [76.36272707561871, 31.337064461404463], [76.35894379591653, 31.337104580177286]]]}, "properties": {"hazard_class": 2, "hazard_name": "Moderate", "area_ha": 12.96}}, {"type": "Feature", "geometry": {"type": "Polygon", "coordinates": [[[76.36145039611603, 31.335995423088306], [76.361403639832, 31.332748151072636], [76.36014260430146, 31.33276152173408], [76.36012703497815, 31.33167909678374], [76.3613880560847, 31.33166572668798], [76.36137247317767, 31.3305833021136], [76.36263347902076, 31.330569920201295], [76.36264907635098, 31.331652344209477], [76.3613880560847, 31.33166572668798], [76.361403639832, 31.332748151072636], [76.36266467452224, 31.33273476802794], [76.3627114740828, 31.335982038344934], [76.36145039611603, 31.335995423088306]]]}, "properties": {"hazard_class": 3, "hazard_name": "Significant", "area_ha": 7.2}}, {"type": "Feature", "geometry": {"type": "Polygon", "coordinates": [[[76.38534729656905, 31.331409342184234], [76.38533143962842, 31.330326928457], [76.38659242935918, 31.330313311288457], [76.38657655885193, 31.329230897947404], [76.3878375333053, 31.329217268973885], [76.38785341823416, 31.33029968173828], [76.38911440625256, 31.330286039806534], [76.38913030646033, 31.33136845180378], [76.38534729656905, 31.331409342184234]]]}, "properties": {"hazard_class": 2, "hazard_name": "Moderate", "area_ha": 5.76}}, {"type": "Feature", "geometry": {"type": "Polygon", "coordinates": [[[76.3563905472895, 31.33496641213813], [76.35634396662459, 31.331719132774438], [76.35760499024731, 31.33170579982701], [76.35758945061008, 31.33062337355721], [76.35632844141068, 31.330636705940556], [76.35631291703392, 31.329554278917023], [76.35757391181075, 31.329540947097765], [76.35754283672567, 31.327376093609853], [76.3588038018219, 31.327362750537993], [76.3588349057497, 31.32952760289674], [76.36009589885, 31.32951424631399], [76.36017374546675, 31.33492637106565], [76.35891268024625, 31.33493973047417], [76.3588660130321, 31.331692454496768], [76.35760499024731, 31.33170579982701], [76.3576516141869, 31.334953077498334], [76.3563905472895, 31.33496641213813]]]}, "properties": {"hazard_class": 1, "hazard_name": "Low", "area_ha": 18.72}}, {"type": "Feature", "geometry": {"type": "Polygon", "coordinates": [[[76.37023086497325, 31.33265420971324], [76.37021518025907, 31.331571789302977], [76.36769314899763, 31.331598690468866], [76.36766183979671, 31.32943384680272], [76.36640085174461, 31.32944727767526], [76.36638521283177, 31.328364854989264], [76.36890715924896, 31.328337981999706], [76.36889149233805, 31.32725556026098], [76.36763053397213, 31.3272690023775], [76.36761488232587, 31.32618657988025], [76.36887582627192, 31.326173138332486], [76.36889149233805, 31.32725556026098], [76.37015244985918, 31.327242105764018], [76.37021518025907, 31.331571789302977], [76.37147619462158, 31.331558320146243], [76.37149189375944, 31.332640739986633], [76.37023086497325, 31.33265420971324]]]}, "properties": {"hazard_class": 3, "hazard_name": "Significant", "area_ha": 14.4}}, {"type": "Feature", "geometry": {"type": "Polygon", "coordinates": [[[76.38668767037572, 31.336807787345453], [76.38664004601586, 31.333560550171836], [76.38537901301551, 31.333574169068843], [76.38534729656905, 31.331409342184234], [76.38913030646033, 31.33136845180378], [76.38911440625256, 31.330286039806534], [76.38785341823416, 31.33029968173828], [76.3878375333053, 31.329217268973885], [76.38909850690216, 31.329203627619304], [76.38903491807311, 31.324873976970554], [76.39029583313435, 31.324860325545604], [76.39032765467202, 31.327025150094627], [76.39158859771285, 31.327011485134413], [76.3916045241886, 31.32809389654575], [76.39034356672784, 31.32810756208415], [76.39035947964169, 31.329189973883697], [76.38909850690216, 31.329203627619304], [76.38911440625256, 31.330286039806534], [76.39037539341362, 31.33027238549322], [76.39042313987832, 31.333519619181818], [76.38790107816028, 31.333546918891642], [76.38794874579663, 31.336794154335117], [76.38668767037572, 31.336807787345453]]]}, "properties": {"hazard_class": 1, "hazard_name": "Low", "area_ha": 25.92}}, {"type": "Feature", "geometry": {"type": "Polygon", "coordinates": [[[76.36012703497815, 31.33167909678374], [76.36009589885, 31.32951424631399], [76.3588349057497, 31.32952760289674], [76.35874160402884, 31.323033043544523], [76.36000251061057, 31.32301969035227], [76.36009589885, 31.32951424631399], [76.36135689111089, 31.32950087734953], [76.3613880560847, 31.33166572668798], [76.36012703497815, 31.33167909678374]]]}, "properties": {"hazard_class": 2, "hazard_name": "Moderate", "area_ha": 11.52}}, {"type": "Feature", "geometry": {"type": "Polygon", "coordinates": [[[76.36009589885, 31.32951424631399], [76.35998694884137, 31.321937263694792], [76.36124784016691, 31.321923898689548], [76.36123226482064, 31.320841472407956], [76.36375401611883, 31.320814706396142], [76.36373841278167, 31.31973228105754], [76.36247755196828, 31.319745669685584], [76.36246196388711, 31.318663243590716], [76.36498365584336, 31.318636455091376], [76.36496803977518, 31.31755402994047], [76.37001135592108, 31.31750030669939], [76.37002702964396, 31.31858272957673], [76.37128787098295, 31.3185692672574], [76.37131924979397, 31.32073411130337], [76.37005837962549, 31.320747574762134], [76.37007405588423, 31.321829997070207], [76.36755228418016, 31.321856887993764], [76.36759923152358, 31.325104157193245], [76.36633830115271, 31.325117585792835], [76.36632266561271, 31.324035162347883], [76.36506174881708, 31.324048578000312], [76.36507736993867, 31.32513100201295], [76.36381643788226, 31.325144405853575], [76.36380083117909, 31.324061981273776], [76.36253991269956, 31.32407537216824], [76.36255550498424, 31.32515779731468], [76.36129457124542, 31.32517117639623], [76.36135689111089, 31.32950087734953], [76.36009589885, 31.32951424631399]], [[76.36252432125566, 31.32299294683212], [76.3637852253175, 31.322979556504276], [76.36376962029742, 31.321897131545064], [76.36250873065252, 31.321910521306283], [76.36252432125566, 31.32299294683212]], [[76.36629139706203, 31.32187031488877], [76.36755228418016, 31.321856887993764], [76.36752099017033, 31.31969204091208], [76.36626013188346, 31.31970546667075], [76.36629139706203, 31.32187031488877]]]}, "properties": {"hazard_class": 3, "hazard_name": "Significant", "area_ha": 59.04}}, {"type": "Feature", "geometry": {"type": "Polygon", "coordinates": [[[76.35749623038139, 31.32412881195557], [76.35746516367364, 31.32196395657114], [76.35998694884137, 31.321937263694792], [76.35997138791133, 31.320854836847662], [76.35871051016291, 31.320868188909834], [76.35867941965034, 31.31870333351658], [76.35994026856855, 31.318689982584416], [76.35992471015571, 31.317607555168323], [76.36370720863151, 31.317567429811252], [76.36369160781844, 31.31648500390357], [76.3649524245491, 31.316471604599865], [76.36493681016508, 31.315389179069577], [76.36745841227513, 31.315362344471964], [76.36744276991035, 31.31427991988765], [76.36870355528907, 31.314266484595365], [76.36875052815047, 31.317513756073303], [76.36370720863151, 31.317567429811252], [76.36372281028592, 31.318649855529237], [76.36120111664773, 31.318676619275774], [76.36124784016691, 31.321923898689548], [76.35998694884137, 31.321937263694792], [76.36000251061057, 31.32301969035227], [76.35874160402884, 31.323033043544523], [76.35875715221938, 31.324115470577382], [76.35749623038139, 31.32412881195557]]]}, "properties": {"hazard_class": 1, "hazard_name": "Low", "area_ha": 27.36}}, {"type": "Feature", "geometry": {"type": "Polygon", "coordinates": [[[76.38268286355837, 31.3216947997887], [76.3826354048696, 31.318447549457712], [76.38389623771342, 31.318433963377625], [76.3838329137557, 31.314104295911022], [76.38509368809784, 31.3140906997568], [76.38510953221753, 31.315173116332854], [76.38637032011603, 31.31515950722889], [76.38641790083888, 31.318406754089764], [76.38515706970344, 31.31842036492165], [76.38517291724116, 31.319502780738105], [76.38643376279047, 31.319489169330232], [76.38644962559745, 31.320571584380776], [76.38392790481485, 31.320598795971602], [76.38394373964637, 31.321681211983734], [76.38268286355837, 31.3216947997887]]]}, "properties": {"hazard_class": 2, "hazard_name": "Moderate", "area_ha": 18.72}}, {"type": "Feature", "geometry": {"type": "Polygon", "coordinates": [[[76.39433572582708, 31.427661201807524], [76.3943197056779, 31.42657880847338], [76.39305743360862, 31.42659253910998], [76.39302542488089, 31.424427750710752], [76.39176318092989, 31.424441467760463], [76.39173120462966, 31.422276677441108], [76.39299341960297, 31.422262961550086], [76.39291342149889, 31.41685098531732], [76.39165127895616, 31.416864698311844], [76.39163529640578, 31.41578230191503], [76.39037316748549, 31.41579600190735], [76.39038913555207, 31.41687839888291], [76.38912699128737, 31.416892087030476], [76.38909508498173, 31.41472729173265], [76.38783296882421, 31.41474096630134], [76.38781703144338, 31.41365856778933], [76.37645807780902, 31.41378107471627], [76.3764896927369, 31.415945881900786], [76.37522755354136, 31.415959432815587], [76.37524334779893, 31.417041836695045], [76.37398119326785, 31.41705537575844], [76.37399697389155, 31.41813778001968], [76.37273480402483, 31.41815130723062], [76.37270327259745, 31.415986497375208], [76.37396541349462, 31.415972971307074], [76.37394963457179, 31.41489056666557], [76.37268750815824, 31.41490409216233], [76.37265598182856, 31.412739281166207], [76.37391807927725, 31.412725756812158], [76.37387075271259, 31.409478540606127], [76.37260869870536, 31.4094920632462], [76.37259293936314, 31.408409656892673], [76.37133089898548, 31.408423166541734], [76.3713151549708, 31.407340759427335], [76.37005312822279, 31.40735425608644], [76.3700373995341, 31.40627184821172], [76.3687753864158, 31.406285331881882], [76.36875967305154, 31.405202923247447], [76.36749767356305, 31.405216393929706], [76.36746627832632, 31.40305157495238], [76.36620430694296, 31.40306503207915], [76.36614158451472, 31.398735389569946], [76.36487967017938, 31.398748832007257], [76.36461349658529, 31.380347807777387], [76.36335182731356, 31.380361228153767], [76.36328929150056, 31.37603156514759], [76.36455090294433, 31.376018147040273], [76.36450396657024, 31.37277089949349], [76.36576553380785, 31.37275747068526], [76.36570290597653, 31.368427806901934], [76.36696441456417, 31.368414367964053], [76.36694874526687, 31.367331952111705], [76.36821023856025, 31.367318501342115], [76.36810047600433, 31.359741589039505], [76.36683908383544, 31.359755035828428], [76.36677643873875, 31.355425365203736], [76.36803777313932, 31.355411920689196], [76.36799075486375, 31.35216466743289], [76.36672946378123, 31.35217811024178], [76.3666668423225, 31.347848434301483], [76.36540560814251, 31.347861862445885], [76.36537433134593, 31.34569702220092], [76.3641131251915, 31.34571043681999], [76.3640506394438, 31.34138075178292], [76.36531178787007, 31.341367339433383], [76.36529615410865, 31.34028491826703], [76.36277388527415, 31.34031172944456], [76.36275828121434, 31.339229306954284], [76.36401940162331, 31.339215908125755], [76.36400378397626, 31.338133486012513], [76.36274267799588, 31.338146884274245], [76.36266467452224, 31.33273476802794], [76.361403639832, 31.332748151072636], [76.3613880560847, 31.33166572668798], [76.36264907635098, 31.331652344209477], [76.36263347902076, 31.330569920201295], [76.36137247317767, 31.3305833021136], [76.36129457124542, 31.32517117639623], [76.36507736993867, 31.32513100201295], [76.36506174881708, 31.324048578000312], [76.36632266561271, 31.324035162347883], [76.36633830115271, 31.325117585792835], [76.36759923152358, 31.325104157193245], [76.36755228418016, 31.321856887993764], [76.37007405588423, 31.321829997070207], [76.37005837962549, 31.320747574762134], [76.37131924979397, 31.32073411130337], [76.37128787098295, 31.3185692672574], [76.37002702964396, 31.31858272957673], [76.3699956830434, 31.316417883632308], [76.37125649555601, 31.31640442245237], [76.37124080911147, 31.315321999765217], [76.37250160636616, 31.315308526780324], [76.37247020719312, 31.313143681977134], [76.37499174151864, 31.313116701167424], [76.37500746950258, 31.314199122521977], [76.37374668835317, 31.31421261968482], [76.37379383415859, 31.317459884323505], [76.37631548208053, 31.317432874194743], [76.37628399304704, 31.315268033578125], [76.37880557992386, 31.315240976237348], [76.37883712660613, 31.317405814563728], [76.37757630476827, 31.317419350567004], [76.377592064972, 31.31850177001828], [76.37633122787089, 31.318515294218333], [76.37642572044619, 31.32500981037363], [76.37516479599914, 31.325023325628635], [76.3751805333154, 31.32610574489533], [76.37770241019781, 31.326078700861768], [76.37773394505626, 31.328243536536984], [76.37899491106245, 31.328229994804694], [76.37894756679141, 31.324982742725926], [76.38146940973293, 31.324955625561543], [76.38143779347007, 31.322790792187835], [76.38017690126021, 31.322804355811677], [76.38016110882376, 31.32172193826605], [76.3789002301787, 31.321735488938376], [76.37885290122321, 31.318488233442153], [76.38011373662373, 31.31847468449], [76.38012952650556, 31.319557102605213], [76.38139037546864, 31.319543540703147], [76.38140618061679, 31.320625958054578], [76.38266704314238, 31.32061238320159], [76.38268286355837, 31.3216947997887], [76.38394373964637, 31.321681211983734], [76.38395957533179, 31.322763627805976], [76.3864813537777, 31.32273641391207], [76.38646548925983, 31.321653999241384], [76.38772636278377, 31.321640374304057], [76.38769460748442, 31.31947554554598], [76.38643376279047, 31.319489169330232], [76.38637032011603, 31.31515950722889], [76.38763110715931, 31.31514588575065], [76.38764698095648, 31.316228300984378], [76.38890778155522, 31.316214666554878], [76.38892367062067, 31.31729708102165], [76.39144529807128, 31.31726977388281], [76.39142938018146, 31.31618736057164], [76.39269017820743, 31.31617368901797], [76.392658316181, 31.31400886298288], [76.39391908452599, 31.313995180212736], [76.39395097537424, 31.316160005089635], [76.39269017820743, 31.31617368901797], [76.39272204367045, 31.31833851429316], [76.3914612168195, 31.318352187004017], [76.39147713642615, 31.319434599935256], [76.39021629430303, 31.319448260848464], [76.39024810726212, 31.321613087297234], [76.38898723545145, 31.32162673698933], [76.38906671077319, 31.32703880267489], [76.38780576601712, 31.32705244287516], [76.38782164923296, 31.3281348560195], [76.38656068920042, 31.328148484416374], [76.38657655885193, 31.329230897947404], [76.3853155835428, 31.329244514539823], [76.38534729656905, 31.331409342184234], [76.38408629156082, 31.33142294754676], [76.38414967017667, 31.335752602858708], [76.38288860661638, 31.335766198139527], [76.38295194119301, 31.340095852712885], [76.3816908190687, 31.340109437907994], [76.38172246261992, 31.342274265204306], [76.38046131078264, 31.342287839161294], [76.38047711940679, 31.3433702530987], [76.37921595228597, 31.343383815241825], [76.37923174733056, 31.344466229562975], [76.38175410958365, 31.344439091740796], [76.38176993434531, 31.345521504724115], [76.38050873921229, 31.345535080403693], [76.38052455039373, 31.34661749377126], [76.37926333997473, 31.346631057635445], [76.37931073532907, 31.349878298319545], [76.37804948075303, 31.349891851513696], [76.37812841785677, 31.355303918387612], [76.37686709023839, 31.355317462054163], [76.37688286577222, 31.356399875431837], [76.3756215228627, 31.35641340727673], [76.37565304759842, 31.35857823460673], [76.37439167495548, 31.358591755200653], [76.37442317420376, 31.360756582914387], [76.37316177182487, 31.360770092255258], [76.37320898372985, 31.364017334115083], [76.37194753716635, 31.364030832771594], [76.37197898711729, 31.366195660869998], [76.37071751081126, 31.36620914826882], [76.37079607827492, 31.371621218042307], [76.36953452887104, 31.37163469589072], [76.36958163615559, 31.374881937184966], [76.36832004254528, 31.374895404339362], [76.36842988797315, 31.382472298029885], [76.36716819231627, 31.382485756762662], [76.36732504163518, 31.393309880148763], [76.36858688193091, 31.39329641572646], [76.36868111893283, 31.399790877224618], [76.36994304520258, 31.399777396972397], [76.36995876880557, 31.400859805987395], [76.37248264774735, 31.40083280709547], [76.37246689519885, 31.399750399221286], [76.37877650531782, 31.399682687572625], [76.37876068125924, 31.39860028236954], [76.38002258625565, 31.39858670336741], [76.38000674857902, 31.397504298547997], [76.38126863825087, 31.397490707705387], [76.38123693651907, 31.395325898644767], [76.38249879639716, 31.39531229653754], [76.38253052706831, 31.397477104448516], [76.38505430213684, 31.397449860692124], [76.38507019769675, 31.39853226321112], [76.38633209841699, 31.39851862213524], [76.3863480093052, 31.399601023887605], [76.38760992363933, 31.39958736982013], [76.38762584985739, 31.400669770805326], [76.38888777780532, 31.400656103745195], [76.3889037193548, 31.40173850396267], [76.39142760161812, 31.401711131438894], [76.3914116311228, 31.400628732378003], [76.39267355649079, 31.40061502807099], [76.39264158913907, 31.398450230536543], [76.39516537940308, 31.398422786995262], [76.39514936807855, 31.397340389102283], [76.396411247446, 31.397326649290562], [76.39644329989969, 31.399491443724983], [76.39518139159067, 31.399505184697947], [76.39519740464131, 31.400587582210342], [76.39393548099721, 31.40060131134843], [76.39396748074154, 31.402766106962577], [76.3927055272887, 31.40277982484436], [76.39273750153315, 31.404944620856597], [76.3939994839355, 31.40493090181555], [76.3940154868262, 31.406013298956577], [76.39527748284199, 31.40599956691772], [76.39530952016517, 31.40816435946846], [76.39657154427167, 31.408150613850044], [76.39660361400561, 31.41031540447798], [76.397865666205, 31.410301645277862], [76.39788171684806, 31.411384039725007], [76.3991437826621, 31.41137026752292], [76.39920805181198, 31.41569984108045], [76.40047017468648, 31.415686054128187], [76.40048625862242, 31.416768446459173], [76.3992241212644, 31.41678223399384], [76.39928840773517, 31.42111180374344], [76.39802621156899, 31.421125581182476], [76.39805833102585, 31.423290366078707], [76.39679610501841, 31.423304132255197], [76.39681215155606, 31.42438652499915], [76.39807439205258, 31.424372758241212], [76.39809045394486, 31.425455150213306], [76.40187721370715, 31.425413773630172], [76.40186110834554, 31.42433138340562], [76.40312334537508, 31.424317566939916], [76.40310722639248, 31.423235177108452], [76.40436944806446, 31.42322134879997], [76.40435331546243, 31.4221389593621], [76.40561552177692, 31.422125119211888], [76.40558323020724, 31.419960340933883], [76.40684540667789, 31.41994648952809], [76.40682924771255, 31.418864100688445], [76.4080914088267, 31.418850237443564], [76.40807523624734, 31.417767848999016], [76.40933738200509, 31.417753973916124], [76.40932119581328, 31.416671585867164], [76.41058332621469, 31.416657698947315], [76.41056712641198, 31.415575311294464], [76.41182924145717, 31.415561412538732], [76.41181302804512, 31.41447902528248], [76.41307512773413, 31.41446511469193], [76.41305890071432, 31.413382727832783], [76.41432098504725, 31.41336880540848], [76.41430474442122, 31.412286418946938], [76.41556681339816, 31.412272484689943], [76.41555055916749, 31.411190098626516], [76.4168126127885, 31.411176152537912], [76.41679634495472, 31.410093766873096], [76.41805838321993, 31.41007980895393], [76.41804210178462, 31.40899742368822], [76.41930412469408, 31.408983453939562], [76.4192878296588, 31.40790106907346], [76.42054983721259, 31.407887087496388], [76.42056614672528, 31.408969471771776], [76.42182816787744, 31.408955477184886], [76.42181184388738, 31.407873093500744], [76.42812186404916, 31.407802937244885], [76.4281382604254, 31.408885317965012], [76.42435220754152, 31.408927450753932], [76.42436856136756, 31.410009833063423], [76.4218444927473, 31.410037860678447], [76.42186081849702, 31.411120243981372], [76.42059876838779, 31.41113423975076], [76.4206313935668, 31.413299006967332], [76.41810723279112, 31.413326963607595], [76.41812351773675, 31.414409348111], [76.41686142155066, 31.41442330838898], [76.41687769289182, 31.415505693291532], [76.41561558134661, 31.415519641736914], [76.41563183908171, 31.416602027038103], [76.4131075843975, 31.416629887838617], [76.41312381404113, 31.417712274126153], [76.41186167090277, 31.417726186479655], [76.41187788693641, 31.418808573164316], [76.41061572843942, 31.418822473681477], [76.41063193086153, 31.41990486076277], [76.4093697570058, 31.41991874944251], [76.40940213549625, 31.422083524206826], [76.40813993179462, 31.42209740163422], [76.4081722847985, 31.424262176808778], [76.4056478168273, 31.424289896727963], [76.40566396565784, 31.42537228520026], [76.40440171587687, 31.425386127104264], [76.40441785108733, 31.426468515970694], [76.40315558594641, 31.42648234603144], [76.40317170753522, 31.427564735291487], [76.39433572582708, 31.427661201807524]], [[76.37792322564081, 31.34123253463853], [76.3791843647516, 31.341218986029745], [76.3791685722617, 31.34013657113882], [76.3779074475806, 31.3401501191745], [76.37792322564081, 31.34123253463853]], [[76.37155469877672, 31.336970417449972], [76.37281578441869, 31.33695693305867], [76.37280006746768, 31.335874514548017], [76.37153899625244, 31.33588799836889], [76.37155469877672, 31.336970417449972]], [[76.36395693608739, 31.33488621853427], [76.36521799794473, 31.33487280958863], [76.36520236924032, 31.33379038728366], [76.36394132180841, 31.33380379566202], [76.36395693608739, 31.33488621853427]], [[76.36774011913043, 31.33484595454478], [76.36900117845722, 31.334832508446613], [76.36898550647675, 31.333750087846607], [76.36772446157525, 31.33376353337592], [76.36774011913043, 31.33484595454478]], [[76.37529071829319, 31.333682674446653], [76.37655175811285, 31.3336691546162], [76.37653600043102, 31.332586737250388], [76.37527497503565, 31.332600256508858], [76.37529071829319, 31.333682674446653]], [[76.37023086497325, 31.33265420971324], [76.37149189375944, 31.332640739986633], [76.37147619462158, 31.331558320146243], [76.37021518025907, 31.331571789302977], [76.37023086497325, 31.33265420971324]], [[76.37779702497672, 31.332573205609012], [76.379058048672, 31.33255966158475], [76.37902647816497, 31.330394828574498], [76.37776548331578, 31.330408371452734], [76.37779702497672, 31.332573205609012]], [[76.36769314899763, 31.331598690468866], [76.37021518025907, 31.331571789302977], [76.37015244985918, 31.327242105764018], [76.36889149233805, 31.32725556026098], [76.36890715924896, 31.328337981999706], [76.36638521283177, 31.328364854989264], [76.36640085174461, 31.32944727767526], [76.36766183979671, 31.32943384680272], [76.36769314899763, 31.331598690468866]], [[76.37525923262699, 31.331517838381217], [76.37652024359883, 31.331504319694698], [76.37647297819981, 31.3282570658885], [76.37521201049387, 31.32827058285921], [76.3751805333154, 31.32610574489533], [76.37391959360087, 31.326119248342444], [76.37393531734608, 31.32720166799068], [76.37267436236398, 31.32721515962883], [76.37272149542336, 31.330462419147203], [76.37524349106717, 31.330435420063726], [76.37525923262699, 31.331517838381217]], [[76.36763053397213, 31.3272690023775], [76.36889149233805, 31.32725556026098], [76.36887582627192, 31.326173138332486], [76.36761488232587, 31.32618657988025], [76.36763053397213, 31.3272690023775]], [[76.38767873111898, 31.318393130882043], [76.38893956054298, 31.318379495298487], [76.38892367062067, 31.31729708102165], [76.3876628556097, 31.31731071602817], [76.38767873111898, 31.318393130882043]]]}, "properties": {"hazard_class": 4, "hazard_name": "Extreme", "area_ha": 1477.44}}, {"type": "Feature", "geometry": {"type": "Polygon", "coordinates": [[[76.38767873111898, 31.318393130882043], [76.3876628556097, 31.31731071602817], [76.38892367062067, 31.31729708102165], [76.38890778155522, 31.316214666554878], [76.38764698095648, 31.316228300984378], [76.38763110715931, 31.31514588575065], [76.38510953221753, 31.315173116332854], [76.38507784483255, 31.31300828299086], [76.3863386039103, 31.31299467503878], [76.38635446158557, 31.314077091228786], [76.38761523421812, 31.314063470327007], [76.38763110715931, 31.31514588575065], [76.39015267867708, 31.315118605671426], [76.3901208760096, 31.31295377694322], [76.39138163166213, 31.312940119498364], [76.39141346315004, 31.315104947070505], [76.39267424676466, 31.315091276095412], [76.39269017820743, 31.31617368901797], [76.39395097537424, 31.316160005089635], [76.39396692208823, 31.31724241724311], [76.39270611050935, 31.31725610175055], [76.39269017820743, 31.31617368901797], [76.39142938018146, 31.31618736057164], [76.39144529807128, 31.31726977388281], [76.38892367062067, 31.31729708102165], [76.38893956054298, 31.318379495298487], [76.38767873111898, 31.318393130882043]], [[76.39016858129713, 31.31620101975061], [76.39142938018146, 31.31618736057164], [76.39141346315004, 31.315104947070505], [76.39015267867708, 31.315118605671426], [76.39016858129713, 31.31620101975061]]]}, "properties": {"hazard_class": 3, "hazard_name": "Significant", "area_ha": 17.28}}, {"type": "Feature", "geometry": {"type": "Polygon", "coordinates": [[[76.36873486968564, 31.316431332437055], [76.36867224426976, 31.312101635994793], [76.36993299998394, 31.312088189466575], [76.36996433982351, 31.314253036928907], [76.37122512351284, 31.314239576888312], [76.37125649555601, 31.31640442245237], [76.36873486968564, 31.316431332437055]]]}, "properties": {"hazard_class": 3, "hazard_name": "Significant", "area_ha": 8.64}}, {"type": "Feature", "geometry": {"type": "Polygon", "coordinates": [[[76.37525923262699, 31.331517838381217], [76.37524349106717, 31.330435420063726], [76.37272149542336, 31.330462419147203], [76.37267436236398, 31.32721515962883], [76.37393531734608, 31.32720166799068], [76.37391959360087, 31.326119248342444], [76.3751805333154, 31.32610574489533], [76.37516479599914, 31.325023325628635], [76.37642572044619, 31.32500981037363], [76.37633122787089, 31.318515294218333], [76.377592064972, 31.31850177001828], [76.37757630476827, 31.317419350567004], [76.37883712660613, 31.317405814563728], [76.37880557992386, 31.315240976237348], [76.37628399304704, 31.315268033578125], [76.37631548208053, 31.317432874194743], [76.37379383415859, 31.317459884323505], [76.37377811804262, 31.316377462967054], [76.37503892801507, 31.31636396466174], [76.37502319833472, 31.315281543686744], [76.37376240277416, 31.31529504142082], [76.37374668835317, 31.31421261968482], [76.37500746950258, 31.314199122521977], [76.37499174151864, 31.313116701167424], [76.37247020719312, 31.313143681977134], [76.37245450887652, 31.312061259290896], [76.37497601438285, 31.312034279623077], [76.37499174151864, 31.313116701167424], [76.37877403664385, 31.31307613715167], [76.3787898078586, 31.31415855678942], [76.38131136251128, 31.31413145109797], [76.38132716339845, 31.315213869398725], [76.38384874346457, 31.315186713062495], [76.38389623771342, 31.318433963377625], [76.3826354048696, 31.318447549457712], [76.38266704314238, 31.32061238320159], [76.38140618061679, 31.320625958054578], [76.38139037546864, 31.319543540703147], [76.38012952650556, 31.319557102605213], [76.38011373662373, 31.31847468449], [76.37885290122321, 31.318488233442153], [76.3789002301787, 31.321735488938376], [76.38016110882376, 31.32172193826605], [76.38017690126021, 31.322804355811677], [76.38143779347007, 31.322790792187835], [76.38146940973293, 31.324955625561543], [76.37894756679141, 31.324982742725926], [76.37899491106245, 31.328229994804694], [76.37773394505626, 31.328243536536984], [76.37770241019781, 31.326078700861768], [76.3751805333154, 31.32610574489533], [76.37521201049387, 31.32827058285921], [76.37647297819981, 31.3282570658885], [76.37652024359883, 31.331504319694698], [76.37525923262699, 31.331517838381217]], [[76.38009794759336, 31.31739226618493], [76.38135876772915, 31.317378705430666], [76.38132716339845, 31.315213869398725], [76.38006637208683, 31.31522742900525], [76.38009794759336, 31.31739226618493]], [[76.37502319833472, 31.315281543686744], [76.37628399304704, 31.315268033578125], [76.37626824980381, 31.31418561298511], [76.37500746950258, 31.314199122521977], [76.37502319833472, 31.315281543686744]]]}, "properties": {"hazard_class": 3, "hazard_name": "Significant", "area_ha": 84.96}}, {"type": "Feature", "geometry": {"type": "Polygon", "coordinates": [[[76.38258795385796, 31.315200297417796], [76.38257213855992, 31.314117879691427], [76.38131136251128, 31.31413145109797], [76.38129556247621, 31.313049032607385], [76.38003479998567, 31.313062591066224], [76.3800505856106, 31.314145010130655], [76.3787898078586, 31.31415855678942], [76.37877403664385, 31.31307613715167], [76.37499174151864, 31.313116701167424], [76.37497601438285, 31.312034279623077], [76.37371526205335, 31.312047775643492], [76.37369955017446, 31.31096535333818], [76.37496028809517, 31.310951857888952], [76.37497601438285, 31.312034279623077], [76.38127976329316, 31.31196661392693], [76.38129556247621, 31.313049032607385], [76.38381708490043, 31.313021878569682], [76.38380125689875, 31.31193946103845], [76.38506200242163, 31.311925866035025], [76.38504616086503, 31.310843448889308], [76.38630689112514, 31.310829842089067], [76.38632274709018, 31.31191225865887], [76.38758349090361, 31.311898638909994], [76.3875993621329, 31.312981054713465], [76.3888601194996, 31.312967422014932], [76.38884423386118, 31.311885006788426], [76.39136571720556, 31.311857705427368], [76.39138163166213, 31.312940119498364], [76.39390314039164, 31.31291276748932], [76.39391908452599, 31.313995180212736], [76.392658316181, 31.31400886298288], [76.39267424676466, 31.315091276095412], [76.39141346315004, 31.315104947070505], [76.39138163166213, 31.312940119498364], [76.3901208760096, 31.31295377694322], [76.39013677691459, 31.31403619140229], [76.38887600599472, 31.314049837051503], [76.3888918933466, 31.31513225189815], [76.38763110715931, 31.31514588575065], [76.3875993621329, 31.312981054713465], [76.3863386039103, 31.31299467503878], [76.38632274709018, 31.31191225865887], [76.38506200242163, 31.311925866035025], [76.38509368809784, 31.3140906997568], [76.3838329137557, 31.314104295911022], [76.38384874346457, 31.315186713062495], [76.38258795385796, 31.315200297417796]]]}, "properties": {"hazard_class": 1, "hazard_name": "Low", "area_ha": 31.68}}]}