{"type": "FeatureCollection", "features": [{"type": "Feature", "geometry": {"type": "Polygon", "coordinates": [[[78.41655169554039, 30.480338845784367], [78.4165874264449, 30.478986634181496], [78.4150262150188, 30.478955678321586], [78.41509771263111, 30.47625125748557], [78.41353654669086, 30.476220286292257], [78.41357231339444, 30.47486807705999], [78.41669460463672, 30.474929997461615], [78.41662315492903, 30.47763442226007], [78.41818434724249, 30.477665357797388], [78.41811293092135, 30.48036978464513], [78.41655169554039, 30.480338845784367]]]}, "properties": {"hazard_class": 3, "hazard_name": "Significant", "area_ha": 13.5}}, {"type": "Feature", "geometry": {"type": "Polygon", "coordinates": [[[78.55207109084242, 30.370655955293028], [78.55210480066366, 30.36930357992021], [78.5505451719423, 30.369274341389467], [78.55061262757421, 30.36656959284986], [78.55217221344951, 30.366598828232547], [78.55223961709399, 30.363894075288993], [78.5537991624141, 30.363923288941482], [78.55369811778237, 30.36798042260473], [78.55525772964945, 30.368009622390662], [78.55522406496172, 30.369362001222576], [78.55366443167061, 30.369332799864605], [78.55363074327471, 30.370685176810518], [78.55207109084242, 30.370655955293028]]]}, "properties": {"hazard_class": 3, "hazard_name": "Significant", "area_ha": 18.0}}, {"type": "Feature", "geometry": {"type": "Polygon", "coordinates": [[[78.32281459491989, 30.59479302373366], [78.32285179053812, 30.59344093788763], [78.32441471818153, 30.593473105319315], [78.32456338889081, 30.58806475181948], [78.32612623245717, 30.588096893619287], [78.32627477635319, 30.582688528077135], [78.32783753586327, 30.582720644253733], [78.32787464391507, 30.581368550341963], [78.32943738429788, 30.581400646064886], [78.32954862847609, 30.577344357237504], [78.33111130646036, 30.577376429070178], [78.331185413432, 30.57467223147126], [78.33274805065908, 30.574704281138107], [78.33278507875238, 30.573352180137963], [78.33122246315583, 30.5733201321892], [78.33125951037188, 30.571968032585428], [78.3281343299613, 30.57190388394774], [78.32824558631964, 30.56784759352304], [78.32668306475658, 30.567815496279174], [78.32686854991897, 30.561055014406755], [78.32843096338274, 30.561087103046713], [78.32850509664108, 30.558382904604116], [78.33006746938447, 30.5584149710876], [78.3300304256241, 30.559767072189345], [78.33159282248947, 30.55979912167609], [78.33155579783704, 30.561151224174818], [78.33624306831354, 30.561247265485857], [78.33631698542008, 30.558543049867126], [78.33787937068718, 30.558575022772875], [78.33810093230917, 30.550462357915485], [78.33966319041714, 30.550494301824866], [78.33970008700027, 30.549142188177264], [78.34126232600131, 30.54917411166443], [78.34140980095121, 30.543765647012627], [78.33984764835536, 30.543733730374], [78.3398845324505, 30.542381615120043], [78.34144666344869, 30.542413530046634], [78.34159408848302, 30.537005058970866], [78.34315613560035, 30.5370369483498], [78.34319296403027, 30.53568482806716], [78.34475499205061, 30.535716697036168], [78.3447917963978, 30.534364574722694], [78.3463538053209, 30.534396423283706], [78.3463905855883, 30.53304429894051], [78.34795257541384, 30.533076127095477], [78.34798933160438, 30.53172400072366], [78.3495513023321, 30.53175580847453], [78.34958803444869, 30.530403680075185], [78.35114998607828, 30.530435467423903], [78.35118669412383, 30.529083336998134], [78.35274862665501, 30.52911510394664], [78.35282199212597, 30.526410838723763], [78.35438388397718, 30.526442583570546], [78.3544205414071, 30.525090448774584], [78.35129680334796, 30.52502694379604], [78.35133350145232, 30.523674812087098], [78.35445719635484, 30.52373831365792], [78.35449384882057, 30.5223861782206], [78.35605567841854, 30.52241789926744], [78.35609230682681, 30.521065761807186], [78.35921593031094, 30.52112914442934], [78.3592525130902, 30.51977700324703], [78.3623761033345, 30.519840307715047], [78.36241264049019, 30.5184881628149], [78.36553619748476, 30.518551389136036], [78.36557268902226, 30.51719924052227], [78.36713444965491, 30.51723082395637], [78.36717091715056, 30.515878673327226], [78.36873265868195, 30.515910236380563], [78.36876910213866, 30.514558083737146], [78.37033082456848, 30.51458962641167], [78.37036724398916, 30.513237471755083], [78.37192894731716, 30.513268994052737], [78.37196534270473, 30.511916837384106], [78.3735270269306, 30.511948339306812], [78.37356339828797, 30.510596180627225], [78.38137174850714, 30.510753401552627], [78.38144426819532, 30.508049066355365], [78.38300590248407, 30.508080451123362], [78.38311459891871, 30.504023940875154], [78.38623774549255, 30.50408664426975], [78.38627392961433, 30.50273447018142], [78.3909586031774, 30.502828380146756], [78.39113916372334, 30.496067479704674], [78.39270061870165, 30.496098737279855], [78.39277278270254, 30.493394371510515], [78.39433419702667, 30.49342560705879], [78.39437025381444, 30.492073422017885], [78.39593164903381, 30.49210463721949], [78.39600371219322, 30.48940026282755], [78.39288101037596, 30.48933782046149], [78.39291708138023, 30.487985636139836], [78.40228508684802, 30.488172729179166], [78.40246475906767, 30.481411752548357], [78.40402599414624, 30.481442861033138], [78.40406189975366, 30.48009066307921], [78.4056231157297, 30.480121751232137], [78.40569487658293, 30.477417351028052], [78.40413370367212, 30.47738626621459], [78.40420549786305, 30.474681868074377], [78.40264437044328, 30.474650767943167], [78.4027880157478, 30.46924197451831], [78.40434905706677, 30.469273067967475], [78.40438494078973, 30.46792086714363], [78.40594596301801, 30.467951940270353], [78.40598182278984, 30.46659973745833], [78.41534787800262, 30.466785774524922], [78.41531214735525, 30.46813798733203], [78.42155631868044, 30.46826164565255], [78.42159196324208, 30.46690942620207], [78.42315299059246, 30.466940292491167], [78.42322422943238, 30.464235849318715], [78.42634620529235, 30.464297519312904], [78.42638177805745, 30.46294529393587], [78.42482081043937, 30.462914469920165], [78.4249631634577, 30.457505571854956], [78.42340228430673, 30.45747473581824], [78.42347348936923, 30.454770288190545], [78.42191265564941, 30.45473943682448], [78.42201950967048, 30.45068276797011], [78.42045874288108, 30.450651902937434], [78.42049437756448, 30.449299681008323], [78.43141964519204, 30.449515333199756], [78.43145512694919, 30.448163099362432], [78.4376981039371, 30.448285912512418], [78.43773349728615, 30.446933671756533], [78.43617277093935, 30.44690299807622], [78.43620818339005, 30.445550758651226], [78.43152608325137, 30.44545863073407], [78.4315615577967, 30.444106395943045], [78.42687954378508, 30.444014105255636], [78.42702167585873, 30.438605182754426], [78.4285822588145, 30.438635958334636], [78.4286177643237, 30.437283725260038], [78.42705720285811, 30.43725295133418], [78.42719928678368, 30.431844022473644], [78.42875976230299, 30.43187478978253], [78.42879525578415, 30.43052255511844], [78.43035571222575, 30.43055330214764], [78.4303911818201, 30.429201065512586], [78.4350725011158, 30.42929318989248], [78.43514330421559, 30.426588705762867], [78.43358290500888, 30.42655801956111], [78.43361832443793, 30.42520577866977], [78.43517870216697, 30.42523646322157], [78.43521409771952, 30.423884220362616], [78.43677445637104, 30.423914884643548], [78.43680982805, 30.422562639818103], [78.4383701676237, 30.422593283830086], [78.438405515432, 30.421241037039252], [78.43996583592761, 30.421271660784246], [78.44000115986812, 30.419919412029106], [78.44624237988612, 30.420041714238195], [78.44627761554807, 30.41868945858867], [78.44783790505494, 30.41871998595277], [78.44787311685887, 30.417367728344267], [78.44943338728207, 30.417398235449888], [78.44953894397432, 30.413341455799294], [78.44797873795297, 30.41331095361547], [78.44815472539237, 30.40654965605695], [78.44971482410632, 30.40658015003869], [78.44964447920596, 30.4092846732943], [78.45120462322261, 30.409315151945872], [78.45113431171052, 30.41201967721188], [78.45269450103477, 30.41205014052934], [78.45265936316906, 30.41340240432522], [78.45577979189025, 30.413463278394786], [78.45592015736334, 30.408054208213493], [78.45748028944116, 30.40808461078513], [78.4576205310355, 30.402675528991796], [78.45918057966117, 30.40270590641599], [78.45925064329514, 30.400001360349922], [78.46081065138951, 30.400031715901353], [78.46084565819397, 30.398679440760052], [78.46240564721037, 30.398709776074828], [78.46251058904309, 30.394652943854663], [78.46407051608631, 30.39468325567281], [78.46410547050979, 30.39333097600187], [78.46566537847713, 30.39336126758934], [78.46570030908724, 30.392008985971945], [78.4672601979784, 30.39203925733065], [78.46729510477807, 30.39068697376791], [78.46885497459279, 30.39071722489983], [78.46888985758491, 30.389364939392834], [78.47044970832292, 30.3893951702999], [78.47048456751038, 30.388042882849735], [78.47204439917141, 30.388073093533894], [78.47207923455711, 30.386720804141657], [78.4736390471409, 30.386750994604846], [78.47367385872775, 30.38539870327165], [78.47523365223401, 30.3854288735158], [78.47530322545754, 30.382724286653485], [78.47686297845124, 30.38275443505801], [78.47696725630516, 30.378697547525555], [78.47852694735957, 30.378727672473115], [78.47859641129043, 30.376023075961392], [78.47703676309276, 30.37599295425653], [78.47707151295245, 30.374640657147832], [78.47395226647859, 30.374580361220964], [78.47412619465793, 30.36781888716255], [78.47724522691537, 30.367879166862906], [78.4772799626418, 30.366526867857708], [78.47883946088656, 30.366556978214504], [78.47887417284187, 30.365204677272267], [78.48043365202409, 30.36523476742839], [78.48057239066154, 30.359825554020148], [78.47901299712954, 30.359795470343496], [78.47908239515516, 30.357090864983356], [78.48064174587074, 30.357120945420522], [78.48067641994842, 30.35576864064687], [78.48379508561936, 30.355828742563318], [78.48386434110535, 30.35312412559595], [78.48230504990332, 30.353094087159402], [78.4823396955263, 30.35174177981961], [78.48078042807546, 30.351711724430675], [78.48084975507318, 30.34900711204063], [78.47929053277205, 30.348977041320847], [78.47939456982847, 30.344920125225176], [78.48095372794191, 30.344950191086856], [78.48102303143746, 30.342245575538666], [78.48258214911611, 30.342275619598993], [78.48261677594897, 30.340923309733043], [78.48417587458556, 30.340953333613257], [78.48424507843053, 30.338248709699922], [78.48580413663717, 30.33827871178584], [78.4859769982729, 30.331517138398716], [78.48441804698255, 30.331487144392696], [78.48445263365512, 30.330134830384385], [78.48601156356655, 30.330164822774563], [78.486046126516, 30.328812506834847], [78.487605037394, 30.32884247905607], [78.48767411351002, 30.326137843000524], [78.48611524538288, 30.326107874008784], [78.486322545737, 30.317993967958397], [78.4847638081707, 30.31796399010894], [78.48479837139296, 30.316611672945104], [78.48635708759481, 30.316641649179147], [78.48642616428205, 30.313937010674316], [78.48798484010194, 30.313966965135496], [78.48805386469985, 30.31126232214039], [78.48961250014156, 30.31129225483279], [78.48964698757167, 30.309939931248987], [78.4912056039952, 30.309969843788814], [78.4914123513404, 30.301855885992385], [78.49297084198564, 30.30188577032643], [78.49293641128719, 30.303238099024867], [78.49449492561722, 30.303267966435296], [78.49435726487621, 30.30867728451741], [78.49279866513491, 30.308647410666747], [78.49266088160259, 30.31405671726516], [78.49110219876366, 30.314026818431017], [78.49106772567686, 30.31537914268115], [78.4895090238142, 30.315349223692238], [78.4894055264285, 30.319406189713487], [78.4909642923857, 30.319436113539677], [78.49065386620407, 30.331607009085594], [78.4890949078851, 30.331577070745265], [78.48895679432788, 30.33698634300185], [78.4905158381786, 30.337016287794032], [78.4904468101233, 30.33972092525544], [78.48888772349801, 30.33969097723706], [78.48881864329921, 30.342395610210115], [78.48725951623607, 30.34236564040207], [78.48722495123076, 30.34371795480102], [78.48566580511948, 30.343687964814507], [78.48563121637656, 30.345040277282557], [78.48407205121741, 30.345010267115644], [78.48393358719963, 30.350419507365498], [78.48549283794685, 30.350449523997987], [78.48545823747423, 30.351801834887606], [78.48701751196846, 30.351831834566482], [78.48698293055173, 30.353184146755915], [78.4885422287932, 30.353214129479127], [78.4884039652986, 30.358623381538564], [78.48528519991339, 30.35856338459967], [78.48507747738739, 30.366677233833663], [78.48351796973682, 30.366647197800273], [78.48348331968118, 30.36799950328357], [78.481923792962, 30.367969447051163], [78.4818891191376, 30.3693217506005], [78.48032957335006, 30.369291674167116], [78.48029487575401, 30.37064397578141], [78.47873531089839, 30.370613879145115], [78.47870058952778, 30.371966178823257], [78.48026017580538, 30.371996277079713], [78.48019076884985, 30.374700878728294], [78.48175040032876, 30.374730961638367], [78.48164633653147, 30.378787866599037], [78.48320603464607, 30.378817935777185], [78.4831366898851, 30.381522540741127], [78.48781592691768, 30.38161264643382], [78.48785053617546, 30.380260339260467], [78.50500768323388, 30.380589277468918], [78.50504205439158, 30.37923695227613], [78.50660178761119, 30.37926674259384], [78.5066361350072, 30.377914415482305], [78.50819584912388, 30.37794418560616], [78.50823017276109, 30.37659185657698], [78.5129092647768, 30.376681050603597], [78.51287500543097, 30.378033384433774], [78.51443472884753, 30.378063080194682], [78.5144004886111, 30.379415415308106], [78.5237590064037, 30.379593209028698], [78.5237931180442, 30.378240864346], [78.52535285767966, 30.37827042996796], [78.52542103116102, 30.375565736475433], [78.52698073024551, 30.375595280325076], [78.52701479209085, 30.37424293151642], [78.52857447205578, 30.37427245518704], [78.52860851016419, 30.372920104474442], [78.53172783416073, 30.372979092873564], [78.53176182710872, 30.371626738670955], [78.5364407661063, 30.371715077103413], [78.53650861654135, 30.369010358243905], [78.53962783501142, 30.369069151265148], [78.53966171393344, 30.36771678819867], [78.54122130519217, 30.36774615524997], [78.54125516039574, 30.366393790288164], [78.54281473252856, 30.366423137174802], [78.54284856401658, 30.36507077031877], [78.55220591641435, 30.365246451917756], [78.55217221344951, 30.366598828232547], [78.55061262757421, 30.36656959284986], [78.5505451719423, 30.369274341389467], [78.55210480066366, 30.36930357992021], [78.55207109084242, 30.370655955293028], [78.54895179283646, 30.370597456496146], [78.54891803787629, 30.371949828405704], [78.54579870617219, 30.37189125210702], [78.5457649060677, 30.373243620549136], [78.54420522222485, 30.373214302939658], [78.54417139839953, 30.374566669489372], [78.54105199473733, 30.37450797534455], [78.54101812575804, 30.375860338420495], [78.53945840594055, 30.375830961882308], [78.5393906182281, 30.37853568392853], [78.53159183931888, 30.378388506538066], [78.5315578348453, 30.379740859167665], [78.52999806454015, 30.37971136632561], [78.52996403632595, 30.38106371705315], [78.52840424689279, 30.3810342040297], [78.52837019493508, 30.382386552854097], [78.5268103863742, 30.382357019647316], [78.52677631067007, 30.383709366567466], [78.52521648298169, 30.38367981317541], [78.52518238352825, 30.385032158190224], [78.51582333736337, 30.384854437767913], [78.51585756544836, 30.383502102317404], [78.51117813798781, 30.383412995853487], [78.51110955086499, 30.386117656847965], [78.50954970348218, 30.38608791430248], [78.50951538499265, 30.38744024272623], [78.50795551849585, 30.38741047998243], [78.50792117623774, 30.388762806489208], [78.50948106417648, 30.388792570834696], [78.50944674103354, 30.39014489862784], [78.50476701987365, 30.390055544987575], [78.50469823793435, 30.39276019001122], [78.50313829265127, 30.392730365055975], [78.50320711748093, 30.390025723241905], [78.5016472174209, 30.389995882896947], [78.50168164777946, 30.388643563122386], [78.50012177149632, 30.388613705784966], [78.50015622096213, 30.38726138730157], [78.4985963684556, 30.38723151297373], [78.49863083702576, 30.385879195782415], [78.49707100829556, 30.385849304466216], [78.4969330342267, 30.391258564903037], [78.49537312206823, 30.391228648552147], [78.49533860125952, 30.392580961262404], [78.49377866999603, 30.392551024700914], [78.49391682496251, 30.38714177840864], [78.49079714100374, 30.387081862381603], [78.4907625628931, 30.38843417120393], [78.49232242514165, 30.38846414012842], [78.492253304773, 30.391168760051084], [78.49069339963916, 30.391138787901102], [78.49062422700743, 30.39384340333492], [78.48750433799316, 30.393783396779273], [78.48740043276602, 30.39784030787438], [78.48896044044677, 30.397870325297717], [78.48892582212699, 30.399222629979164], [78.48580576621, 30.399162573297154], [78.48577110263713, 30.40051487443153], [78.48109097202881, 30.400424645015583], [78.48105624174327, 30.40177694097957], [78.4794961814594, 30.401746825675545], [78.47935715094279, 30.407155999888698], [78.48091729705733, 30.407186121673586], [78.48088255499924, 30.40853841605656], [78.47776222220394, 30.408478150634316], [78.47772743486556, 30.409830441459302], [78.47616725054142, 30.409800279208202], [78.47606280998187, 30.413857144917753], [78.47450256362141, 30.413826959183677], [78.47443288184509, 30.41653153149421], [78.4728725949084, 30.416501323895506], [78.47283772900708, 30.417853607951425], [78.4712774229626, 30.417823380109688], [78.4712425332259, 30.419175662223417], [78.4696822080739, 30.419145414136693], [78.46964729449893, 30.420497694307134], [78.46808695023967, 30.42046742597348], [78.46801707303948, 30.423171982108826], [78.46645668819706, 30.42314169189751], [78.46642172456733, 30.42449396786129], [78.46486132061689, 30.42446365739812], [78.46479134328905, 30.427168205115574], [78.46011001679351, 30.42707715219754], [78.46003990108633, 30.429781688855655], [78.45847942070654, 30.429751297365613], [78.45844433780482, 30.431103563585154], [78.45688383831838, 30.43107315183356], [78.45684873155354, 30.43242541610093], [78.45528821296071, 30.43239498408581], [78.45525308232985, 30.433747246399946], [78.45213200931416, 30.43368632320958], [78.45209683332632, 30.435038581931174], [78.45053627890533, 30.43500809075309], [78.45050107904436, 30.436360347518185], [78.4489405055194, 30.436329836069863], [78.44890528178233, 30.437682090877363], [78.4473446891537, 30.437651559156844], [78.44737993438129, 30.436299305990637], [78.44581936563148, 30.436268757280626], [78.44578409891348, 30.437621008804523], [78.44422351106317, 30.437590439820525], [78.44418822046356, 30.438942689383655], [78.44262761351301, 30.43891210012371], [78.44259229902889, 30.440264347724955], [78.43947104932238, 30.440203110015943], [78.43936496253664, 30.444259841038527], [78.44092565067963, 30.444290474149177], [78.44078425408485, 30.44969945098527], [78.44234503062636, 30.449730072042087], [78.44227436096708, 30.452434561845788], [78.4360310971394, 30.45231195259843], [78.43599567268943, 30.453664190434484], [78.43131318549474, 30.453572032804168], [78.43127769411988, 30.45492426536975], [78.42815600499512, 30.454862730428697], [78.42797829692425, 30.46162387195175], [78.42953924784427, 30.461654657014225], [78.42939712411244, 30.467063571123777], [78.4278360871176, 30.467032779444395], [78.42780052864396, 30.468385005522233], [78.42623947253583, 30.468354193534946], [78.42620389012947, 30.469706417639234], [78.42464281490835, 30.46967558534207], [78.42460720856634, 30.471027807471724], [78.41524067879821, 30.470842411990706], [78.41513345780487, 30.474899046589695], [78.41357231339444, 30.47486807705999], [78.41364383953314, 30.472163657639644], [78.40896055000904, 30.472070647098242], [78.40892472357116, 30.473422851971144], [78.40736361038874, 30.473391809478965], [78.40725605192415, 30.477448417182337], [78.40881722969436, 30.477479464677373], [78.40867387053942, 30.48288827715626], [78.40711260663176, 30.482857222990113], [78.4070767392352, 30.484209423644963], [78.4055154562192, 30.484178349146664], [78.40540777482855, 30.488234944191042], [78.40696912246685, 30.488266023696283], [78.40686148382765, 30.49232262087757], [78.40530007155391, 30.49229153636498], [78.40526416559861, 30.493643733118365], [78.40370273420892, 30.4936126282654], [78.40366680427215, 30.494964823029555], [78.398982460063, 30.494871391427893], [78.39887446168173, 30.49892795875499], [78.40043597197092, 30.49895912631415], [78.40039998918847, 30.500311316458244], [78.3988384573445, 30.50028014722564], [78.39880245056862, 30.50163233537708], [78.3972408996072, 30.501601145794222], [78.39720486883496, 30.5029533319519], [78.39564329875637, 30.502922122016855], [78.39560724398488, 30.50427430617968], [78.39404565478938, 30.504243075890496], [78.3939734947985, 30.506947439904845], [78.39241186492487, 30.5069161875819], [78.39237575970095, 30.508268367432258], [78.39081411070967, 30.508237094750235], [78.39077798147615, 30.50958927260238], [78.38921631336751, 30.509557979559332], [78.38918016012146, 30.510910155412144], [78.38761847289574, 30.510878842006136], [78.38758229563426, 30.51223101585854], [78.38445888540076, 30.512168329632747], [78.38442266255285, 30.5135204998007], [78.38286093954697, 30.51348912697807], [78.38282469267646, 30.514841295142357], [78.38126295055595, 30.514809901950024], [78.38119040630758, 30.517514233949193], [78.37806684315173, 30.51745138476161], [78.37803052419598, 30.51880354690823], [78.37646872473326, 30.518772092595135], [78.37639603629208, 30.521476412552204], [78.37014869046567, 30.52135039489216], [78.37011225624423, 30.52270254762771], [78.36855040437497, 30.5226709947944], [78.3685139461079, 30.524023145516434], [78.36382834058432, 30.523928369786162], [78.36375528716187, 30.52663266009726], [78.36219338043868, 30.5266010274093], [78.36215682843505, 30.527953170386795], [78.36059490260487, 30.52792151730697], [78.36055832654262, 30.5292736582655], [78.35899638160575, 30.529241984791906], [78.35892317887979, 30.531946262348217], [78.35736119325041, 30.53191456677832], [78.35728793743387, 30.534618839650914], [78.34947783063703, 30.534460064310572], [78.34936760443746, 30.53851644565786], [78.34780552576167, 30.53848462937332], [78.34773198599954, 30.541188878586404], [78.35241835905855, 30.54128428157052], [78.35238165023412, 30.54263641081346], [78.3461330714117, 30.542509162601704], [78.34605947351288, 30.545213406472712], [78.34762165768305, 30.54524524999853], [78.34747451839822, 30.550653740720232], [78.34591224781471, 30.55062189036171], [78.34587543516004, 30.551974010531193], [78.34431314546187, 30.551942139753002], [78.34427630870657, 30.553294257892023], [78.34271399989404, 30.55326236669221], [78.3426402756808, 30.555966598585847], [78.34107792614324, 30.55593468525103], [78.34089346385647, 30.562695250805167], [78.33933100874022, 30.56266331019339], [78.33929408717029, 30.56401542062749], [78.33616914119855, 30.563951479818662], [78.33613217388753, 30.56530358650282], [78.33144470884025, 30.56520752974124], [78.33133359728116, 30.569263832412798], [78.33289614799493, 30.569295875207537], [78.33285912742016, 30.570647977172655], [78.3344217022661, 30.57068000296077], [78.334199655974, 30.57879261829931], [78.33263695133967, 30.57876058220846], [78.33248878381637, 30.5841689791316], [78.32780042529974, 30.58407273784363], [78.32761483480104, 30.59083320096449], [78.3260519454271, 30.59080107445858], [78.32597764834075, 30.5935052540099], [78.32441471818153, 30.593473105319315], [78.32437754421503, 30.594825192889154], [78.32281459491989, 30.59479302373366]]]}, "properties": {"hazard_class": 4, "hazard_name": "Extreme", "area_ha": 3676.5}}]}