{"type": "FeatureCollection", "features": [{"type": "Feature", "geometry": {"type": "Polygon", "coordinates": [[[78.32281459491989, 30.59479302373366], [78.32288898363909, 30.592088851719517], [78.32445188963221, 30.592121017427424], [78.32456338889081, 30.58806475181948], [78.32612623245717, 30.588096893619287], [78.32627477635319, 30.582688528077135], [78.32783753586327, 30.582720644253733], [78.32787464391507, 30.581368550341963], [78.32943738429788, 30.581400646064886], [78.32954862847609, 30.577344357237504], [78.33111130646036, 30.577376429070178], [78.331185413432, 30.57467223147126], [78.33274805065908, 30.574704281138107], [78.33278507875238, 30.573352180137963], [78.33122246315583, 30.5733201321892], [78.33125951037188, 30.571968032585428], [78.3281343299613, 30.57190388394774], [78.32817141792447, 30.57055178746129], [78.32660885311145, 30.570519686775523], [78.32686854991897, 30.561055014406755], [78.32843096338274, 30.561087103046713], [78.32850509664108, 30.558382904604116], [78.33006746938447, 30.5584149710876], [78.3300304256241, 30.559767072189345], [78.33159282248947, 30.55979912167609], [78.33155579783704, 30.561151224174818], [78.33624306831354, 30.561247265485857], [78.33639089251936, 30.555838832962557], [78.33795323456107, 30.555870802439276], [78.33810093230917, 30.550462357915485], [78.33966319041714, 30.550494301824866], [78.33970008700027, 30.549142188177264], [78.34126232600131, 30.54917411166443], [78.34137293595788, 30.5451177636574], [78.33981076176292, 30.54508584530672], [78.3398845324505, 30.542381615120043], [78.34144666344869, 30.542413530046634], [78.34159408848302, 30.537005058970866], [78.34315613560035, 30.5370369483498], [78.34319296403027, 30.53568482806716], [78.34475499205061, 30.535716697036168], [78.3447917963978, 30.534364574722694], [78.3463538053209, 30.534396423283706], [78.3463905855883, 30.53304429894051], [78.34795257541384, 30.533076127095477], [78.34798933160438, 30.53172400072366], [78.3495513023321, 30.53175580847453], [78.34958803444869, 30.530403680075185], [78.35114998607828, 30.530435467423903], [78.35126010275852, 30.526379075184202], [78.35282199212597, 30.526410838723763], [78.3528586711357, 30.525058705631192], [78.35129680334796, 30.52502694379604], [78.35133350145232, 30.523674812087098], [78.35289534766183, 30.523706572217886], [78.35293202170448, 30.52235443848388], [78.35605567841854, 30.52241789926744], [78.35609230682681, 30.521065761807186], [78.35921593031094, 30.52112914442934], [78.3592525130902, 30.51977700324703], [78.3623761033345, 30.519840307715047], [78.36241264049019, 30.5184881628149], [78.36553619748476, 30.518551389136036], [78.36557268902226, 30.51719924052227], [78.36713444965491, 30.51723082395637], [78.36717091715056, 30.515878673327226], [78.36873265868195, 30.515910236380563], [78.36876910213866, 30.514558083737146], [78.37033082456848, 30.51458962641167], [78.37036724398916, 30.513237471755083], [78.37192894731716, 30.513268994052737], [78.37196534270473, 30.511916837384106], [78.3735270269306, 30.511948339306812], [78.37356339828797, 30.510596180627225], [78.38137174850714, 30.510753401552627], [78.38144426819532, 30.508049066355365], [78.38300590248407, 30.508080451123362], [78.38311459891871, 30.504023940875154], [78.38467617097955, 30.50405530191136], [78.3847123766592, 30.502703129505626], [78.3909586031774, 30.502828380146756], [78.39117526849546, 30.494715298657987], [78.39273670192405, 30.49474655455486], [78.39280886103727, 30.49204218814684], [78.39593164903381, 30.49210463721949], [78.39596768183381, 30.49075245018314], [78.39440630816006, 30.49072123665771], [78.39444236006365, 30.489369050978247], [78.39131966313163, 30.4893065712774], [78.39135575567832, 30.487954388633835], [78.40228508684802, 30.488172729179166], [78.40235696303829, 30.485468339483862], [78.40079566578117, 30.485437207321446], [78.40086757531105, 30.48273281969394], [78.40242882949184, 30.482763948512513], [78.40246475906767, 30.481411752548357], [78.40402599414624, 30.481442861033138], [78.40406189975366, 30.48009066307921], [78.4056231157297, 30.480121751232137], [78.40569487658293, 30.477417351028052], [78.40413370367212, 30.47738626621459], [78.40420549786305, 30.474681868074377], [78.40264437044328, 30.474650767943167], [78.40282392099235, 30.467889775364856], [78.40438494078973, 30.46792086714363], [78.40442082208179, 30.46656866600096], [78.41690889568527, 30.46681671542212], [78.41687318655912, 30.468168929891572], [78.41999527222318, 30.468230759051924], [78.42003093830644, 30.466878541260794], [78.42315299059246, 30.466940292491167], [78.42322422943238, 30.464235849318715], [78.42478521615658, 30.464266693641], [78.42489199177083, 30.460210021523924], [78.42333106959494, 30.46017918217312], [78.42347348936923, 30.454770288190545], [78.42191265564941, 30.45473943682448], [78.42194827606976, 30.453387214191245], [78.42038746627054, 30.45335634584091], [78.42049437756448, 30.449299681008323], [78.42361587055075, 30.449361389117012], [78.42365145981704, 30.448009163553234], [78.42677291944602, 30.448070793792436], [78.42673737318296, 30.449423022668626], [78.42985888544952, 30.44948458166235], [78.42989438870877, 30.44813234947774], [78.4345766106408, 30.448224543215396], [78.43461204699213, 30.44687230575783], [78.43305132544594, 30.44684159480146], [78.43308678089574, 30.4454893586767], [78.42996538801083, 30.445427884154658], [78.43000088405388, 30.444075651016206], [78.42687954378508, 30.444014105255636], [78.42691508041518, 30.442661875107326], [78.42535443538797, 30.442631075929317], [78.42538999110461, 30.4412788471185], [78.4269506146374, 30.441309644641013], [78.42709272745016, 30.43590071959596], [78.42553218988051, 30.43586992869495], [78.425603274816, 30.433165467575147], [78.42716376941279, 30.43319625516568], [78.42719928678368, 30.431844022473644], [78.42875976230299, 30.43187478978253], [78.42879525578415, 30.43052255511844], [78.43035571222575, 30.43055330214764], [78.4303911818201, 30.429201065512586], [78.43351205894939, 30.429262500390692], [78.43365374146671, 30.42385353746073], [78.43521409771952, 30.423884220362616], [78.4352494908734, 30.42253197718605], [78.4383701676237, 30.422593283830086], [78.438405515432, 30.421241037039252], [78.43996583592761, 30.421271660784246], [78.44000115986812, 30.419919412029106], [78.44624237988612, 30.420041714238195], [78.44627761554807, 30.41868945858867], [78.44783790505494, 30.41871998595277], [78.44794353330775, 30.41466321217561], [78.44950376079493, 30.414693716000006], [78.44953894397432, 30.413341455799294], [78.44797873795297, 30.41331095361547], [78.44811953267559, 30.407901916202977], [78.44655941488847, 30.40787140197113], [78.4465946290637, 30.40651914346641], [78.44971482410632, 30.40658015003869], [78.44967965284813, 30.407932411825055], [78.45123977540462, 30.407962888837243], [78.45116946865797, 30.410667414737425], [78.45272963651901, 30.41069787641642], [78.45269450103477, 30.41205014052934], [78.45425469274049, 30.412080585233717], [78.4543249184024, 30.409376053415944], [78.45588506956264, 30.409406476234246], [78.45599032583043, 30.40534967122119], [78.45755041499119, 30.405380070522217], [78.45765558549336, 30.40132325775131], [78.45921561266543, 30.401353633541344], [78.45925064329514, 30.400001360349922], [78.46081065138951, 30.400031715901353], [78.4609156646845, 30.39597488952728], [78.46247561080335, 30.396005221578058], [78.46251058904309, 30.394652943854663], [78.46407051608631, 30.39468325567281], [78.46414042256389, 30.391978696014313], [78.4672601979784, 30.39203925733065], [78.46729510477807, 30.39068697376791], [78.46885497459279, 30.39071722489983], [78.46892473821238, 30.38801265356939], [78.47204439917141, 30.388073093533894], [78.47207923455711, 30.386720804141657], [78.4736390471409, 30.386750994604846], [78.47370866795472, 30.384046411622194], [78.47526844002492, 30.384076580242773], [78.47533800853199, 30.381371992747997], [78.47689774009238, 30.38140213953002], [78.47703676309276, 30.37599295425653], [78.46767892343388, 30.375811833691248], [78.4677138018479, 30.37445954633123], [78.47083302943987, 30.374519990948503], [78.47086786264131, 30.373167700018644], [78.47242745855635, 30.373197892822795], [78.47246226797348, 30.37184559995147], [78.47402184482573, 30.37187577254612], [78.47416097321893, 30.366466591402382], [78.4772799626418, 30.366526867857708], [78.47731469601314, 30.365174568536435], [78.47887417284187, 30.365204677272267], [78.47894358969214, 30.36250007443984], [78.48050302604635, 30.362530161356126], [78.48053770952976, 30.361177857846105], [78.47897829458738, 30.361147772549653], [78.47901299712954, 30.359795470343496], [78.4774536059505, 30.359765368091153], [78.4774883275485, 30.358413067189808], [78.47904769731875, 30.35844316782139], [78.47911709063888, 30.355738561829373], [78.48223575160907, 30.355798700891555], [78.48230504990332, 30.353094087159402], [78.48074576105066, 30.353064030151938], [78.48078042807546, 30.351711724430675], [78.47922116297532, 30.35168165047195], [78.47929053277205, 30.348977041320847], [78.4777313128228, 30.348946952033348], [78.47780071600502, 30.346242344859544], [78.47624154120176, 30.346212240247215], [78.47627626065741, 30.34485993780778], [78.47939456982847, 30.344920125225176], [78.47946391610854, 30.342215512915516], [78.48102303143746, 30.342245575538666], [78.48105767966054, 30.340893267290905], [78.48261677594897, 30.340923309733043], [78.48289370608934, 30.330104819440194], [78.47665801931149, 30.329984590125076], [78.47669271052374, 30.32863228389518], [78.47981050645897, 30.328692432419604], [78.47984515256766, 30.32734012263339], [78.48140403268515, 30.327370167447793], [78.48136940795209, 30.328722478852768], [78.48448721798205, 30.32878251606049], [78.48462553183607, 30.32337325560908], [78.48306671114248, 30.32334325274848], [78.48310130511335, 30.321990938463333], [78.48154250813613, 30.32196091867138], [78.48157712112923, 30.32060860568819], [78.48469467469278, 30.320668623490068], [78.48472924260402, 30.319316306957262], [78.48317048601638, 30.319286308946293], [78.48327423977621, 30.31522936230407], [78.48483293227093, 30.31525935546578], [78.48490204699452, 30.31255471956069], [78.48646069911173, 30.312584690948736], [78.48652976174392, 30.309880050551335], [78.48497115234258, 30.30985008239374], [78.48500570150111, 30.308497763337094], [78.48656428954669, 30.30852772987954], [78.48659881500741, 30.30717540889234], [78.48971595541421, 30.30723528313542], [78.4898538630322, 30.30182598312487], [78.48829537706247, 30.30179606172401], [78.4883298694678, 30.300443737546107], [78.4867714071852, 30.300413799225876], [78.48680591859653, 30.299061476346555], [78.48524748000081, 30.299031521109008], [78.48528201041523, 30.29767919952917], [78.48372359550612, 30.29764922737636], [78.48375814492076, 30.296296907096945], [78.48843333264561, 30.296386763120747], [78.4884678156926, 30.295034437681778], [78.49002619494001, 30.295064351018564], [78.49006065430764, 30.29371202365167], [78.48850229640036, 30.29368211192756], [78.48853677476899, 30.292329785858108], [78.48386177910287, 30.29223994436642], [78.48389631914341, 30.290887622825533], [78.48077970975343, 30.290827639101867], [78.48081429012119, 30.289475320479717], [78.47925601027958, 30.28944530244919], [78.47932520664303, 30.28674066749561], [78.47776697181418, 30.286710634180352], [78.47787081274353, 30.282653684242277], [78.47942898358517, 30.282683712699427], [78.4794635712056, 30.281331393803196], [78.48102172306764, 30.281361402123366], [78.48105628701663, 30.2800090812935], [78.48573069269233, 30.280098990298082], [78.48576519032524, 30.278746664304265], [78.48732330890977, 30.27877659532417], [78.48746119075598, 30.273367281740512], [78.48434512648977, 30.273307414101346], [78.48437963373797, 30.271955088146573], [78.48593764338446, 30.271985029607237], [78.4860410871406, 30.267928045007036], [78.48759903518541, 30.26795796311487], [78.48770239395785, 30.263900970837213], [78.48147087153303, 30.263781206740802], [78.48150540500752, 30.262428881812202], [78.47838970046175, 30.262368891970944], [78.47842427420215, 30.261016569963406], [78.48465560744783, 30.261136469162025], [78.4846900936291, 30.259784140370822], [78.48936355422961, 30.25987386564744], [78.4894323917625, 30.257169197438493], [78.49254795863641, 30.257228915333876], [78.49258233130001, 30.25587657753501], [78.49569786490436, 30.255936218210262], [78.49576651804284, 30.25323153523225], [78.49420879267102, 30.253201727361297], [78.49424313704196, 30.251849387008523], [78.49268543529652, 30.251819562249256], [78.49271979863101, 30.250467223191013], [78.49583516186404, 30.250526850995247], [78.49580084111804, 30.251879193271126], [78.4973585475233, 30.251908981036973], [78.49732424574401, 30.25326132460547], [78.49888197577306, 30.253291095480837], [78.49877912036405, 30.25734812911735], [78.50033691661669, 30.257377886311126], [78.50030264812877, 30.258730231832786], [78.50497611473986, 30.25881939721814], [78.50518130741439, 30.250705290506716], [78.50673900646929, 30.250734965688654], [78.50680734287664, 30.24803025773306], [78.50836500166406, 30.24805991121801], [78.5083991450986, 30.246707555168378], [78.50995678491209, 30.246737188559578], [78.50999090473975, 30.24538483059642], [78.51777903206282, 30.245532712164863], [78.51781304313145, 30.244180345906724], [78.52248588336916, 30.24426884815444], [78.52245193616821, 30.245621219189022], [78.52712486100961, 30.245709559772262], [78.52722650410742, 30.24165243142466], [78.52566892405694, 30.24162300782152], [78.52570282177622, 30.24027063266606], [78.52414526531176, 30.24024119216131], [78.52417918201431, 30.23888881828098], [78.52106411856023, 30.23882988498391], [78.52109807552529, 30.237477513970582], [78.52265558481852, 30.237506988272415], [78.52268951819822, 30.236154615354252], [78.52424700851383, 30.236184069578727], [78.52421309641494, 30.237536444086786], [78.53044316580396, 30.237654082467806], [78.53040933653374, 30.239006463011794], [78.53196688090755, 30.239035827972387], [78.53206829798586, 30.23497868064464], [78.53362578080949, 30.235008022364468], [78.53365956063476, 30.23365563771077], [78.53677449060125, 30.23371426252724], [78.53680822557881, 30.232361874395384], [78.54615294272021, 30.232537295723734], [78.5461865477486, 30.231184897808824], [78.55241631970765, 30.231301469370802], [78.55248335272131, 30.228596660015622], [78.5540407588518, 30.228625753554137], [78.55410774022084, 30.225920939805555], [78.5556651060795, 30.22595001172236], [78.55569857208371, 30.224597602809034], [78.55725591894353, 30.22462665467675], [78.55728936140693, 30.223274243881967], [78.55884668926764, 30.22330327570252], [78.55888010819315, 30.221950863027367], [78.56043741705449, 30.22197987480271], [78.56057098501552, 30.21657021470847], [78.55901376121169, 30.216541209198727], [78.5590471687961, 30.215188794959612], [78.55748996852087, 30.215159772543434], [78.55752339509664, 30.213807359558817], [78.55440904387343, 30.213749262446136], [78.55447597524507, 30.21104444181324], [78.55603310720781, 30.211073496466994], [78.55616685768109, 30.205663845170772], [78.5577239069038, 30.205692875082743], [78.55779072602455, 30.20298804442208], [78.55934773501886, 30.203017052734513], [78.55938111993078, 30.201664635368232], [78.55782413218272, 30.201635628622675], [78.55785753607289, 30.200283212510566], [78.55474360987134, 30.200225146768176], [78.55477705397999, 30.198872733479938], [78.56100483048131, 30.19898878484886], [78.56103818735197, 30.197636364978887], [78.56259511590082, 30.19766533010442], [78.56262844926603, 30.196312908357132], [78.56574227067024, 30.19637078010174], [78.56577555929334, 30.195018354915565], [78.5688893472591, 30.19507614970114], [78.56892259114548, 30.193723721080225], [78.5720363456631, 30.19378143891405], [78.57206954481809, 30.192429006862586], [78.57362640422167, 30.19245783653559], [78.57365957988668, 30.191105402614276], [78.57521642030692, 30.191134212274058], [78.57524957248482, 30.189781776484015], [78.57680639392147, 30.189810566132497], [78.57683952261515, 30.188458128474792], [78.57839632506794, 30.188486898113922], [78.57849563396154, 30.18442957860502], [78.58005237497039, 30.184458325129917], [78.58001929548283, 30.185810766831654], [78.58157605996716, 30.18583949645787], [78.58154299946406, 30.18719193940003], [78.58309978742412, 30.187220652125525], [78.58333101522283, 30.17775353412058], [78.58488765683951, 30.177782217540674], [78.58492065918972, 30.176429769313764], [78.58647728182653, 30.176458432738333], [78.58651026071605, 30.1751059826505], [78.58806686437272, 30.175134626081515], [78.58809981980443, 30.173782174133855], [78.58965640448069, 30.17381079757322], [78.58968933645748, 30.172458343766824], [78.5912459021531, 30.1724869472165], [78.59127881067784, 30.17113449155247], [78.59439190634058, 30.171191640034426], [78.59442477020163, 30.169839180969877], [78.59598130016694, 30.16986772600501], [78.59617830921259, 30.161752955819498], [78.59773471414985, 30.161781473162623], [78.59796430818969, 30.152314216319876], [78.59640805165513, 30.152285709767668], [78.59644086308829, 30.15093324480055], [78.59488462997693, 30.150904721362632], [78.59495028854238, 30.148199793579114], [78.59339410004546, 30.148171254800815], [78.59345979207063, 30.1454663288584], [78.59501593818882, 30.145494864550212], [78.59508157891732, 30.142789934276017], [78.59352547517206, 30.142761401670523], [78.59372247094426, 30.134646612634914], [78.59216649651327, 30.13461807087242], [78.59223218627973, 30.13191314179114], [78.59378811836099, 30.131941680465985], [78.593886572764, 30.12788427987814], [78.59699831658534, 30.127941292735386], [78.59706385703598, 30.12523635128544], [78.59084054765228, 30.125122264275923], [78.59080769387204, 30.126474728984054], [78.58925185093555, 30.126446159666283], [78.58928472588251, 30.125093696503743], [78.58617308904437, 30.125036505736297], [78.58620600408813, 30.123684045356494], [78.58465021018753, 30.12365542390995], [78.58468314415867, 30.122302964767247], [78.5831273736589, 30.122274326463735], [78.58332505745496, 30.114159574363608], [78.578658140239, 30.114073576945287], [78.57869114316347, 30.11272112182546], [78.57557991853429, 30.11266370132491], [78.57561296151904, 30.11131124900082], [78.58650213887401, 30.111511887926103], [78.58656792201674, 30.108806960627906], [78.58501236083512, 30.108778356212518], [78.58504527020207, 30.1074258936445], [78.5788231324403, 30.107311298230908], [78.5788561241549, 30.10595884155351], [78.57730061646076, 30.105930148267515], [78.57733362707792, 30.10457769283156], [78.57577814277082, 30.104548982706447], [78.57584419956032, 30.101844074007715], [78.57739964158365, 30.101872781025115], [78.57746564711884, 30.099167867972678], [78.57902104910657, 30.099196553494437], [78.57908700339966, 30.096491636090693], [78.58064236535557, 30.096520300120865], [78.58067531800678, 30.095167839400226], [78.58223066106758, 30.095196483493474], [78.58226359034673, 30.09384402091085], [78.58381891451215, 30.093872645069105], [78.5838518204221, 30.09252018062559], [78.58540712569193, 30.092548784850802], [78.58544000823554, 30.091196318547482], [78.58699529460948, 30.091224902841574], [78.58702815378963, 30.089872434679553], [78.58858342126747, 30.089900999044456], [78.58861625708701, 30.088548529024806], [78.59017150566848, 30.08857707346245], [78.59026993636475, 30.084519656900728], [78.58871475115818, 30.084491117099255], [78.58874757805316, 30.083138645835245], [78.58719241619953, 30.083110089202275], [78.58722526198423, 30.08175761917345], [78.58567012348325, 30.08172904571105], [78.58570298815481, 30.080376576918336], [78.58414787300624, 30.080347986628524], [78.58418075656178, 30.078995519072866], [78.58262566476537, 30.078966911957686], [78.58265856720205, 30.077614445639995], [78.58110349875753, 30.07758582170148], [78.58116933915001, 30.074880891232638], [78.57961431516989, 30.074852252023877], [78.57968018883464, 30.072147323412143], [78.58123517059357, 30.07217595951898], [78.58126808295985, 30.070823493195334], [78.58282304584719, 30.070852109383885], [78.58285593486949, 30.069499641199197], [78.58752077361609, 30.06958537491593], [78.58755359708523, 30.068232901776607], [78.59066345852771, 30.068289962663375], [78.59069623755633, 30.06693748612241], [78.58914132682527, 30.066908966406775], [78.58917412472948, 30.06555649109968], [78.58761923733108, 30.06552795456495], [78.5878817091005, 30.054708153280146], [78.58477227854428, 30.054651049872643], [78.58473943519459, 30.056003523027616], [78.58318470217293, 30.055974942241935], [78.5831189665884, 30.058679884521926], [78.5815641936137, 30.05865128228074], [78.58146551018827, 30.062708688719106], [78.57991067615832, 30.06268006346776], [78.57987775611134, 30.064032530107657], [78.57521320415351, 30.06394653952806], [78.57518021856583, 30.06529900119874], [78.57207048626648, 30.065241579224995], [78.57210351405557, 30.063889120664662], [78.56743899574822, 30.06380285465598], [78.56747208458937, 30.062450400457113], [78.56591727074857, 30.062421609957234], [78.56578481748554, 30.067831418644985], [78.56422992149227, 30.06780260354201], [78.56416363914576, 30.07050750289492], [78.55327913487565, 30.070305261070995], [78.55324584257704, 30.071657699326266], [78.54702609117376, 30.071541722241754], [78.54705946789613, 30.07018929026762], [78.55016929685492, 30.070247312400262], [78.55020262910017, 30.068894876971566], [78.56108695400896, 30.069097364950863], [78.56112013626418, 30.0677449182431], [78.56267502775133, 30.067773770074684], [78.56280764981958, 30.06236397387616], [78.56436245915815, 30.062392801096898], [78.56439558794474, 30.061040349706648], [78.565950378438, 30.061069157006443], [78.56598348387718, 30.05971670374412], [78.56909302942131, 30.059774260147133], [78.56905996617394, 30.0611267165275], [78.57838878327362, 30.061298954455612], [78.5784546543728, 30.058594022723124], [78.58000942287468, 30.058622661681106], [78.58010814945692, 30.054565257094296], [78.58166285691787, 30.054593873042567], [78.58169574021512, 30.05324140267437], [78.58325042882144, 30.05326999871781], [78.58328328879499, 30.051917526489245], [78.58639263053003, 30.05197466041666], [78.5864254460954, 30.050622184781474], [78.58953475457845, 30.050679242202243], [78.58950198118815, 30.052031720929058], [78.59105665985979, 30.052060223654397], [78.59086009928392, 30.060175098754236], [78.59241490673917, 30.06020359238639], [78.59238215994648, 30.061556072025393], [78.59549182372906, 30.061613007293584], [78.59555723069926, 30.058908041536327], [78.59400243989053, 30.05887958616605], [78.59406788015856, 30.05617462224899], [78.59562262877819, 30.05620307453621], [78.59565532448377, 30.054850590570094], [78.5987647862041, 30.054907436992586], [78.59879743750496, 30.053554949635895], [78.60035215060384, 30.053583343774], [78.60038477859533, 30.05223085456832], [78.6019394728222, 30.05225922881342], [78.6019720775072, 30.050906737759806], [78.60352675286178, 30.050935092113832], [78.60349416926552, 30.052287584703812], [78.60504886792384, 30.05231592223943], [78.60501630320285, 30.05366841605437], [78.60190686592074, 30.053611719556514], [78.60187425680272, 30.054964209989098], [78.60031952039435, 30.05493583266913], [78.60028688796672, 30.0562883212537], [78.59873213268371, 30.056259924038656], [78.59869947694361, 30.05761241077412], [78.59714470278621, 30.057583993662067], [78.59711202373079, 30.058936478547324], [78.5986668189837, 30.058964897198937], [78.5986014964039, 30.06166986911667], [78.60171117795952, 30.061726657493907], [78.60167855553938, 30.06307914606318], [78.60634315780018, 30.06316419552354], [78.60631059646781, 30.064516688389475], [78.60475570573061, 30.064488355397398], [78.60465794513908, 30.068545827527803], [78.60310299330277, 30.068517471564405], [78.60307038090141, 30.069869960117543], [78.60151541017429, 30.069841584250522], [78.6014827744475, 30.07119407095612], [78.59837279743175, 30.071137261042445], [78.59834011726669, 30.072489744360436], [78.59212010546106, 30.072375897946934], [78.59208733863049, 30.073728374788175], [78.58586727801362, 30.073614228288136], [78.58576871079775, 30.077671638399575], [78.58732378594608, 30.07770020722046], [78.58729094685738, 30.079052678182535], [78.5888460453537, 30.079081230176836], [78.5888132251508, 30.08043370237401], [78.59036834699536, 30.080462237539678], [78.59033554568113, 30.081814710971045], [78.59344583829508, 30.081871729265018], [78.59338031346498, 30.084576681369906], [78.59493550535578, 30.084605166037417], [78.59483726478649, 30.08866259648978], [78.59328200951965, 30.088634107195034], [78.59324923708398, 30.089986581848123], [78.59169396291608, 30.089958072628836], [78.59166116712375, 30.0913105454274], [78.59010587405503, 30.09128201628162], [78.59007305490314, 30.092634487224586], [78.58851774293389, 30.092605938150392], [78.58848490041959, 30.093958407236656], [78.58692956955004, 30.0939298382321], [78.5868638355575, 30.096634772377886], [78.58530846465312, 30.096606181893364], [78.58527557317045, 30.09795864695174], [78.583720183365, 30.097930036531967], [78.58365435141782, 30.100634962617384], [78.58209892157275, 30.100606330710637], [78.58203303839657, 30.103311252451082], [78.58981042138744, 30.103454243568002], [78.58977758215848, 30.104806711710744], [78.59133308660002, 30.104835256304], [78.5912674437395, 30.10754019474588], [78.59282299270305, 30.107568724034234], [78.59279018907566, 30.108921194332495], [78.59123461896395, 30.10889266350009], [78.59113613125457, 30.112950067895607], [78.59580303863557, 30.113035619093136], [78.59577026839987, 30.11438809123227], [78.60199292735594, 30.114501908066078], [78.60196023951735, 30.11585438605328], [78.6004045502874, 30.115825957907088], [78.6003718390703, 30.11717843404501], [78.59414901975985, 30.117064531283603], [78.59418181560585, 30.115712061308983], [78.5926261375022, 30.115683541156603], [78.59259332049932, 30.11703600958791], [78.59103762346847, 30.11700746949027], [78.59097194045562, 30.11971240233054], [78.58941620333827, 30.119683840740315], [78.58938333732388, 30.121036305148145], [78.59560638382038, 30.121150447261343], [78.59557360022337, 30.122502917533755], [78.60335256426112, 30.122645188756778], [78.60328720203808, 30.12535014376373], [78.6048430438432, 30.125378545862095], [78.60471237743123, 30.130788458291086], [78.6031564509461, 30.130760050045943], [78.60312375762115, 30.132112525839002], [78.59845592797701, 30.132027186012216], [78.59832487834241, 30.137437067607443], [78.59988090404089, 30.137465538789318], [78.59978265698938, 30.141522951338455], [78.60756313655244, 30.14166505404138], [78.60753048901125, 30.143017531954396], [78.60908661276791, 30.143045898767085], [78.60911923912364, 30.14169341931994], [78.61223145091316, 30.141750094614256], [78.61216628073086, 30.14445505932829], [78.61061013135587, 30.14442672782729], [78.61054490994074, 30.14713168823336], [78.61676969023226, 30.147244915944604], [78.61673716096851, 30.148597401804537], [78.6182933827607, 30.148625664197535], [78.61826087248072, 30.149978151275064], [78.61981711767463, 30.15000639676901], [78.6197846263813, 30.151358885063207], [78.62289716577861, 30.151415323820274], [78.62286471467148, 30.152767814855686], [78.6213084226734, 30.152739603165998], [78.62101607266824, 30.164911994773764], [78.62257255550098, 30.164940220194456], [78.62254008234568, 30.16629270812304], [78.62409658859495, 30.166320916629935], [78.6239667587765, 30.17173087133664], [78.62241016766816, 30.171702656729824], [78.62224772468504, 30.178465085495713], [78.62380442189956, 30.178493307728328], [78.62377194790906, 30.179845794074346], [78.62688539140377, 30.179902186240902], [78.62685295766232, 30.181254675323775], [78.63152320310166, 30.181339129763114], [78.63149083084446, 30.182691623099398], [78.63460438125621, 30.182747836841], [78.634572049262, 30.184100332904507], [78.63612884899273, 30.184128413614246], [78.63609653603521, 30.185480910884685], [78.63765335919258, 30.18550897465745], [78.63762106527463, 30.1868614731339], [78.63917791185888, 30.186889519967647], [78.63914563698339, 30.18824201964918], [78.64070250699477, 30.188270049541856], [78.6406702511646, 30.189622550427536], [78.64222714460338, 30.18965056337711], [78.6421626688504, 30.192355567244547], [78.64527654725127, 30.192411543818874], [78.64524434857437, 30.193764048311472], [78.6468013122968, 30.193792010419447], [78.6467369508716, 30.196497021495222], [78.64829395926728, 30.19652496816172], [78.64819746448308, 30.20058248697775], [78.64664039234425, 30.200554535781535], [78.64654381414641, 30.20461204727479], [78.6481009500414, 30.2046400030011], [78.64806877419191, 30.205992507721557], [78.64962593352648, 30.206020446487823], [78.6496580881209, 30.204667940258258], [78.6527723708278, 30.204723759364775], [78.65280448073153, 30.203371249809774], [78.6637043900264, 30.20356602436943], [78.66367242890318, 30.20491854444607], [78.66522958874887, 30.204946297006742], [78.66519764671182, 30.206298818272582], [78.66675482998261, 30.20632655386124], [78.66669098191913, 30.20903159845966], [78.6682482098747, 30.20905931857148], [78.66818439566393, 30.211764364924964], [78.6744134992288, 30.211875072596378], [78.67444532236686, 30.210522543595307], [78.6760025824004, 30.21055017283184], [78.67603438211643, 30.20919764202878], [78.67759162304745, 30.209225251299237], [78.67762339934433, 30.2078727186953], [78.68073784515681, 30.20792787883498], [78.68070611138063, 30.209280414418426], [78.68226335877992, 30.209307968266952], [78.68219992728889, 30.2120130414819], [78.68064263736422, 30.21198548465673], [78.68057915472822, 30.214690553656887], [78.67902182442751, 30.21466297537688], [78.6791171089433, 30.210605375880444], [78.67755984459302, 30.210577783593582], [78.67752806398096, 30.211930315578307], [78.67597078052526, 30.21190270332524], [78.67593897649093, 30.213255233508985], [78.66659519356645, 30.21308916303317], [78.66662712518517, 30.211736641818568], [78.66506985687428, 30.21170890023694], [78.66510180758732, 30.210356380210737], [78.6635445627078, 30.210328621653264], [78.66360850014625, 30.207623583669555], [78.66205129995691, 30.207595809638523], [78.66208328667813, 30.206243291681922], [78.65585459268262, 30.206132016849676], [78.65582252093219, 30.20748452879559], [78.65426533161636, 30.207456662405633], [78.65423323642992, 30.2088091725362], [78.64800441593881, 30.208697516231457], [78.64797223353496, 30.21005002002087], [78.64641501261161, 30.21002205825389], [78.64644721627474, 30.208669555974705], [78.64333282350707, 30.208613580045178], [78.64336506749908, 30.20726108047897], [78.64180789565583, 30.20723306631955], [78.64184015871471, 30.20588056795599], [78.64028301031787, 30.205852536839956], [78.64047667018143, 30.19773754922243], [78.6420336910733, 30.197765571254518], [78.64213042769022, 30.193708068712663], [78.64057347053136, 30.193680051222028], [78.64060573293303, 30.19232755126764], [78.63904879920626, 30.19229951683102], [78.63908108065719, 30.19094701808087], [78.63752417036228, 30.190918966700313], [78.63755647085961, 30.189566469155345], [78.63599958399625, 30.189538400832905], [78.6360319035371, 30.18818590449403], [78.63291817886908, 30.18812971551313], [78.63295053868563, 30.18677722189982], [78.63139370088201, 30.18674910124449], [78.63142607973475, 30.185396608840083], [78.62986926536328, 30.185368471250086], [78.62990166324933, 30.184015980055527], [78.62367451270511, 30.183903251247543], [78.62370699331197, 30.182550765833962], [78.62215023241644, 30.18252253902538], [78.62218273204616, 30.18117005482633], [78.61906925933413, 30.181113548908122], [78.61910179921055, 30.17976106745187], [78.6175450873951, 30.179732788345376], [78.61764275743823, 30.175675346695826], [78.61919940558248, 30.175703621217615], [78.61926446545053, 30.172998655506966], [78.61770785974656, 30.172970384041438], [78.61790311362468, 30.164855488616737], [78.61634663741673, 30.1648272078806], [78.61647684730141, 30.15941727749533], [78.61803323868111, 30.15944555211643], [78.61813080927644, 30.155388096477655], [78.61657448150285, 30.155359826442393], [78.61660702181598, 30.154007342136428], [78.61505071745168, 30.15397905519937], [78.61508327675227, 30.15262657211208], [78.61041444052653, 30.152541605314337], [78.61044706120339, 30.151189126510513], [78.60577830850596, 30.151103998455444], [78.60581099054946, 30.149751523943824], [78.60425476528212, 30.149723112606363], [78.60432016509316, 30.147018165722557], [78.59965162977291, 30.14693283038086], [78.59958610281332, 30.149637768034832], [78.60114232141261, 30.14966623465178], [78.60110957578799, 30.151018704551284], [78.60266581780498, 30.151047154280196], [78.60260036227434, 30.153752096222448], [78.60415664890587, 30.15378053059873], [78.60396035616594, 30.161895358182445], [78.60240394232474, 30.16186691458058], [78.60224019787927, 30.168629254653336], [78.60068368021491, 30.168600784921924], [78.6006181244375, 30.171305715694146], [78.59906156657044, 30.171277224442473], [78.5990287641261, 30.172629687821548], [78.5974721872703, 30.172601176586628], [78.59743936138047, 30.173953638113236], [78.59432617192262, 30.173896557228975], [78.59429330136545, 30.175249015358947], [78.59273668876524, 30.17522044570676], [78.5927037947555, 30.176572901981064], [78.59114716316887, 30.17654431233891], [78.59111424570371, 30.17789676675645], [78.58955759513091, 30.17786815712239], [78.58935991603252, 30.185982867804817], [78.58780314033842, 30.185954230440306], [78.58767122458762, 30.191364025137027], [78.58611436619887, 30.19133536312597], [78.58608136042551, 30.192687809471987], [78.58452448304088, 30.192659127454913], [78.584491453788, 30.1940115719394], [78.57982077138116, 30.193925410489673], [78.57978767616699, 30.19527785000721], [78.57823076528426, 30.195249091054098], [78.57819764658223, 30.196601528705838], [78.575083789083, 30.19654395231249], [78.57505062564829, 30.19789638654162], [78.57349367903362, 30.197867569098555], [78.57346049210398, 30.199220001458666], [78.56723264322002, 30.19910454084382], [78.56719936905978, 30.200456966654407], [78.56564239123888, 30.2004280537855], [78.56560909357397, 30.201780477721815], [78.5640520967684, 30.201751544827903], [78.56398545216118, 30.2044563886372], [78.56242841512315, 30.20442743415242], [78.56232836749062, 30.208484692830158], [78.56077126896406, 30.208455715185412], [78.56067113718738, 30.212512966354094], [78.56222829947936, 30.21254194869424], [78.5621949389464, 30.213894366690283], [78.56375212476121, 30.213923332123716], [78.56371878322302, 30.215275751371355], [78.56527599256093, 30.21530469989601], [78.56500934888787, 30.226124055129038], [78.56656673061852, 30.22615299768022], [78.56653341124961, 30.227505417240057], [78.5696482240405, 30.227563250021046], [78.56961494495872, 30.22891567239062], [78.56805751615858, 30.228886763680574], [78.56802421354178, 30.230239184176845], [78.56646676572628, 30.230210255421795], [78.5665000896189, 30.228857836487254], [78.56027040609385, 30.228741942883087], [78.56023699709918, 30.230094355560734], [78.55867956060833, 30.230065334385753], [78.55864612806921, 30.231417745183805], [78.55708867257114, 30.23138870395736], [78.55702175812726, 30.234093521479195], [78.55546426234295, 30.234064458630524], [78.55543078043375, 30.235416865353155], [78.55387326564141, 30.23538778244812], [78.55380625243943, 30.2380925918145], [78.54913359401797, 30.238005222743794], [78.54916716560564, 30.236652822932975], [78.54605211394814, 30.236594487589045], [78.54601849979473, 30.23794688425097], [78.54446095610474, 30.23791768727116], [78.54442731838564, 30.239270082043838], [78.53975463716806, 30.23918237543796], [78.53972093330992, 30.240534765163268], [78.53816335619206, 30.240505491068795], [78.53806216702773, 30.244562653623618], [78.53650452833557, 30.24453335629545], [78.53640325468989, 30.248590511284824], [78.53484555441267, 30.248561190716686], [78.5347104056184, 30.25397071998255], [78.53159484156889, 30.25391201068686], [78.53156100603663, 30.255264389051202], [78.5300032061551, 30.255235005067846], [78.52996934702489, 30.256587381532892], [78.52062246823078, 30.2564106795832], [78.52069043979958, 30.253705945406974], [78.51913267733167, 30.253676433511778], [78.51920068226983, 30.250971701264046], [78.51764296470365, 30.25094217405638], [78.51767698500639, 30.249589809054676], [78.51611929104382, 30.249560264944204], [78.51608524944633, 30.250912628351603], [78.51296982586403, 30.250853481451035], [78.51290165055124, 30.253558200939796], [78.51134389963616, 30.253528596549476], [78.51130978721098, 30.254880954225012], [78.5128675594247, 30.254910560212757], [78.5127993702308, 30.257615277815788], [78.51124155541538, 30.257585668633048], [78.51107093540642, 30.26434744915174], [78.50951301637758, 30.26431781347407], [78.50944470954161, 30.267022520283195], [78.50788675020884, 30.26699286289933], [78.50785257200158, 30.268345214232326], [78.50006270359106, 30.268196641673146], [78.50009698836048, 30.26684429835437], [78.49853904296403, 30.26681452992093], [78.49860764814376, 30.264109845550756], [78.49549184957431, 30.2640502595893], [78.49535445941481, 30.269459614212078], [78.4937964783813, 30.26942978703748], [78.49365896566017, 30.27483913018629], [78.49677510059219, 30.27489877889363], [78.49674075922071, 30.27625111711063], [78.49985694611408, 30.27631069497593], [78.4998226450566, 30.27766303609132], [78.49826452912342, 30.277633254809984], [78.49819587737753, 30.280337932883917], [78.49975403595933, 30.280367717377665], [78.4996854175514, 30.283072397404695], [78.49812721631518, 30.28304260969837], [78.49805854593536, 30.285747285253233], [78.49182559366066, 30.285627936359074], [78.49179116964866, 30.2869802672284], [78.49023291608334, 30.28695038208947], [78.49019846840272, 30.288302711032223], [78.49487330010342, 30.288392315712915], [78.49483891408953, 30.289744649172068], [78.4963972173255, 30.289774481960247], [78.49636285031501, 30.291126816712943], [78.49792117721893, 30.29115663258392], [78.49788682921472, 30.29250896862923], [78.50256188791627, 30.29259830990333], [78.5025276016006, 30.293950650450647], [78.50564436171382, 30.29401012187069], [78.50561011575483, 30.295362465309562], [78.51184374921549, 30.295481192209316], [78.51180958630613, 30.29683354173444], [78.51492645963489, 30.296892797200695], [78.51489233709802, 30.298245149605822], [78.50242472869643, 30.298007670203468], [78.5024590219908, 30.296655330600718], [78.4993421858146, 30.29659577864712], [78.49930784983218, 30.29794811503929], [78.49774941389343, 30.2979183096607], [78.49771505423632, 30.299270644131088], [78.49615659928328, 30.299240818613807], [78.49612221594863, 30.300593151161294], [78.49456374198157, 30.30056330550339], [78.49449492561722, 30.303267966435296], [78.49605344228152, 30.30329781531106], [78.49595026428432, 30.307354809172505], [78.49439168356334, 30.307324955469614], [78.49428842049741, 30.31138194166746], [78.4958470652881, 30.311411800197863], [78.49577825428938, 30.314116459305694], [78.49421956677831, 30.314086597556752], [78.49411626868427, 30.318143579026525], [78.49255751941755, 30.318113693903783], [78.49221282686302, 30.331636928870495], [78.49065386620407, 30.331607009085594], [78.49048132532128, 30.33836860668248], [78.4920403928992, 30.33839853452731], [78.49197140294021, 30.341103174582006], [78.49041229258455, 30.3410732435129], [78.49037777270486, 30.342425561454842], [78.48881864329921, 30.342395610210115], [78.48878409968613, 30.343747926223312], [78.48722495123076, 30.34371795480102], [78.48715581418776, 30.34642258265207], [78.48871500543191, 30.346452557302978], [78.48868045479051, 30.347804872369434], [78.48556203185359, 30.34774490127165], [78.48545823747423, 30.351801834887606], [78.48701751196846, 30.351831834566482], [78.48698293055173, 30.353184146755915], [78.4885422287932, 30.353214129479127], [78.48850766643524, 30.354566442967467], [78.49006698842422, 30.354596408732974], [78.48996335150811, 30.358653352145083], [78.4884039652986, 30.358623381538564], [78.488369393565, 30.359975693764238], [78.48680998829, 30.359945702967632], [78.48670619478565, 30.36400263290591], [78.48514672761924, 30.363972618685544], [78.48504284874979, 30.368029540933968], [78.48348331968118, 30.36799950328357], [78.48344866727615, 30.36935180845097], [78.4818891191376, 30.3693217506005], [78.48185444296222, 30.3706740538339], [78.48029487575401, 30.37064397578141], [78.48022547350405, 30.373348578062018], [78.48178508355792, 30.373378659352845], [78.48175040032876, 30.374730961638367], [78.48331003415919, 30.374761025961536], [78.4831366898851, 30.381522540741127], [78.48781592691768, 30.38161264643382], [78.48785053617546, 30.380260339260467], [78.50500768323388, 30.380589277468918], [78.50504205439158, 30.37923695227613], [78.50660178761119, 30.37926674259384], [78.5066361350072, 30.377914415482305], [78.50819584912388, 30.37794418560616], [78.50823017276109, 30.37659185657698], [78.5129092647768, 30.376681050603597], [78.51287500543097, 30.378033384433774], [78.51599445458542, 30.378092757364595], [78.51596023578132, 30.379445094075407], [78.5237590064037, 30.379593209028698], [78.52386133438743, 30.375536174036117], [78.52698073024551, 30.375595280325076], [78.52704885162683, 30.372890582393023], [78.53172783416073, 30.372979092873564], [78.53176182710872, 30.371626738670955], [78.5364407661063, 30.371715077103413], [78.53650861654135, 30.369010358243905], [78.53962783501142, 30.369069151265148], [78.53966171393344, 30.36771678819867], [78.54122130519217, 30.36774615524997], [78.54125516039574, 30.366393790288164], [78.54281473252856, 30.366423137174802], [78.54284856401658, 30.36507077031877], [78.54440811702324, 30.365100097042713], [78.5444419247986, 30.36374772829354], [78.55223961709399, 30.363894075288993], [78.55227331548856, 30.362541698346277], [78.55383283939058, 30.36257091042588], [78.5537991624141, 30.363923288941482], [78.55535871001781, 30.363952484011524], [78.55532505217738, 30.365304863785124], [78.553765483154, 30.365275667143155], [78.55369811778237, 30.36798042260473], [78.55525772964945, 30.368009622390662], [78.55522406496172, 30.369362001222576], [78.55678370053552, 30.36939118399403], [78.55671640716446, 30.372095943858316], [78.56139545612709, 30.372183390067196], [78.56142903967137, 30.370831005584595], [78.56454837417937, 30.370889206979506], [78.56451483349036, 30.372241594595373], [78.56763421995068, 30.372299724767124], [78.56760071984615, 30.373652115198656], [78.5691604379136, 30.3736811539638], [78.56919391658859, 30.372328761969086], [78.5707536154964, 30.372357780581666], [78.57078707047324, 30.37100538671129], [78.5770258030603, 30.371121269027178], [78.57699243379766, 30.3724736691361], [78.5816715712865, 30.372560390358547], [78.5816382640526, 30.37391279482264], [78.58631748615865, 30.373999353393142], [78.58628424096324, 30.375351762203664], [78.5878440076079, 30.375380579428935], [78.5877775533238, 30.37808539921319], [78.58933736509096, 30.37811420094647], [78.5893041560065, 30.379466611919305], [78.59086399146237, 30.379495396607293], [78.59083080156486, 30.38084780881646], [78.59239066070973, 30.380876576457073], [78.59225796438425, 30.386286228357296], [78.59069801946985, 30.386257454522713], [78.59063161491757, 30.38896227549747], [78.59219160272544, 30.388991052429265], [78.59215841852156, 30.390343463995702], [78.59371843002818, 30.390372223872347], [78.59358575652388, 30.39578187319851], [78.5951458560901, 30.39581062065834], [78.59511270354857, 30.397163033754147], [78.60291334234611, 30.397306499650377], [78.60281419313161, 30.4013637602191], [78.60437439199816, 30.401392402193103], [78.6043083242461, 30.40409724409017], [78.60742881455124, 30.40415447835854], [78.60739582024829, 30.40550690191711], [78.60115476273201, 30.40539235275944], [78.60108859567046, 30.40809718661278], [78.59952829395837, 30.408068499698203], [78.59962760558821, 30.404011253078334], [78.60118784289894, 30.404039935363386], [78.60125399650572, 30.401335099632597], [78.59969380212199, 30.401306420433674], [78.59972689702342, 30.399954003641934], [78.59660655791039, 30.39989659249626], [78.5966396934877, 30.398544178480538], [78.59195926604758, 30.398457926819727], [78.59199246375232, 30.397105517131788], [78.59043234722914, 30.3970767309073], [78.5905652013607, 30.391667095219873], [78.58900517290495, 30.391638296585935], [78.58903840225925, 30.390285888431], [78.58747839750646, 30.390257072743143], [78.58771109002768, 30.380790217745087], [78.58147169400415, 30.380674812444525], [78.58150501253147, 30.379322409546663], [78.57994519060749, 30.379293513286264], [78.57991185064233, 30.380645914628737], [78.57679217070172, 30.380588063209043], [78.57689231243336, 30.37653086758275], [78.57221300242466, 30.37644396501847], [78.57217955980738, 30.37779635919605], [78.56750020590312, 30.377709284611573], [78.5675337128225, 30.37635689512089], [78.56441419777735, 30.37629875556084], [78.56444774528951, 30.374946368886047], [78.56132828220694, 30.374888158091107], [78.56129469183081, 30.376240541632374], [78.55505570727992, 30.376123890673266], [78.55502202889402, 30.377476267621553], [78.55346226702832, 30.37744705683042], [78.55359705259451, 30.372037553442468], [78.54735837087914, 30.371920549550374], [78.54732459220236, 30.373272919569672], [78.54420522222485, 30.373214302939658], [78.54417139839953, 30.374566669489372], [78.54261169542102, 30.374537331711835], [78.54257784787195, 30.375889696368038], [78.54101812575804, 30.375860338420495], [78.54098425448237, 30.377212701182106], [78.53942451323333, 30.37718332306262], [78.5393906182281, 30.37853568392853], [78.53783085784418, 30.378506285635154], [78.53779693910653, 30.379858644604276], [78.53467738237069, 30.379799789072493], [78.53471134397658, 30.378447433271134], [78.53315159049576, 30.378417979200677], [78.53311760745596, 30.379770333416655], [78.52999806454015, 30.37971136632561], [78.52996403632595, 30.38106371705315], [78.52840424689279, 30.3810342040297], [78.52837019493508, 30.382386552854097], [78.5268103863742, 30.382357019647316], [78.52677631067007, 30.383709366567466], [78.52521648298169, 30.38367981317541], [78.52518238352825, 30.385032158190224], [78.52206269221041, 30.384972992435088], [78.5220285475645, 30.38632533395086], [78.52046868393688, 30.386295721584926], [78.5205028500229, 30.38494338166276], [78.51426350444937, 30.384824752610676], [78.51429775397249, 30.38347241875772], [78.51273794481848, 30.38344271660305], [78.51270367385737, 30.38479504885746], [78.51114384558885, 30.384765326508358], [78.51110955086499, 30.386117656847965], [78.50954970348218, 30.38608791430248], [78.50944674103354, 30.39014489862784], [78.50476701987365, 30.390055544987575], [78.50469823793435, 30.39276019001122], [78.50313829265127, 30.392730365055975], [78.50320711748093, 30.390025723241905], [78.5016472174209, 30.389995882896947], [78.50168164777946, 30.388643563122386], [78.50012177149632, 30.388613705784966], [78.50015622096213, 30.38726138730157], [78.49703651828584, 30.387201620048895], [78.49689853486322, 30.392610879223103], [78.49533860125952, 30.392580961262404], [78.49530407811058, 30.393933273656938], [78.49374412540057, 30.393903335484595], [78.49391682496251, 30.38714177840864], [78.49235698181182, 30.38711182969342], [78.49221874107425, 30.392521069538724], [78.49065881449559, 30.39249109577594], [78.49062422700743, 30.39384340333492], [78.48750433799316, 30.393783396779273], [78.48743507018958, 30.396488004491978], [78.48899505641998, 30.396518020300324], [78.4888912014605, 30.400574934344668], [78.48421105674934, 30.400484816565612], [78.48417636937228, 30.401837115766813], [78.4794961814594, 30.401746825675545], [78.47939191210597, 30.405803706809788], [78.48095203676066, 30.405833826974405], [78.48088255499924, 30.40853841605656], [78.47776222220394, 30.408478150634316], [78.47769264516923, 30.41118273196796], [78.47613243938116, 30.411152568094447], [78.47602799174257, 30.415209432854805], [78.47446772391395, 30.415179245497182], [78.47443288184509, 30.41653153149421], [78.4759931711433, 30.41656172047542], [78.47595834818398, 30.41791400777963], [78.4712774229626, 30.417823380109688], [78.4712425332259, 30.419175662223417], [78.4696822080739, 30.419145414136693], [78.46961237855764, 30.421849974160917], [78.46805201282352, 30.421819704199496], [78.46801707303948, 30.423171982108826], [78.46645668819706, 30.42314169189751], [78.46642172456733, 30.42449396786129], [78.46486132061689, 30.42446365739812], [78.46479134328905, 30.427168205115574], [78.46323089875058, 30.427137872767663], [78.46319588504798, 30.428490144520172], [78.46007496012786, 30.42842942068507], [78.46003990108633, 30.429781688855655], [78.45847942070654, 30.429751297365613], [78.45844433780482, 30.431103563585154], [78.45688383831838, 30.43107315183356], [78.45684873155354, 30.43242541610093], [78.45528821296071, 30.43239498408581], [78.45525308232985, 30.433747246399946], [78.45213200931416, 30.43368632320958], [78.45209683332632, 30.435038581931174], [78.45053627890533, 30.43500809075309], [78.45046587679798, 30.437712603966], [78.44578409891348, 30.437621008804523], [78.4457488298056, 30.438973260011], [78.44418822046356, 30.438942689383655], [78.44411763208979, 30.441647187557443], [78.44099633460684, 30.44158598382542], [78.44103167297837, 30.440233738187143], [78.43947104932238, 30.440203110015943], [78.43940032719476, 30.44290759768198], [78.44096099384063, 30.442938229146105], [78.44089030512369, 30.445642718834648], [78.44245101716032, 30.445673334954492], [78.44227436096708, 30.452434561845788], [78.44071354141505, 30.45240393749744], [78.44067818148658, 30.453756180277015], [78.43131318549474, 30.453572032804168], [78.43127769411988, 30.45492426536975], [78.42815600499512, 30.454862730428697], [78.42797829692425, 30.46162387195175], [78.42953924784427, 30.461654657014225], [78.42939712411244, 30.467063571123777], [78.4278360871176, 30.467032779444395], [78.42776496776123, 30.46973723128192], [78.42464281490835, 30.46967558534207], [78.42460720856634, 30.471027807471724], [78.4214850223124, 30.47096608359849], [78.42144937050567, 30.472318302093942], [78.41988825947472, 30.472287410515037], [78.41992393280746, 30.470935193679058], [78.41524067879821, 30.470842411990706], [78.41513345780487, 30.474899046589695], [78.41669460463672, 30.474929997461615], [78.41662315492903, 30.47763442226007], [78.41818434724249, 30.477665357797388], [78.41811293092135, 30.48036978464513], [78.41655169554039, 30.480338845784367], [78.4165874264449, 30.478986634181496], [78.4150262150188, 30.478955678321586], [78.41509771263111, 30.47625125748557], [78.41353654669086, 30.476220286292257], [78.41360807767515, 30.473515867509114], [78.41204695721581, 30.473484880986323], [78.41208274060057, 30.472132672781374], [78.41052164409204, 30.472101669267545], [78.41048583918065, 30.47345387580696], [78.40892472357116, 30.473422851971144], [78.40888889470618, 30.474775056525303], [78.40732775999595, 30.47474401236555], [78.40729190717447, 30.476096214933346], [78.40885306341396, 30.476127260760713], [78.40867387053942, 30.48288827715626], [78.40711260663176, 30.482857222990113], [78.4070767392352, 30.484209423644963], [78.4055154562192, 30.484178349146664], [78.40540777482855, 30.488234944191042], [78.40696912246685, 30.488266023696283], [78.40686148382765, 30.49232262087757], [78.40530007155391, 30.49229153636498], [78.4052282572112, 30.494995929552772], [78.398982460063, 30.494871391427893], [78.39887446168173, 30.49892795875499], [78.40043597197092, 30.49895912631415], [78.40039998918847, 30.500311316458244], [78.3988384573445, 30.50028014722564], [78.39880245056862, 30.50163233537708], [78.3972408996072, 30.501601145794222], [78.39720486883496, 30.5029533319519], [78.39564329875637, 30.502922122016855], [78.39560724398488, 30.50427430617968], [78.39404565478938, 30.504243075890496], [78.39393741113754, 30.50829962143292], [78.39081411070967, 30.508237094750235], [78.39077798147615, 30.50958927260238], [78.38921631336751, 30.509557979559332], [78.38918016012146, 30.510910155412144], [78.38761847289574, 30.510878842006136], [78.38758229563426, 30.51223101585854], [78.38602058929173, 30.51219968208762], [78.3859843880119, 30.51355185393848], [78.38286093954697, 30.51348912697807], [78.3827884433512, 30.516193462986852], [78.38122667965996, 30.516162068109523], [78.38119040630758, 30.517514233949193], [78.37962862350066, 30.517482818699165], [78.37959232611827, 30.518834982532887], [78.37646872473326, 30.518772092595135], [78.37639603629208, 30.521476412552204], [78.37014869046567, 30.52135039489216], [78.37011225624423, 30.52270254762771], [78.36855040437497, 30.5226709947944], [78.3685139461079, 30.524023145516434], [78.36539020662086, 30.523959980387893], [78.3653537027257, 30.525312127399996], [78.36379181510979, 30.525280515101922], [78.36375528716187, 30.52663266009726], [78.36219338043868, 30.5266010274093], [78.36215682843505, 30.527953170386795], [78.36059490260487, 30.52792151730697], [78.3605217480036, 30.53062579890348], [78.35895978148196, 30.53059412373035], [78.35888657379914, 30.53329840064548], [78.3573245665822, 30.533266703374938], [78.35728793743387, 30.534618839650914], [78.35103984702714, 30.534491856776192], [78.35100312903812, 30.535843985918603], [78.34944109105824, 30.535812191747233], [78.34936760443746, 30.53851644565786], [78.34780552576167, 30.53848462937332], [78.3477687571254, 30.539836754140357], [78.34933085739517, 30.53986857213176], [78.34929410786476, 30.54122069828472], [78.35398048838418, 30.541316045157785], [78.3539438011571, 30.54266817610469], [78.3461330714117, 30.542509162601704], [78.34605947351288, 30.545213406472712], [78.34762165768305, 30.54524524999853], [78.34747451839822, 30.550653740720232], [78.34591224781471, 30.55062189036171], [78.34587543516004, 30.551974010531193], [78.34431314546187, 30.551942139753002], [78.34423946945734, 30.554646375709844], [78.34267713903519, 30.554614482799654], [78.34256654148479, 30.558670829194476], [78.341004148721, 30.558638912436653], [78.34089346385647, 30.562695250805167], [78.33933100874022, 30.56266331019339], [78.33929408717029, 30.56401542062749], [78.33616914119855, 30.563951479818662], [78.33613217388753, 30.56530358650282], [78.33144470884025, 30.56520752974124], [78.33133359728116, 30.569263832412798], [78.33289614799493, 30.569295875207537], [78.33285912742016, 30.570647977172655], [78.3344217022661, 30.57068000296077], [78.334199655974, 30.57879261829931], [78.33263695133967, 30.57876058220846], [78.33248878381637, 30.5841689791316], [78.33092599513472, 30.584136917436734], [78.33088892534332, 30.585489014144702], [78.32776331222433, 30.585424831111638], [78.32761483480104, 30.59083320096449], [78.3260519454271, 30.59080107445858], [78.32597764834075, 30.5935052540099], [78.32441471818153, 30.593473105319315], [78.32437754421503, 30.594825192889154], [78.32281459491989, 30.59479302373366]]]}, "properties": {"hazard_class": 4, "hazard_name": "Extreme", "area_ha": 8313.75}}]}