{"type": "FeatureCollection", "features": [{"type": "Feature", "geometry": {"type": "Polygon", "coordinates": [[[76.3513599569698, 31.599707892046062], [76.35133651031595, 31.59808431638219], [76.35323341208016, 31.598064234916986], [76.3531864586843, 31.594817084839587], [76.35508329278439, 31.594796977761963], [76.35505978605019, 31.593173403350097], [76.35695658537193, 31.59315326939542], [76.35690951184655, 31.5899061218287], [76.35880624351574, 31.589885962273986], [76.35878267673237, 31.588262389120825], [76.36067937362654, 31.588242202698005], [76.36065577587738, 31.586618630391122], [76.3625524379968, 31.5865984171038], [76.36252880928714, 31.58497484564492], [76.3663220620661, 31.584934337210843], [76.36629836953799, 31.583310767882015], [76.36440177696726, 31.58333103488752], [76.3643781192132, 31.581707463849426], [76.36817123672009, 31.58166690426506], [76.36814751516083, 31.580043335360376], [76.37194055928866, 31.580002665809896], [76.37196434656323, 31.581626232145176], [76.37006779260095, 31.581646582272004], [76.37016282945616, 31.588140848465123], [76.3682661421179, 31.588161175593868], [76.36828987325825, 31.589784742353523], [76.36639315113237, 31.589805042623535], [76.36641685131556, 31.591428610236466], [76.36452009440183, 31.591448883644137], [76.36454376362255, 31.5930724521086], [76.3607501783098, 31.593112917045435], [76.36077378368329, 31.594736487636805], [76.35887695528653, 31.59475667916049], [76.35892410598568, 31.598003821607175], [76.35702720991767, 31.598023987529388], [76.3570507552355, 31.599647559383016], [76.3513599569698, 31.599707892046062]]]}, "properties": {"hazard_class": 1, "hazard_name": "Low", "area_ha": 136.08}}, {"type": "Feature", "geometry": {"type": "Polygon", "coordinates": [[[76.36627467892329, 31.581687198124232], [76.36625099022189, 31.580063627937513], [76.36814751516083, 31.580043335360376], [76.36812379551736, 31.57841976602673], [76.37002028568544, 31.578399446601267], [76.36999653510524, 31.576775878122405], [76.37378944397938, 31.576735157453676], [76.37376562961823, 31.57511159111853], [76.37186920899107, 31.575131964229836], [76.37184542940012, 31.573508396178433], [76.37563820303758, 31.573467624405513], [76.37566204832207, 31.575091189880755], [76.37755846509988, 31.575070760516596], [76.37758234515958, 31.57669432427194], [76.37568589553256, 31.576714754926876], [76.37570974466917, 31.578338319543906], [76.373813260264, 31.578358723359756], [76.37383707847223, 31.57998228883675], [76.36814751516083, 31.580043335360376], [76.36817123672009, 31.58166690426506], [76.36627467892329, 31.581687198124232]]]}, "properties": {"hazard_class": 2, "hazard_name": "Moderate", "area_ha": 35.64}}, {"type": "Feature", "geometry": {"type": "Polygon", "coordinates": [[[76.6601758422994, 31.25345410381405], [76.66014742698678, 31.25183067119354], [76.65825774909432, 31.25185506809414], [76.65822936838595, 31.250231633489594], [76.66389829824847, 31.25015836416115], [76.66392677587201, 31.251781794109377], [76.66959578191147, 31.251708270277394], [76.66962435876083, 31.253331695119467], [76.6601758422994, 31.25345410381405]]]}, "properties": {"hazard_class": 3, "hazard_name": "Significant", "area_ha": 25.92}}, {"type": "Feature", "geometry": {"type": "Polygon", "coordinates": [[[76.37753458696885, 31.573447196332104], [76.37751071076632, 31.57182363171849], [76.37561435967896, 31.571844058501206], [76.37556667873874, 31.568596925405366], [76.37746296414623, 31.568576501203932], [76.37739135867649, 31.563705802213956], [76.3792875436564, 31.563685353770268], [76.37923975066215, 31.560438221549404], [76.38113586805892, 31.560417747579905], [76.38099233849833, 31.550676348382947], [76.38288825706842, 31.550655854076783], [76.38286430943097, 31.54903228733769], [76.38476019326028, 31.549011766229373], [76.38468826355086, 31.544141067329104], [76.38658404704067, 31.54412052201997], [76.38648803670732, 31.537626256007663], [76.38838368709222, 31.537605687808497], [76.38833562799145, 31.53435855482871], [76.39023121086832, 31.534337961148985], [76.39018309397584, 31.531090829057018], [76.39207860935318, 31.531070209903778], [76.39203043468929, 31.52782307870293], [76.38634407936598, 31.52788484411782], [76.3863680674107, 31.52950841383865], [76.38447257898527, 31.52952894746024], [76.38449653619364, 31.531152518050508], [76.38070548799021, 31.531193503656674], [76.38075327709957, 31.534440648733703], [76.37885768454375, 31.53446110200601], [76.3788815492114, 31.536084675194427], [76.37698592194488, 31.536105101676416], [76.37700975575504, 31.537728675727482], [76.37511409377757, 31.537749075415555], [76.37513789672494, 31.53937265032758], [76.37324220003622, 31.53939302321813], [76.37328974611526, 31.542640174331886], [76.37139398192119, 31.542660521707624], [76.37141772504506, 31.544284097907692], [76.36952192613641, 31.54430441847696], [76.36947450739724, 31.541057263078937], [76.36757877216404, 31.541077552989698], [76.36755509845874, 31.539453973364928], [76.36945080090047, 31.539433684736906], [76.36935599406227, 31.5329393670821], [76.37125156345016, 31.53291905550403], [76.37118038009768, 31.528048316615074], [76.36738943606053, 31.528088903990586], [76.36736577765043, 31.52646532093713], [76.36547033553383, 31.52648557123142], [76.3654467118028, 31.524861986468878], [76.36355130054547, 31.524882207410773], [76.3635277114882, 31.52325862094104], [76.37300458483836, 31.523157241925745], [76.37298083387506, 31.52153366143883], [76.37677150427726, 31.521492915921336], [76.3767000663602, 31.516622179619194], [76.37859530040733, 31.516601768631986], [76.37861914387621, 31.51822534653705], [76.38051440875061, 31.51820490619482], [76.38049053252814, 31.516581329582515], [76.38238576271996, 31.516560862470875], [76.38240967169588, 31.518184437788644], [76.38430493270941, 31.51816394131863], [76.38432887637305, 31.51978751491124], [76.38622416820799, 31.51976698907935], [76.38624814656464, 31.521390560944912], [76.38814346922071, 31.521370005747677], [76.38819149727077, 31.52461714559199], [76.39198226780869, 31.52457594578564], [76.39200635027613, 31.52619951245883], [76.39390176539396, 31.526178869144548], [76.39385353687554, 31.522931737979864], [76.39195818728678, 31.522952378683385], [76.39183781385553, 31.5148345367363], [76.39373299966795, 31.514813902558924], [76.39366070071276, 31.509943196157735], [76.39555578634418, 31.509922537841156], [76.39548340670159, 31.505051831499003], [76.39358841928002, 31.505072485895493], [76.39356432936233, 31.503448914950134], [76.39166937272573, 31.503469539992757], [76.39164531748325, 31.50184596731366], [76.39543516335256, 31.501804691792508], [76.39541104460146, 31.500181121295782], [76.3973059318882, 31.500160442775357], [76.39725763478819, 31.496913303111448], [76.40104727261793, 31.496871867183692], [76.40107148563314, 31.498495434608397], [76.3991766349748, 31.498516167903972], [76.39922500142633, 31.50176330408977], [76.40111991753328, 31.501742568170567], [76.4011441364185, 31.503366134307996], [76.40493402821542, 31.50332457570532], [76.40483690262208, 31.496830319096823], [76.40294208859954, 31.496851107160087], [76.40291784482316, 31.49522754061977], [76.4067074054719, 31.495185939085932], [76.40668309822503, 31.49356237474871], [76.40478835159607, 31.49358318821753], [76.40476407902523, 31.49195962213417], [76.40286936314699, 31.491980406251823], [76.4028208893053, 31.48873327016757], [76.40471553976718, 31.488712488680125], [76.40466700835306, 31.485465353509685], [76.40656159144847, 31.48544454662509], [76.4065130024822, 31.482197412371757], [76.4084075182196, 31.482176580097036], [76.40838319398776, 31.48055301364514], [76.41027767506625, 31.48053215466718], [76.41025332010938, 31.478908589106286], [76.4121477665292, 31.4788877034287], [76.41209899714657, 31.47564057366313], [76.41588775332637, 31.475598723547037], [76.41591220240232, 31.47722228599548], [76.41780661021474, 31.477201317586385], [76.41783109395392, 31.47882487827839], [76.42161996901501, 31.4787828547479], [76.42157087277174, 31.47553573825384], [76.41967650160338, 31.47555676136731], [76.41952945652726, 31.46581539359709], [76.42142363164426, 31.465794378466708], [76.42139909839688, 31.464170816999523], [76.42518737734842, 31.46412870538999], [76.42521197592737, 31.465752264191146], [76.42900031225825, 31.465710037896518], [76.42892632650792, 31.46083936822402], [76.42513818615413, 31.460881586499543], [76.42511359353848, 31.45925802641027], [76.42700763205286, 31.459236932607716], [76.42698300876968, 31.45761337342459], [76.42887701263908, 31.457592252961742], [76.4288277067407, 31.454345135981775], [76.43072164331595, 31.454323990201164], [76.430647601478, 31.44945331552735], [76.43254143812618, 31.449432145776587], [76.43251672886403, 31.4478085880337], [76.43630433088914, 31.44776616725874], [76.43627955835221, 31.446142611772725], [76.43438579097534, 31.446163834808555], [76.43428685136485, 31.43966960319385], [76.43807412308304, 31.439627139897798], [76.43802453478705, 31.436380026892635], [76.43613096517113, 31.436401269837436], [76.43608145012277, 31.433154152423427], [76.43986845688721, 31.433111643947083], [76.43984363714083, 31.431488087288546], [76.44173710490323, 31.431466792446503], [76.44168740621329, 31.428219680538742], [76.43979400366635, 31.42824097268304], [76.43971956849829, 31.42337029755394], [76.4378262617494, 31.423391557694078], [76.43775194241043, 31.4185208746597], [76.43585873143934, 31.41854210280658], [76.43578452787865, 31.41367141187345], [76.43389141266516, 31.41369260803803], [76.43386671472426, 31.41206904219207], [76.42250817709119, 31.412195624255617], [76.42253267954601, 31.413819198122926], [76.42063955041102, 31.413840198652355], [76.4206640222626, 31.415463773421465], [76.41687769289182, 31.415505693291532], [76.41690210154782, 31.417129270288015], [76.41500890131421, 31.417150189623175], [76.41505765936387, 31.420397344980763], [76.41695092477975, 31.420376422994522], [76.41697533935597, 31.421999998704507], [76.41129543941251, 31.422062684767617], [76.41134407889106, 31.425309842844438], [76.41323744604017, 31.425288972803326], [76.41326180133176, 31.42691254987642], [76.41136840157937, 31.42693342123974], [76.41139272623388, 31.428556999206265], [76.40760585562089, 31.428598660683097], [76.40763011702424, 31.43022224086012], [76.40573664616585, 31.430243030968157], [76.40576087691882, 31.431866612033485], [76.3962933302406, 31.431970149628107], [76.39636554499316, 31.43684090992896], [76.39257831697792, 31.43688213701753], [76.39260232720775, 31.43850572553888], [76.39070867766453, 31.438526298424343], [76.39073265720933, 31.440149887820354], [76.38883897310187, 31.440170434030662], [76.38886292195635, 31.441794024299632], [76.38696920328438, 31.44181454383117], [76.38701704153546, 31.44506172568331], [76.38512325566452, 31.44508221983037], [76.38517103637318, 31.448329402565076], [76.3832771832948, 31.44834987132064], [76.38322946786273, 31.44510268599357], [76.38133567813274, 31.445123124172838], [76.38135950224748, 31.44674671834489], [76.37946567795466, 31.446767129832715], [76.37951326667897, 31.450014319477514], [76.37572548176108, 31.450055063655398], [76.37579668338486, 31.454925852651836], [76.372008694905, 31.454966492590604], [76.37205604162683, 31.45821368826093], [76.37016197920559, 31.458233968805683], [76.37018562277763, 31.45985756728282], [76.36639742688678, 31.459898046938658], [76.36644458911107, 31.46314524773476], [76.36455042297898, 31.463165448119256], [76.36447978048741, 31.45829464244663], [76.36258571043865, 31.458314810995518], [76.36263273820806, 31.461562017759285], [76.36073860093693, 31.461582160859482], [76.36076208500741, 31.46320576487485], [76.35697373944362, 31.463245969611933], [76.35702058260222, 31.46649318144994], [76.35512634164111, 31.46651324435146], [76.35507956382123, 31.463266029973298], [76.35318538630872, 31.463286062329736], [76.3531620328996, 31.461662453230794], [76.35505617774658, 31.46164242214258], [76.35498603086207, 31.45677159608411], [76.35688007583865, 31.456751540802536], [76.35685666466833, 31.45512793253081], [76.35117462203738, 31.455188010577743], [76.3511280012791, 31.451940785143126], [76.35302195207478, 31.45192078965606], [76.3529752735604, 31.448673565043464], [76.35108138805649, 31.44869355799823], [76.35105808427072, 31.447069943784467], [76.35295193713272, 31.44704995209578], [76.35292860259116, 31.44542633872052], [76.35482242092785, 31.44540632031235], [76.35477569223228, 31.44215909481468], [76.35666944341015, 31.44213905096012], [76.35662265700853, 31.43889182629101], [76.35851634103605, 31.438871756997077], [76.35846949694866, 31.43562453315985], [76.36036311383427, 31.435604438433554], [76.36033966201002, 31.433980827146353], [76.36223324437971, 31.43396070572015], [76.36216280243544, 31.429089873116315], [76.36405628506259, 31.42906972754633], [76.36403277560088, 31.42744611709929], [76.36592622371819, 31.427425944840046], [76.36587914528488, 31.424178725218773], [76.36398576237836, 31.424198894922213], [76.36393875675617, 31.420951671034572], [76.36204543715013, 31.42097181022401], [76.3620689064123, 31.42259542365766], [76.36017555231, 31.422615536162883], [76.36019899086776, 31.424239150443263], [76.35830560226893, 31.42425923626068], [76.35832901011699, 31.425882851386067], [76.35643558702137, 31.42590291051208], [76.35645896415447, 31.427526526480772], [76.35456550656177, 31.42754655891179], [76.35458885297466, 31.429170175722096], [76.35269536088461, 31.42919018145451], [76.35271867657201, 31.43081379910474], [76.35082514998435, 31.430833778134957], [76.350848434941, 31.432457396623406], [76.34895487385545, 31.432477348947828], [76.34897812807607, 31.4341009682728], [76.34708453249237, 31.434120893887844], [76.34710775597168, 31.435744514047617], [76.34521412588957, 31.435764412949663], [76.34526051322983, 31.439011654508146], [76.3433668160224, 31.439031527952345], [76.34343631319938, 31.44390239086152], [76.34154251622348, 31.443922240097958], [76.34156565305703, 31.445545861470176], [76.3396718215736, 31.44556568397765], [76.33971803556861, 31.44881292795102], [76.33782413693453, 31.44883272497962], [76.33789337399163, 31.45370359149627], [76.33599937554752, 31.453723364291005], [76.33604547760358, 31.456970609003235], [76.3341514119865, 31.45699035630335], [76.33417443315031, 31.458613979268964], [76.33228033301357, 31.458633699818805], [76.33234930967672, 31.46350456989824], [76.33992609101894, 31.463425504678963], [76.33990296627235, 31.46180188675197], [76.34747958704504, 31.461722378475553], [76.34754935891901, 31.466593215871907], [76.33997234611932, 31.46667273925071], [76.33999547647339, 31.468296355895443], [76.34378405197104, 31.46825664771044], [76.34380724954846, 31.46988026141396], [76.34570156716332, 31.469860364045637], [76.34572479929498, 31.471483976062004], [76.34951349424804, 31.471444094763473], [76.34953679362101, 31.473067703827674], [76.35143117095618, 31.4730477198923], [76.35145450489647, 31.47467132726381], [76.33819359530645, 31.474810635292993], [76.33821670232123, 31.47643425105476], [76.34011115628776, 31.476414432707156], [76.34015744130325, 31.47966166043935], [76.34394647438933, 31.47962193465614], [76.34401611212913, 31.48449276550449], [76.34022688285448, 31.484532498831072], [76.34018058661646, 31.481285273664156], [76.33828603457088, 31.4813050957752], [76.3383091490563, 31.48292870982701], [76.33451997396728, 31.482968272476942], [76.33449692487885, 31.481344655921323], [76.33070780773654, 31.481384103965503], [76.33073079142746, 31.483007723017852], [76.33262538362739, 31.482988011761076], [76.33269444395751, 31.48785886261126], [76.33648381899802, 31.487819348514435], [76.33650690824719, 31.489442962109035], [76.33461218894935, 31.48946273442492], [76.33468136974942, 31.49433357639731], [76.33089172927903, 31.49437304441764], [76.33082274476662, 31.489502194953566], [76.3270332931521, 31.489541543344032], [76.32698744360022, 31.486294303251096], [76.32509278042957, 31.48631393290967], [76.32506989113679, 31.484690310980014], [76.32317525882101, 31.48470991136684], [76.3232209738444, 31.48795715727988], [76.32511567157209, 31.487937554412078], [76.32516145940696, 31.491184796135087], [76.3232666962568, 31.491204401484033], [76.32331242605923, 31.49445164397916], [76.32520725464246, 31.49443203614891], [76.32523015503577, 31.496055655514844], [76.32333529373206, 31.496075264585823], [76.32335816325279, 31.49769888476519], [76.3271479494558, 31.497659636098035], [76.32717088627601, 31.499283253366716], [76.32527596137419, 31.499302892964714], [76.32529886731957, 31.500926511048615], [76.32340390783853, 31.500946123841985], [76.32347253857975, 31.505816979252167], [76.3253675962619, 31.50579736273601], [76.32539050961186, 31.50742097911035], [76.32349541919072, 31.507440596867507], [76.32351830165051, 31.509064214055453], [76.32162317663877, 31.509083804997456], [76.3215546330231, 31.504212948433747], [76.31965960438279, 31.504232507607064], [76.31961398333416, 31.500985265286612], [76.31582405145772, 31.501024294541107], [76.31586954157497, 31.504271541800346], [76.31397450741274, 31.504291016820122], [76.3139063731887, 31.499420141594463], [76.3120114353867, 31.49943958487217], [76.31198876037533, 31.497815957712568], [76.31009385346769, 31.49783537171574], [76.31004857438685, 31.49458811365873], [76.31194341584903, 31.49456870211219], [76.31192074633383, 31.49294507367144], [76.31381555324546, 31.492925635314126], [76.31379285284605, 31.491302007676374], [76.31189807865043, 31.491321444803702], [76.31187541279868, 31.48969781550895], [76.30619117737325, 31.489755954987743], [76.30616861148593, 31.48813232158692], [76.30427389540462, 31.488151644118947], [76.30429642858071, 31.489775278742584], [76.3024016779672, 31.489794574461552], [76.30244668435172, 31.493041844870543], [76.29676222531839, 31.493099571116627], [76.29384241520073, 31.280399280508608], [76.29951408378781, 31.28034203172238], [76.29944728823857, 31.275470958081804], [76.30322819740947, 31.275432660485414], [76.30327285544642, 31.278680038471236], [76.30516337205913, 31.278660845531302], [76.30514100976812, 31.277037157970184], [76.31081245163239, 31.27697941598538], [76.31078999405169, 31.275355731667304], [76.30889954761012, 31.27537500557477], [76.30887712421003, 31.27375131960694], [76.30698670831777, 31.273770564489823], [76.30696431909303, 31.272146876874142], [76.3088547026242, 31.272127633213913], [76.30880986489488, 31.268880259152237], [76.31070018189784, 31.268860990142343], [76.31072263221122, 31.27048467616144], [76.31639366937698, 31.270426698680133], [76.3163711219972, 31.268803016344616], [76.31826143171843, 31.268783636156336], [76.31823885381039, 31.267159954626823], [76.31634857644175, 31.267179333583755], [76.31632603271055, 31.265555650397577], [76.31821627772922, 31.26553627267195], [76.31819370347475, 31.263912590291714], [76.32197412333497, 31.26387375393591], [76.3219288509327, 31.260626392834826], [76.3257091340937, 31.26058745027306], [76.32566373966667, 31.25734009241959], [76.32188358585665, 31.257379030032133], [76.32186095606563, 31.255755347992725], [76.3237510015537, 31.25573589431366], [76.3237283412626, 31.254112213085214], [76.3218383281058, 31.254131665527947], [76.32181570197699, 31.25250798263782], [76.32370568280513, 31.252488531431357], [76.32366037139064, 31.249241166847547], [76.32555028573601, 31.249221690340608], [76.32550491701582, 31.245974326531194], [76.32739476488682, 31.245954824730784], [76.3273720509649, 31.244331143427612], [76.32926186468246, 31.244311615099377], [76.32923912028603, 31.242687934612142], [76.3254595556381, 31.24272696102031], [76.32539152733636, 31.237855909563994], [76.32350183918092, 31.237875377406365], [76.32347919905284, 31.236251691499348], [76.32725850892412, 31.236212730531165], [76.32716770836642, 31.229717992558058], [76.32527818353111, 31.22973748196435], [76.32525552027353, 31.228113795168674], [76.32336602589324, 31.22813325558591], [76.32334339675656, 31.226509567127643], [76.32145393283155, 31.226528998559292], [76.32138615325454, 31.221657926926973], [76.31571804105386, 31.22171604364376], [76.31567305746377, 31.218468653038702], [76.31378374763672, 31.218487967334443], [76.31380620624722, 31.220111664077795], [76.31002751659352, 31.220150211901046], [76.31000512253202, 31.218526512706283], [76.30622649017724, 31.218564947117965], [76.30627115100866, 31.221812349971493], [76.30816053264324, 31.221793144193075], [76.30820526526756, 31.22504054290478], [76.30442637106516, 31.22507893159995], [76.30444867552224, 31.226702632759743], [76.30255919342642, 31.226721786704243], [76.30249238231941, 31.221850678296992], [76.29871360642083, 31.22188889564675], [76.298669203801, 31.21864148305795], [76.29677987770826, 31.218660547691695], [76.29680204584423, 31.220284255410856], [76.29302332372737, 31.220322303875868], [76.29273611663393, 31.19921403896843], [76.66104288473824, 31.194985885970183], [76.66115636715512, 31.201479668336916], [76.6630450402088, 31.201455264060186], [76.66310185965197, 31.204702149539], [76.66121312214244, 31.204726556920395], [76.6611847435004, 31.203103112845316], [76.6536298994377, 31.203200459079806], [76.65368640117121, 31.2064473591805], [76.65557518008525, 31.206423061093673], [76.65560346661698, 31.208046508948858], [76.66126988631743, 31.207973443770474], [76.66129827185071, 31.209596886545455], [76.66318710606357, 31.209572474506647], [76.66315868829324, 31.207949033284187], [76.66693628534271, 31.2079001291721], [76.66696476758663, 31.209523567284233], [76.67074241988882, 31.209474549202852], [76.67077096891616, 31.21109798376397], [76.67265982384173, 31.21107343159008], [76.67268840742109, 31.212696864156094], [76.67835505503149, 31.21262303664318], [76.67838373765542, 31.21424646408042], [76.66705022815044, 31.214393879019276], [76.66702173899034, 31.212770442207834], [76.65946614881712, 31.2128681582206], [76.65949450899805, 31.214491601246266], [76.65760557346525, 31.214515962502063], [76.6575772455295, 31.21289251792725], [76.65568833994935, 31.212916849915043], [76.65566004654887, 31.211293403359562], [76.64621564556795, 31.211414639801333], [76.64624377775223, 31.21303809406707], [76.64435485847179, 31.213062259739274], [76.64438296068663, 31.21468571510881], [76.64249400688543, 31.214709854596386], [76.64260630947855, 31.221203677885438], [76.63882813703732, 31.22125188595615], [76.63888417292367, 31.22449880113362], [76.64077332480151, 31.224474707899013], [76.64080137841103, 31.226098163306517], [76.64269056028361, 31.226074040806004], [76.64271864843096, 31.227697494246843], [76.63705099920176, 31.22776978314206], [76.63707899281134, 31.22939324074583], [76.63518973959698, 31.229417283100855], [76.63513381918172, 31.22617036440354], [76.63135543504532, 31.226218359796633], [76.63138332958515, 31.227841822413254], [76.6276048718825, 31.22788970991248], [76.6275770418798, 31.226266244251363], [76.62379863970604, 31.22631401776681], [76.62388194284203, 31.231184422564887], [76.6219926415684, 31.231208272268475], [76.62196490388362, 31.229584802918804], [76.61818635915398, 31.229632416077422], [76.61821403228959, 31.231255888454157], [76.61632472428965, 31.23127965493602], [76.61638001272206, 31.234526601414228], [76.61449063792746, 31.2345503431737], [76.61446302487293, 31.232926868641545], [76.61068433314345, 31.23297426591389], [76.61073943236013, 31.236221220572272], [76.60885001858634, 31.23624488060207], [76.60882250014659, 31.23462140198502], [76.60504373048788, 31.23466863580215], [76.60518102206998, 31.242786039579904], [76.60140192063461, 31.242833177396165], [76.6014293210236, 31.24445665985149], [76.59765014612546, 31.2445036896406], [76.59767748413206, 31.246127174653036], [76.5957878610636, 31.246150649405518], [76.59581516897974, 31.247774135477975], [76.59203585161089, 31.247821004687754], [76.59209034484527, 31.25106798149456], [76.5902006182387, 31.25109137743319], [76.59030950190704, 31.257585331811992], [76.58841964383808, 31.257608705927726], [76.5884468379403, 31.259232194928067], [76.58466705056072, 31.259278862812558], [76.58469418221445, 31.260902354346456], [76.58280425290597, 31.260925648109733], [76.58285845814237, 31.264172632842495], [76.57907846363473, 31.264219142955053], [76.5791055048769, 31.265842637628957], [76.57721547200715, 31.26586585249267], [76.57718846309795, 31.26424235634387], [76.57340845547152, 31.264288699786], [76.57351624552389, 31.270782693570254], [76.56973597047833, 31.27082893764808], [76.56976285875447, 31.272452437953184], [76.56787268562321, 31.27247551977948], [76.56789954372803, 31.27409902111946], [76.56600933607695, 31.27412207662248], [76.5659825103191, 31.27249857381795], [76.56031197139576, 31.27256756920515], [76.5603387001118, 31.27419107639279], [76.55655826531793, 31.274236937289587], [76.55658493149598, 31.27586044695936], [76.55280442337167, 31.27590619960134], [76.55283102700079, 31.277529711746354], [76.54905044556054, 31.277575356118607], [76.54907698662984, 31.279198870732], [76.54529633188811, 31.279244406819622], [76.54532281038664, 31.28086792389449], [76.53776134578116, 31.28095866827779], [76.53778769697352, 31.28258219068571], [76.53211647903879, 31.282649961394398], [76.5321427352673, 31.284273487676156], [76.52836184795487, 31.284318532007013], [76.52841423730648, 31.287565589000838], [76.52463321203867, 31.287610527829564], [76.52465934514576, 31.28923405853483], [76.52276879696547, 31.28925648766426], [76.52279489981014, 31.29088001936354], [76.52090431714149, 31.290902422107518], [76.5209303897185, 31.292525954799146], [76.51903977256119, 31.29254833115409], [76.51906581486531, 31.294171864836358], [76.5152845094686, 31.294216536947218], [76.51531048910952, 31.295840073036008], [76.51720117524503, 31.295817749469926], [76.51725320561015, 31.299064817521508], [76.51536245469661, 31.29908714392281], [76.51538844064311, 31.300710678720804], [76.51349765523449, 31.30073297871884], [76.51357552849254, 31.305603584779053], [76.51168464378898, 31.305625861198788], [76.51171057333774, 31.307249397105974], [76.50981965413295, 31.30727164711183], [76.50984555337273, 31.308895184001386], [76.50795459966643, 31.308917407589792], [76.50798046859202, 31.31054094546002], [76.5060894803839, 31.31056314262735], [76.50611531899006, 31.312186681476586], [76.50233327148212, 31.312230995128004], [76.50230749770043, 31.310607453465707], [76.50419849008584, 31.31058531196261], [76.50412108402728, 31.3057146886122], [76.50601197710458, 31.305692523498887], [76.50598614685735, 31.304068982929188], [76.50220442341937, 31.304113282516248], [76.50225595639107, 31.307360368851], [76.50036502673801, 31.307382479714192], [76.5003907639432, 31.309006023640343], [76.49660883357943, 31.30905016468233], [76.4966601845903, 31.312297256849515], [76.49476915146887, 31.312319288421413], [76.49482044595408, 31.31556638166624], [76.50805808792482, 31.315411556489575], [76.50810984461152, 31.318658628358172], [76.50621869431714, 31.318680832571868], [76.50629624776423, 31.323551441376235], [76.5044049980955, 31.323573621972127], [76.50445664598013, 31.326820695172792], [76.50256532935369, 31.326842850734483], [76.50259112399064, 31.32846638809561], [76.50069977283934, 31.328488517211706], [76.50072553712134, 31.330112055547023], [76.49694276368719, 31.330156233027147], [76.49699416872114, 31.33340331401458], [76.49510271399348, 31.333425363772324], [76.49512838717916, 31.335048905020145], [76.49323689792546, 31.33507092831793], [76.4932625407352, 31.33669447053321], [76.48758796318364, 31.33676037745218], [76.48756241773191, 31.33513683105494], [76.48567092019866, 31.335158742914814], [76.48569643319745, 31.336782290702516], [76.48380490114776, 31.33680417609131], [76.48385586842181, 31.34005127315467], [76.48574746538557, 31.340029384988345], [76.48577298457522, 31.341652931486475], [76.47820645451898, 31.341740322505117], [76.47818106517413, 31.340116770462295], [76.48007266831345, 31.340094965891748], [76.4799710016459, 31.333600758957434], [76.47807952832599, 31.333622557994364], [76.47810490945864, 31.335246111755822], [76.47621340163498, 31.33526788431592], [76.4762641051489, 31.338514993313193], [76.47437253036473, 31.33853674077276], [76.47432189176111, 31.33528962901575], [76.47053886587324, 31.335333034834164], [76.47056411924306, 31.336956593681837], [76.4724556656636, 31.336934903326554], [76.472506243447, 31.34018201698072], [76.47061463211033, 31.34020371008876], [76.4706904167324, 31.345074381477907], [76.46879870595863, 31.34509605084425], [76.46882393911554, 31.346719608489714], [76.46693219383103, 31.346741251357816], [76.4670078081205, 31.35161192583663], [76.47079149150085, 31.351568603983168], [76.47076621974341, 31.34994504900121], [76.47454982999321, 31.349901618389936], [76.474575166706, 31.351525170616668], [76.47268333012663, 31.351546901239008], [76.4727339447364, 31.35479400716055], [76.47462584627885, 31.354772273781094], [76.47465118913921, 31.356395824718724], [76.47654312111766, 31.35637406207727], [76.47656849851545, 31.35799761120474], [76.47278456753301, 31.358041111363438], [76.47280988200175, 31.359664662820347], [76.47091788094785, 31.359686372448856], [76.4708673190365, 31.35643926635146], [76.46708344075687, 31.356482596449926], [76.46703301696056, 31.353235483137244], [76.46135737916467, 31.35330026093771], [76.46138249259268, 31.354923821918067], [76.45949057677839, 31.35494536012346], [76.45954074475182, 31.358192483528555], [76.4576487619333, 31.358213996580556], [76.45767381647099, 31.359837559003644], [76.45578179913444, 31.359859045532374], [76.45583184929643, 31.36310617181628], [76.45204767857068, 31.363149066650756], [76.4520976068221, 31.366396196658684], [76.44642114059015, 31.366460337857887], [76.44639627296442, 31.364836769000778], [76.44261201709092, 31.36487938761974], [76.4426368197097, 31.36650295917986], [76.44074465625961, 31.366524227997285], [76.44076942837779, 31.368147800477267], [76.43320062454632, 31.36823260216539], [76.43322526863054, 31.369856179594446], [76.43700973956106, 31.369813831860533], [76.43705916376166, 31.3730609800609], [76.43516686426753, 31.37308217056511], [76.43524091799706, 31.37795289367999], [76.43713331505083, 31.37793169914434], [76.43718275923743, 31.381178843055054], [76.43529029713076, 31.381200040278575], [76.43531498969226, 31.382823612934406], [76.43342249305859, 31.382844783588073], [76.43347181910259, 31.3860919302974], [76.43157925540571, 31.38611307571816], [76.431628524347, 31.389360223392856], [76.42973589357847, 31.389381343573742], [76.4297851053969, 31.392628492210523], [76.42599970771259, 31.392670654153637], [76.42602425150722, 31.394294230501345], [76.42413151713764, 31.39431527091919], [76.4242050627641, 31.399186001390518], [76.42231222874754, 31.39920701787757], [76.42233671536036, 31.400830595175766], [76.41855097626998, 31.400872547011907], [76.41857539973624, 31.402496126540285], [76.41668249466464, 31.402517061883895], [76.41670688753955, 31.40414064231043], [76.41481394792979, 31.404161551043053], [76.41483831020807, 31.405785132366027], [76.41294533605989, 31.405806014484085], [76.41296966773629, 31.407429596701828], [76.41107665904941, 31.407450452201697], [76.41110096011866, 31.409074035312496], [76.41299400137986, 31.409053178490918], [76.41301833699072, 31.410676759851338], [76.41491140886141, 31.41065587376286], [76.41488704067373, 31.409032293725957], [76.41678007799769, 31.4090113810177], [76.41675567920593, 31.40738780187734], [76.41864868198343, 31.407366862552934], [76.41859982517715, 31.404119705639932], [76.42049276083998, 31.40409874103166], [76.42046830283321, 31.402475163260668], [76.42425410309275, 31.40243315289386], [76.42430315135151, 31.405680302681695], [76.42619611364229, 31.405659252926725], [76.4261715559535, 31.404035679581256], [76.42806448369093, 31.404014603222944], [76.42803989542216, 31.402391030784266], [76.42993278860648, 31.4023699278262], [76.43000665708009, 31.407240639842602], [76.43379263288024, 31.407198342079166], [76.43384201877991, 31.410445475916926], [76.4433072490388, 31.410339229086432], [76.44333210787114, 31.411962788628657], [76.44522518048196, 31.411941454079717], [76.44520028907245, 31.41031789588938], [76.4489863631005, 31.410275145665135], [76.44896140855454, 31.408651589754367], [76.45842639540413, 31.408544231993016], [76.45840128001953, 31.406920682455983], [76.46218719542316, 31.406877546498023], [76.46213684047787, 31.403630451601877], [76.46402972999458, 31.403608844453316], [76.46400452301239, 31.401985297729897], [76.46968308163758, 31.401920312791596], [76.46965777901423, 31.400296769756928], [76.47155059524209, 31.40027505362068], [76.47152526210753, 31.398651511532403], [76.4696324784364, 31.3986732262923], [76.46960717990396, 31.397049682397736], [76.47339268009017, 31.397006227702754], [76.4733673185002, 31.39538268613254], [76.4752600329677, 31.395360918273266], [76.47528542710884, 31.396984458463688], [76.47907091498418, 31.396940836202926], [76.4790454557411, 31.3953172987774], [76.48093816404176, 31.395295447141038], [76.48091267430883, 31.393671910670424], [76.47712732074564, 31.39371558324923], [76.47707647763875, 31.39046850348109], [76.47896909036078, 31.390446683920032], [76.47899454342955, 31.39207022263595], [76.48277982778312, 31.392026496981384], [76.48272879353755, 31.38877942466275], [76.48083621747382, 31.38880129867759], [76.48081073598293, 31.387177760486356], [76.48459582097273, 31.38713398731342], [76.4845702764725, 31.38551045146701], [76.4864627833361, 31.38548852439597], [76.48651393947362, 31.38873559287826], [76.49219164285985, 31.38866963581611], [76.4921402915091, 31.385422575695983], [76.4940327900854, 31.385400536967364], [76.49400708499245, 31.383777007658864], [76.4958995489592, 31.38375494241506], [76.49587381341598, 31.382131414075012], [76.4977662427735, 31.3821093223196], [76.49774047678525, 31.38048579494971], [76.4996328715338, 31.380463676686297], [76.4996070751058, 31.378840150288237], [76.5014994352457, 31.378818005520422], [76.50147360838321, 31.37719448009588], [76.50336593391472, 31.377172308827262], [76.50334007662299, 31.375548784377937], [76.50523236754645, 31.37552658661211], [76.5051805942081, 31.372279539236622], [76.51085725933017, 31.372212786988353], [76.51083127827327, 31.370589266887496], [76.51272346327363, 31.37056696175439], [76.51269745181128, 31.368943442637192], [76.51458960220228, 31.36892111102313], [76.51456356033972, 31.36729759289131], [76.51834778979537, 31.36725284881513], [76.5183216850374, 31.365629333090002], [76.52021376409984, 31.365606920633347], [76.52018762895499, 31.36398340589868], [76.5220796734065, 31.363960966973753], [76.52202734446915, 31.36071393905775], [76.52391932181791, 31.360691475092946], [76.52394551772086, 31.362314987841625], [76.5258375254434, 31.362292494564382], [76.52581129704848, 31.360668983242263], [76.52770327015823, 31.36064646350582], [76.52767701139491, 31.359022953180926], [76.52956894989217, 31.35900040698889], [76.52954266076574, 31.357376897662917], [76.53143456465078, 31.35735432501887], [76.53140824516647, 31.35573081669352], [76.53330011443963, 31.35570821760104], [76.53327376460268, 31.354084710278006], [76.53516559926426, 31.354062084740722], [76.53513921907992, 31.352438578421648], [76.53703101913023, 31.352415926443147], [76.53700460860375, 31.35079242112975], [76.53889637404306, 31.350769742713627], [76.5388434944545, 31.347522733670246], [76.54073519281337, 31.34750003026043], [76.54068225684507, 31.344253022372463], [76.5331157103207, 31.34434365728545], [76.53301038339755, 31.337849613335006], [76.53679340126311, 31.337804363098822], [76.53684619028856, 31.341051380193647], [76.53873776093197, 31.341028710408384], [76.53876419110615, 31.342652216870707], [76.54065579207145, 31.34262951778154], [76.54068225684507, 31.344253022372463], [76.54446551727592, 31.344207537712283], [76.54441246002743, 31.34096053387036], [76.54630402210559, 31.340937752630634], [76.54627746424308, 31.339314251507993], [76.54438593462112, 31.339337031302353], [76.54435941135989, 31.337713528303006], [76.55192538713763, 31.337622247748495], [76.55189873621848, 31.33599875010953], [76.55379019233055, 31.33597586177429], [76.55376351111897, 31.33435236515612], [76.55754635197184, 31.33430650782283], [76.55751960802827, 31.33268301368292], [76.5594109927669, 31.332660044690364], [76.55938421854417, 31.331036551576325], [76.55749286624756, 31.33105951911139], [76.55746612662952, 31.329436024108222], [76.55935744648676, 31.32941305803061], [76.55930390886722, 31.326166069644277], [76.55741265388089, 31.326189032807132], [76.55738592074998, 31.324565536509215], [76.56495079797057, 31.324473522618092], [76.56489707877597, 31.32122654040666], [76.56678822780233, 31.321203470250783], [76.56676133904044, 31.319579979961688], [76.56865245346904, 31.319556883430884], [76.5685447905017, 31.313062923820496], [76.57043577308825, 31.31303980532119], [76.57038188984885, 31.309792825860384], [76.57416371884898, 31.309746511246843], [76.57413671568956, 31.308123023808882], [76.57602759451062, 31.308099826232603], [76.57597352994398, 31.304852853006388], [76.5835367641378, 31.3047597962565], [76.58350960555147, 31.303136314903465], [76.58540037621896, 31.303112982641487], [76.58537318743669, 31.301489502337727], [76.58348244916188, 31.301512833118366], [76.58342814297227, 31.298265868252006], [76.58531881646958, 31.298242540433897], [76.58526445429803, 31.29499557680177], [76.58715506082974, 31.294972224134455], [76.58712785066248, 31.293348743153167], [76.59090899236134, 31.293301957355382], [76.59085444912871, 31.2900550000383], [76.58896394413149, 31.290078403869344], [76.58893670819546, 31.288454923076323], [76.5908271808214, 31.288431520731525], [76.59079991471992, 31.286808040992597], [76.59269035277158, 31.28678461233161], [76.59263576245625, 31.283537654533152], [76.5983068691657, 31.28346721068553], [76.59827948023906, 31.281843735612075], [76.60016981235408, 31.281820200227457], [76.60014239328568, 31.280196726216534], [76.60770357010904, 31.280102312711012], [76.60773111860546, 31.28172578072504], [76.60962143960303, 31.281702106359027], [76.60959385875002, 31.280078639848625], [76.6114841451598, 31.28005493919207], [76.61131851280717, 31.27031414007754], [76.61320860290036, 31.270290420668847], [76.61318097298614, 31.26866695414262], [76.61507102850604, 31.268643208459142], [76.61496040187545, 31.262149344062387], [76.61874024755045, 31.262101781439895], [76.61871253183737, 31.260478317281198], [76.62060241898813, 31.260454495822227], [76.6206301670255, 31.262077958467312], [76.62440999923761, 31.262030229200032], [76.62443781417339, 31.263653688379765], [76.62632775923164, 31.263629780566344], [76.62635560874698, 31.265253237794237], [76.62824558388097, 31.265229300684542], [76.62827346798107, 31.266852755958723], [76.63016347319049, 31.2668287895493], [76.63013555675909, 31.265205335797713], [76.63202552737869, 31.265181343133854], [76.63199758087723, 31.26355789047356], [76.63388751690731, 31.263533871558852], [76.63385954034104, 31.261910419991544], [76.63952923786302, 31.26183820118636], [76.63950116659164, 31.260214753774445], [76.64139102890408, 31.260190626826418], [76.6413629275839, 31.258567180514234], [76.64325275530288, 31.2585430273299], [76.64322462393912, 31.256919582119153], [76.64511441706499, 31.256895402702124], [76.64508625566286, 31.25527195859448], [76.6469760141959, 31.255247752948318], [76.64694782276065, 31.253624309945444], [76.64883754670122, 31.253600078073756], [76.64880932523805, 31.251976636177332], [76.65636806890544, 31.25187943723356], [76.65633972050247, 31.250256001080437], [76.65822936838595, 31.250231633489594], [76.65825774909432, 31.25185506809414], [76.66014742698678, 31.25183067119354], [76.6601758422994, 31.25345410381405], [76.65072726835827, 31.253575818438566], [76.65075552441621, 31.255199258359944], [76.64886577044788, 31.255223519536763], [76.64889399647825, 31.256846960566335], [76.64700420791222, 31.256871195517803], [76.64703240390976, 31.2584946376539], [76.64514258074571, 31.258518846376422], [76.64519891494368, 31.261765732424962], [76.64330902485908, 31.261789916451477], [76.64339344626737, 31.266660246883795], [76.64150345692352, 31.266684407742297], [76.64147534650753, 31.26506096316327], [76.63769542566027, 31.265109198481294], [76.63772347141537, 31.266732646124893], [76.63394347683074, 31.266780773394213], [76.63397146018822, 31.268404223662223], [76.63208142716512, 31.268428247155256], [76.63216529380603, 31.27329859993922], [76.63027516150447, 31.27332260022535], [76.63021931282951, 31.270075695753416], [76.6264391708133, 31.270123606880485], [76.62641131453765, 31.268500150951333], [76.62452127248446, 31.26852406332193], [76.62449345079666, 31.266900605440743], [76.62071342460895, 31.2669483438062], [76.62068566983574, 31.265324882459314], [76.6187956857043, 31.265348708459285], [76.61882340814537, 31.266972171319942], [76.61693338943884, 31.266995971054197], [76.6170164732081, 31.271866361576155], [76.61512635524817, 31.271890138061835], [76.61518169094325, 31.275137065933905], [76.61707187359158, 31.2751132864273], [76.61709957714498, 31.276736748203785], [76.62088000041132, 31.27668910279904], [76.62093554364952, 31.279936019000672], [76.6247160873356, 31.27988825636893], [76.62474392703577, 31.281511710786724], [76.62096331863886, 31.281559476452202], [76.62101887535877, 31.284806390056563], [76.61912850306929, 31.284830234225083], [76.61921175790634, 31.289700605927983], [76.6173212862733, 31.2897244268356], [76.61734901000436, 31.29134788471687], [76.61545850375705, 31.291371679331185], [76.61548619735656, 31.29299513829063], [76.60792402049336, 31.293090044711473], [76.6080067261753, 31.29796043707358], [76.60611607923742, 31.297984098665037], [76.60622625514709, 31.30447795510031], [76.60433547642299, 31.304501594880897], [76.60436299357463, 31.306125059408895], [76.6005813646591, 31.30617225850338], [76.60060881923852, 31.30779572559527], [76.59871796904923, 31.307819284903708], [76.59877282006416, 31.311066220781182], [76.59499098341998, 31.31111326189549], [76.59510045278235, 31.31760714040541], [76.59320940149297, 31.317630625181856], [76.59318206324744, 31.31600715471246], [76.59129104216244, 31.316030610164237], [76.59126373854099, 31.314407137773614], [76.58937274766068, 31.314430563904214], [76.58940001886896, 31.31605403778187], [76.5856179656671, 31.316100809514214], [76.58567238503207, 31.31934776191038], [76.5837812902938, 31.31937110898849], [76.5838084708561, 31.320994586020085], [76.58191734149788, 31.321017906740174], [76.58199879909547, 31.325888339682226], [76.58010757026031, 31.325911636997667], [76.5801889503199, 31.3307820704856], [76.57829762198585, 31.33080534438611], [76.57832472062016, 31.33242882282796], [76.57643335765415, 31.332452070352804], [76.57651456937067, 31.337322507511097], [76.57273164219845, 31.337368927838195], [76.5727586522471, 31.338992408972075], [76.57086715293184, 31.339015578818387], [76.57094809881507, 31.34388602403802], [76.56527329567612, 31.343955379615394], [76.56535396901629, 31.348825834147412], [76.56157056125588, 31.348871940644514], [76.56159739177784, 31.350495427549525], [76.56348912921473, 31.35047238677498], [76.56351599437964, 31.352095871786492], [76.56540776211716, 31.35207280167562], [76.5654346619303, 31.353696284791756], [76.56354286171714, 31.35371935636607], [76.56356973122733, 31.35534284051367], [76.56167789636304, 31.35536588567323], [76.56165105933127, 31.353742400063904], [76.55597563916365, 31.353811363897403], [76.55602912051714, 31.357058343433415], [76.55413724450598, 31.35708127853356], [76.55416395594213, 31.358704769108634], [76.5522720452866, 31.35872767778119], [76.55232540966246, 31.3619746605422], [76.55421738529473, 31.36195174896353], [76.5543509964852, 31.370069191044344], [76.55245885836504, 31.370092109889146], [76.55237878266921, 31.36522164157626], [76.54859469495861, 31.365267386877527], [76.54870120685587, 31.37176135536962], [76.54680902976219, 31.371784191977664], [76.54686223361088, 31.37503117652975], [76.54496998934641, 31.375053988133605], [76.54491685051772, 31.37180700068878], [76.54302466912512, 31.371829781502857], [76.54305120495646, 31.373453276885666], [76.54115898890934, 31.3734760312454], [76.54118549437473, 31.37509952763949], [76.53929324367279, 31.375122255541285], [76.53934619600187, 31.378369249917117], [76.53745387812761, 31.3783919527968], [76.53750677397792, 31.38163894832551], [76.53561438892287, 31.381661626176076], [76.53564080753056, 31.383285124730975], [76.53753322511085, 31.383262445442597], [76.53755967838245, 31.38488594212816], [76.53377477602996, 31.384931275668865], [76.5337483878142, 31.383307776109373], [76.5318559659644, 31.38333039957769], [76.531882321652, 31.38495390057149], [76.52998986514308, 31.384976497562164], [76.53001619043073, 31.386599999557163], [76.52812369926238, 31.386622570066574], [76.52822889154875, 31.393116579456606], [76.53012151286774, 31.393094003223432], [76.53014784879934, 31.394717503061504], [76.52825519493614, 31.394740080725736], [76.52830780809093, 31.397987081969845], [76.52641508700445, 31.39800963457001], [76.52638881191331, 31.396386132734264], [76.52071073356846, 31.396453618698132], [76.52078927224176, 31.401324135744336], [76.5188964775655, 31.401346579482837], [76.51894878214539, 31.40459359153576], [76.51705592023588, 31.404616010185258], [76.51710816814354, 31.407863023354885], [76.51521523899224, 31.407885416908393], [76.51518914654879, 31.40626190912011], [76.5114033470537, 31.40630660958107], [76.51145540377854, 31.409553630392185], [76.5095624357375, 31.40957594154602], [76.50961443573281, 31.412822963460588], [76.51150746892058, 31.412800649479024], [76.51155954248102, 31.416047666841465], [76.50966644413602, 31.416069983650956], [76.50969245149093, 31.41769349309952], [76.50779931846095, 31.417715783374394], [76.50785127430487, 31.42096280380292], [76.50974447250819, 31.42094051070338], [76.50977048617082, 31.42256401885865], [76.50787725537688, 31.422586313370587], [76.50790323854913, 31.424209822507166], [76.50600997306155, 31.424232090475716], [76.5059840224827, 31.422608579928454], [76.50409078749092, 31.42263081853213], [76.50411670547624, 31.424254330488314], [76.50222343579578, 31.424276542544842], [76.50219755040418, 31.422653029181525], [76.4984110699563, 31.422697366616987], [76.49843689016006, 31.424320882789274], [76.49654361421007, 31.424343010976973], [76.49656940390426, 31.425966528120284], [76.49846271245104, 31.425944398530707], [76.49851436329524, 31.429191428720934], [76.49283423579809, 31.429257742015825], [76.49285996653713, 31.43088126066533], [76.49096655393657, 31.43090331056978], [76.49094085580266, 31.429279790523555], [76.48715408958306, 31.429323803652526], [76.48720535750152, 31.432570848890553], [76.49288569935608, 31.432504778884077], [76.49291143425509, 31.434128296672025], [76.4910179564364, 31.43415034937002], [76.49112078636807, 31.440644421801345], [76.4930143946547, 31.440622363515672], [76.49306588733872, 31.443869394352397], [76.49495955879398, 31.443847305294625], [76.49498534088626, 31.445470818667783], [76.49119793063706, 31.445514971601398], [76.4912236495504, 31.447138487339718], [76.48932990867496, 31.447160523232224], [76.4893555970328, 31.448784039935152], [76.48746182144683, 31.448806049239632], [76.48741051207342, 31.44555901261565], [76.48930422239323, 31.445537006098494], [76.48922717600331, 31.440666452112506], [76.48354633246632, 31.440732375197776], [76.48352075235172, 31.439108852165877], [76.47973357822805, 31.439152658240317], [76.47975909309916, 31.440776184046726], [76.47786547032072, 31.440798046508498], [76.47796741991596, 31.447292150967556], [76.47607366456302, 31.447313990985812], [76.47604820670676, 31.44569046413381], [76.47226075509624, 31.44573405746215], [76.47238773857417, 31.45385170122159], [76.47049384649739, 31.4538734628034], [76.47051921670506, 31.455496991641926], [76.46862528993151, 31.455518726610034], [76.46859995237027, 31.453895196395354], [76.46670605619542, 31.45391690199732], [76.4667313611101, 31.455540433586396], [76.46483743024349, 31.455562112570902], [76.46486270455404, 31.457185645102303], [76.46296873899533, 31.457207297465747], [76.46301922843784, 31.460454363979565], [76.46112519553188, 31.460475991087552], [76.46117562781816, 31.463723058618836], [76.4630697260419, 31.463701428772286], [76.46314548775338, 31.46857202273408], [76.46693387406768, 31.46852867080603], [76.46690855278717, 31.466905142659947], [76.46880271020841, 31.466883426061596], [76.4688534201538, 31.47013047917376], [76.46695919739459, 31.470152198521678], [76.46698452276802, 31.471775725806882], [76.46509026528919, 31.47179741852007], [76.46514085682213, 31.47504447454536], [76.46324653194486, 31.47506614199163], [76.46327179809659, 31.476689670730067], [76.46137743849631, 31.476711311532682], [76.46140267400595, 31.478334841210433], [76.45950827968241, 31.47835645536579], [76.45953348454465, 31.47997998598115], [76.45763905549752, 31.48000157348564], [76.4576642297071, 31.481625105036922], [76.45576976593611, 31.48164666588696], [76.45571948492784, 31.478399599625178], [76.45761388332217, 31.478378041504083], [76.45758871318084, 31.476754509092213], [76.45948307685687, 31.476732924320096], [76.45945787606789, 31.4751093928441], [76.4613522050259, 31.475087781424573], [76.46125129153323, 31.46859365668881], [76.45935709327462, 31.468615262637194], [76.45938228591882, 31.470238795834323], [76.45748805295334, 31.470260375142207], [76.45751321495985, 31.471883909275075], [76.45372467758374, 31.47192698659243], [76.45377487698593, 31.475174059021032], [76.45188053989813, 31.475195558385792], [76.45190560995987, 31.476819095315662], [76.4481168643448, 31.47686201271952], [76.44809185964756, 31.475238473073343], [76.44998620078445, 31.4752170297366], [76.44996116542809, 31.473593491017624], [76.44806685697088, 31.47361493299715], [76.44804185631463, 31.471991392490942], [76.44614757851417, 31.4720128051027], [76.44617254649323, 31.4736363469643], [76.44427823399779, 31.47365773291895], [76.44430317131469, 31.475281275704262], [76.44619751649009, 31.47525988839594], [76.44624746253774, 31.478506969969274], [76.44435305199448, 31.478528359985084], [76.44440294073664, 31.481775442546034], [76.4462974166583, 31.481754049822566], [76.44634737885289, 31.485001127955705], [76.44445283754226, 31.485022523387034], [76.44455265534857, 31.491516679908724], [76.44265798121157, 31.491538052724188], [76.44263305644176, 31.489914512886493], [76.43884376754158, 31.489957171721322], [76.4388189101939, 31.4883336287543], [76.44071352294549, 31.48831231470091], [76.4406886349048, 31.4866887726527], [76.4368994727963, 31.486731370034942], [76.43692429543378, 31.488354914778828], [76.43313505989856, 31.48839740274087], [76.43323410884095, 31.494891588172834], [76.43512885844439, 31.494870352832283], [76.435178460355, 31.498117440282076], [76.43328364531861, 31.49813867830991], [76.43330841655956, 31.499762222733697], [76.42762386129002, 31.499825772598463], [76.42759918821125, 31.498202224154166], [76.42570436518488, 31.49822335002215], [76.42575364789141, 31.501470449154297], [76.4238587574292, 31.5014915496518], [76.42388336904271, 31.50311509990828], [76.42577829223136, 31.50309399807583], [76.42585223719968, 31.507964642262113], [76.42395721581585, 31.50798574809965], [76.42403108049088, 31.512856392423682], [76.42024083531936, 31.512898527940795], [76.42021627725671, 31.51127497759741], [76.41642608963386, 31.511316998230534], [76.41645058221091, 31.512940551231914], [76.41455545268697, 31.512961520792494], [76.4146043782841, 31.516208628159383], [76.41081398232116, 31.516250488404996], [76.41091159519465, 31.522744708575157], [76.4071209293033, 31.522786467141245], [76.40704791323124, 31.517915794735707], [76.40325743601565, 31.51795743312954], [76.40330598040791, 31.521204553763102], [76.40141067334571, 31.52122533349422], [76.40148340635547, 31.52609601516734], [76.39958799904686, 31.52611677076945], [76.39961221453315, 31.527740331781093], [76.4015076546097, 31.527719574866435], [76.40153190482297, 31.529343134136194], [76.40342737571093, 31.529322347833688], [76.4034516606565, 31.5309459053597], [76.39966065137507, 31.530987452516516], [76.39963643197584, 31.529363892363456], [76.39774095717215, 31.529384622515348], [76.39776514379801, 31.531008183979278], [76.39586963426692, 31.531028887364805], [76.39596626919169, 31.537523134164505], [76.39217498203527, 31.537564467155764], [76.3922231800557, 31.54081159320669], [76.39411889018527, 31.540790938141757], [76.39414302490813, 31.542414499217568], [76.39603876588028, 31.542393814756938], [76.3960629353477, 31.544017374095787], [76.39416716158073, 31.544038059864093], [76.39419130020318, 31.545661620081333], [76.39229549168873, 31.545682279063943], [76.39227138586388, 31.544058717540764], [76.39037560819983, 31.544079347125706], [76.39047191197697, 31.550573595859756], [76.38857600116089, 31.550594202562657], [76.3886962605797, 31.558712010335267], [76.38490410498285, 31.558753152443753], [76.38497608700351, 31.563623839757128], [76.38307990782256, 31.563644372541752], [76.38312783986468, 31.566891497866465], [76.38123159308496, 31.566912005129204], [76.38127946719699, 31.570159131328925], [76.38317577965044, 31.570138621474328], [76.38319975244754, 31.571762182634437], [76.3794070599253, 31.571803176813066], [76.3794309689716, 31.573426740134188], [76.37753458696885, 31.573447196332104]], [[76.31751410927578, 31.486392171230207], [76.31940877982962, 31.486372653697337], [76.31938598865115, 31.484749028051596], [76.32128062465826, 31.48472948372407], [76.32123498242443, 31.481482233624973], [76.31744583937252, 31.481521289306354], [76.31751410927578, 31.486392171230207]], [[76.32497835246069, 31.478195818989086], [76.32687285213524, 31.478176195541266], [76.32684993939799, 31.47655257271756], [76.32874440452963, 31.476532922491245], [76.32872146095546, 31.474909300484086], [76.32493259421777, 31.474948570430428], [76.32497835246069, 31.478195818989086]], [[76.44243373077342, 31.476926178705543], [76.44432811064686, 31.47690481805964], [76.44430317131469, 31.475281275704262], [76.44240882412399, 31.47530263499822], [76.44243373077342, 31.476926178705543]], [[76.43273918413367, 31.46242059225845], [76.43463327998853, 31.462399383780916], [76.43460852208527, 31.46077583081665], [76.4327144588901, 31.460797037951508], [76.43273918413367, 31.46242059225845]], [[76.40364965862145, 31.417275118635803], [76.40554287063935, 31.417254367014955], [76.40549444633523, 31.414007196740897], [76.40738759122252, 31.413986419800608], [76.40736334942368, 31.41236283533732], [76.405470237119, 31.412383610961076], [76.40544602985986, 31.410760024752744], [76.40165986454242, 31.41080148953051], [76.40168400664118, 31.412425078366503], [76.4035771228573, 31.412404358637495], [76.40360129949075, 31.414027945732077], [76.4017081506917, 31.41404866677407], [76.40173229669416, 31.41567225475321], [76.40362547807874, 31.41565153239818], [76.40364965862145, 31.417275118635803]], [[76.40352877545354, 31.409157183162964], [76.4054218245576, 31.409136438115922], [76.40539762121213, 31.407512851050623], [76.40350460468294, 31.407533594783033], [76.40352877545354, 31.409157183162964]], [[76.40161158619972, 31.407554310573325], [76.40350460468294, 31.407533594783033], [76.40348043586633, 31.40591000597467], [76.40158744995551, 31.405930720452147], [76.40161158619972, 31.407554310573325]], [[76.48659068919159, 31.39360619237458], [76.48848335668545, 31.393584230429017], [76.48843212305128, 31.390337167312566], [76.48653952064457, 31.390359126474003], [76.48659068919159, 31.39360619237458]], [[76.40306986481158, 31.37830893069684], [76.40496229544301, 31.37828821062016], [76.40493812924979, 31.376664615416267], [76.40683052540231, 31.376643868744985], [76.40678213383605, 31.373396679683555], [76.41056679018625, 31.373355107888784], [76.41051827638393, 31.370107922386662], [76.41241053658767, 31.37008709727382], [76.41243482502193, 31.371710688918355], [76.41432711577542, 31.371689834582128], [76.41427847584612, 31.3684426535096], [76.41238625011736, 31.368463505200953], [76.41236196561086, 31.366839912699774], [76.41046977042689, 31.366860735171382], [76.41044552038997, 31.36523714092133], [76.41233768306802, 31.36521631977027], [76.41228912387277, 31.36196913262641], [76.41039702619874, 31.361989951136504], [76.4103727820441, 31.36036635560175], [76.40658864581333, 31.360407906309778], [76.40666118915382, 31.36527869953623], [76.40476902060097, 31.365299436999848], [76.40474487003574, 31.36367583837064], [76.40285273203374, 31.36369654662482], [76.40290097010684, 31.366943746082026], [76.4047931731192, 31.366923035200944], [76.4048414840153, 31.370170230318717], [76.40294921598205, 31.370190943826895], [76.4029733418458, 31.371814542057177], [76.40108103934722, 31.371835228975776], [76.40115333108534, 31.37670602503356], [76.40304573114324, 31.376685334179154], [76.40306986481158, 31.37830893069684]], [[76.41595162476875, 31.353809449805876], [76.41784355408323, 31.35378855424806], [76.41779482746851, 31.3505413690512], [76.41401109680481, 31.350583126985427], [76.41403539416312, 31.352206722447168], [76.41592729296076, 31.35218585609611], [76.41595162476875, 31.353809449805876]], [[76.45946549583425, 31.3533217977769], [76.46135737916467, 31.35330026093771], [76.46133226776747, 31.351676699527978], [76.4594404169183, 31.351698235000995], [76.45946549583425, 31.3533217977769]], [[76.48751133302613, 31.331889736970865], [76.49129419209692, 31.331845835244437], [76.49124298587952, 31.328598745012734], [76.48935162226523, 31.3286207070163], [76.48937719189638, 31.330244253740908], [76.4874857937718, 31.330266189284046], [76.48751133302613, 31.331889736970865]], [[76.48178614715448, 31.32870827650489], [76.48556888883535, 31.328664547465944], [76.48554338615173, 31.32704099752926], [76.48176070935102, 31.32708472379307], [76.48178614715448, 31.32870827650489]], [[76.31000512253202, 31.218526512706283], [76.31189443599195, 31.21850725389034], [76.31187201147101, 31.216883555495542], [76.30998273028304, 31.216902813086705], [76.31000512253202, 31.218526512706283]], [[76.33454324340964, 31.216650300850464], [76.33832175633925, 31.216611036753182], [76.33829888187613, 31.21498735526516], [76.3364096586033, 31.21500699993284], [76.33638681825651, 31.21338331677002], [76.33260843069729, 31.213422520406223], [76.33263120651385, 31.215046206062535], [76.33452043348169, 31.215026616865337], [76.33454324340964, 31.216650300850464]]]}, "properties": {"hazard_class": 4, "hazard_name": "Extreme", "area_ha": 67145.76}}]}